,address,location,latitude,longtitude,type
0,제주특별자치도 제주시 한림읍 귀덕리 1195-1(대),리사무소 입구,33.444151,126.294594,clean
1,제주특별자치도 제주시 한림읍 귀덕리 2453-3(대),신서동 집하장 앞,33.432083,126.288722,clean
2,제주특별자치도 제주시 한림읍 귀덕리 4174(도),사동 매역동산,33.431374,126.288467,clean
3,제주특별자치도 제주시 한림읍 귀덕리 1645-3(도),성로삼거리,33.435567,126.296171,clean
4,제주특별자치도 제주시 한림읍 귀덕리 1676-3,성로동 서쪽 끝,33.435638,126.293985,clean
5,제주특별자치도 제주시 한림읍 귀덕리 3011-3(도),어촌계횟집 맞은편도로,33.444056,126.290369,clean
6,제주특별자치도 제주시 한림읍 귀덕리 1008-1(대),주영(구 농협창고)맞은편 대도로변,33.446262,126.294407,clean
7,제주특별자치도 제주시 한림읍 귀덕리 976-8,동축항 입구,33.447527,126.294214,clean
8,제주특별자치도 제주시 한림읍 귀덕리 710-4(도) 귀덕로 62,정석 아래 폭낭 맞은편,33.440694,126.297277,clean
9,제주특별자치도 제주시 한림읍 귀덕리 1893-1(도),신서동 동동네 삼거리 부근,33.429645,126.292527,clean
10,제주특별자치도 제주시 한림읍 귀덕리 1091,해성아파트 입구,33.442615,126.291973,clean
11,제주특별자치도 제주시 한림읍 귀덕리 1311-3,중동회관 남쪽,33.439414,126.295653,clean
12,제주특별자치도 제주시 한림읍 귀덕리 431,우주전파센터,33.431458,126.296394,clean
13,"제주특별자치도 제주시 한림읍 귀덕리 4070(대),4174(도)",리사무소 옆,33.443278,126.279153,clean
14,제주특별자치도 제주시 한림읍 귀덕리 3882,켄싱턴리조트  해안도로변,33.439393,126.274805,clean
15,제주특별자치도 제주시 한림읍 귀덕리 4166,올레코지 게스트하우스,33.442811,126.277174,clean
16,제주특별자치도 제주시 한림읍 귀덕리 3118,초록마을,33.444172,126.281588,clean
17,제주특별자치도 제주시 한림읍 귀덕리 3127-2(잡),귀덕2리 해안도로변,33.444281,126.283397,clean
18,제주특별자치도 제주시 한림읍 귀덕리 3238,레몬하우스(자체설치),33.439389,126.285304,clean
19,제주특별자치도 제주시 한림읍 귀덕리 228-3(전),천호제일사료 주차장,33.423142,126.298315,clean
20,제주특별자치도 제주시 한림읍 귀덕리 2074(대),리사무소앞 광장,33.421235,126.29637,clean
21,제주특별자치도 제주시 한림읍 귀덕리 2193-1,농협창고 옆,33.418889,126.296624,clean
22,제주특별자치도 제주시 한림읍 귀덕리2255-6,대림~귀덕3리 입구,33.420124,126.291406,clean
23,제주특별자치도 제주시 한림읍 수원리 960-6(도),한림빌라 맞은편 동쪽,33.429861,126.263775,clean
24,제주특별자치도 제주시 한림읍 수원리 790-1(대),"대동, 대제빌라 내부",33.426889,126.264152,clean
25,제주특별자치도 제주시 한림읍 수원리 230-4 뒤편,어촌계회관 뒤편,33.437705,126.271989,clean
26,제주특별자치도 제주시 한림읍 수원리 644-6,대산빌라 인근 하우스옆도로,33.430195,126.266094,clean
27,제주특별자치도 제주시 한림읍 수원리 277-16,리사무소 옆,33.429608,126.270897,clean
28,제주특별자치도 제주시 한림읍 수원리 713-8,취락구조 삼거리 퐁낭 앞,33.428013,126.267653,clean
29,제주특별자치도 제주시 한림읍 대림리 1591,수원초등학교 후문,33.425662,126.27048,clean
30,제주특별자치도 제주시 한림읍 한수리 885-1(대),노인회관 내부,33.423055,126.263609,clean
31,"제주특별자치도 제주시 한림읍 한수리 832-9(전),832-3(전)",신진자전거점 맞은편 주차장,33.424532,126.265236,clean
32,제주특별자치도 제주시 한림읍 한수리 920-14(도),한수리 해안도로변,33.424797,126.263001,clean
33,제주특별자치도 제주시 한림읍 한수리 920-12(잡),허화규댁 앞 무료주차장,33.423989,126.263588,clean
34,제주특별자치도 제주시 한림읍 한수리 845-2,한수리 정류소 옆,33.423744,126.264413,clean
35,제주특별자치도 제주시 한림읍 한수리 879-14,한수관광어촌지원센터 뒤,33.422305,126.262676,clean
36,제주특별자치도 제주시 한림읍 대림리 766-4(창),리사무소앞 저온저장고,33.424838,126.280978,clean
37,제주특별자치도 제주시 한림읍 대림리 1468-1(도),"서동 일주도로변
 소공원",33.426486,126.277492,clean
38,제주특별자치도 제주시 한림읍 대림리 578-7(도),리사무소 옆길 한림3리 입구,33.423644,126.282016,clean
39,제주특별자치도 제주시 한림읍 대림리 676-1,입전동 정자 주변,33.42622,126.285069,clean
40,제주특별자치도 제주시 한림읍 대림리 456-2(도),광이동 입구 공터,33.423333,126.277812,clean
41,제주특별자치도 제주시 한림읍 대림리 1901-10(전),한림순복음교회 앞,33.42192,126.265288,clean
42,제주특별자치도 제주시 한림읍 대림리 2019-13,사동 어린이놀이터(한수중계펌프장 골목),33.420834,126.263591,clean
43,제주특별자치도 제주시 한림읍 대림리 1882-4,한수풀도서관 입구 맞은편,33.42198,126.266984,clean
44,제주특별자치도 제주시 한림읍 대림리 1705-4,오일시장 내,33.421957,126.274619,clean
45,제주특별자치도 제주시 한림읍 대림리 1885,주공아파트,33.421294,126.266174,clean
46,제주특별자치도 제주시 한림읍 대림리 1853-1,미듬아파트,33.420953,126.268311,clean
47,제주특별자치도 제주시 한림읍 대림리 417-1,반석아파트,33.422921,126.275921,clean
48,제주특별자치도 제주시 한림읍 대림리 1771-6,제주 대림요양병원,33.420501,126.269015,clean
49,제주특별자치도 제주시 한림읍 대림리 2015,사형제횟집,33.424419,126.266056,clean
50,제주특별자치도 제주시 한림읍 한림리 1328-62(도),리사무소 앞,33.418245,126.262176,clean
51,제주특별자치도 제주시 한림읍 한림리 1531-4(도),영신연립 옆 한흥블럭사,33.413014,126.263642,clean
52,제주특별자치도 제주시 한림읍 한림리 1449-2(도),왕수학교실 삼거리,33.414207,126.264171,clean
53,제주특별자치도 제주시 한림읍 한림리 1328-39,안동국밥 맞은편,33.417448,126.263262,clean
54,제주특별자치도 제주시 한림읍 한림리 1421-2,중앙약국 옆,33.415741,126.264278,clean
55,제주특별자치도 제주시 한림읍 한림리 1213-2,김밥천국 옆 주차장,33.415861,126.2647,clean
56,제주특별자치도 제주시 한림읍 한림리 1388,한림고물상 앞(주민자치센터 뒤),33.414548,126.262697,clean
57,제주특별자치도 제주시 한림읍 한림리 1592-4,성용수산입구 인도블럭,33.414721,126.258682,clean
58,제주특별자치도 제주시 한림읍 한림리 1582-7,미화연립 앞,33.414103,126.264359,clean
59,제주특별자치도 제주시 한림읍 한림리 1525,유성빌라 앞,33.411354,126.26123,clean
60,제주특별자치도 제주시 한림읍 한림리 1377-41(제),농협 농기계수리센터 위,33.414383,126.254047,clean
61,제주특별자치도 제주시 한림읍 한림리 1535-1,한림초 옆 삼영노블리안 아파트 내,33.41201,126.262609,clean
62,제주특별자치도 제주시 한림읍 한림리 1328-15,한림 선원복지회관,33.417288,126.261392,clean
63,제주특별자치도 제주시 한림읍 한림리 579(전),원광어린이집 앞,33.416668,126.270894,clean
64,제주특별자치도 제주시 한림읍 한림리 1582(도) (명랑로4길2),노인회관 뒤 주차장,33.416211,126.266705,clean
65,제주특별자치도 제주시 한림읍 한림리 1582(도) (한림남2길 25),산아진동산,33.413203,126.262573,clean
66,제주특별자치도 제주시 한림읍 한림리 1309(대),천주교 버스정류소 옆,33.419574,126.265843,clean
67,제주특별자치도 제주시 한림읍 한림리 680-1(전),삼손가든 아래,33.412792,126.270897,clean
68,제주특별자치도 제주시 한림읍 한림리 1232-1,감협 뒤 공터,33.416647,126.266494,clean
69,제주특별자치도 제주시 한림읍 한림리 905-36,읍사무소 옆 도로,33.413033,126.267901,clean
70,제주특별자치도 제주시 한림읍 한림리 915-9,백부장집 맞은편,33.411132,126.265942,clean
71,제주특별자치도 제주시 한림읍 대림리 1776-1(도),대명종합타일,33.419284,126.268064,clean
72,제주특별자치도 제주시 한림읍 한림리 1253-4,오렌지빌 빌라,33.417867,126.269346,clean
73,제주특별자치도 제주시 한림읍 한림리 1252-3,성우아파트 입구  (자체설치),33.41755,126.269448,clean
74,제주특별자치도 제주시 한림읍 한림리 551-6,대호아파트 나동 옆 공터,33.416667,126.270398,clean
75,제주특별자치도 제주시 한림읍 한림리 887-2,한림체육관 내부,33.410831,126.268135,clean
76,제주특별자치도 제주시 한림읍 한림리 600,정낭장례식장 내부,33.412733,126.272198,clean
77,제주특별자치도 제주시 한림읍 한림리 89-1(대),한림3리사무소 옆,33.414382,126.284523,clean
78,제주특별자치도 제주시 한림읍 한림리 65-5(도),양공원씨댁 앞,33.415101,126.281321,clean
79,제주특별자치도 제주시 한림읍 한림리 175-10,강구리사무소 앞,33.412084,126.277399,clean
80,제주특별자치도 제주시 한림읍 상대리 2720-5(전),상대리사무소 내부,33.40967,126.293482,clean
81,제주특별자치도 제주시 한림읍 상대리 4556-1(대),서부요양원 입구,33.394684,126.278522,clean
82,제주특별자치도 제주시 한림읍 상대리 3509,상대리 한흥블럭사 앞 도로변,33.398752,126.287082,clean
83,제주특별자치도 제주시 한림읍 상대리 4337,길정신건강센터 내부,33.405484,126.27927,clean
84,제주특별자치도 제주시 한림읍 동명리 2086-1(도),농협창고 앞(진근동 회관 앞),33.405711,126.263811,clean
85,제주특별자치도 제주시 한림읍 동명리 2062-4(답) (명월성로71),개명물(황룡사입구 맞은편),33.40523,126.262735,clean
86,제주특별자치도 제주시 한림읍 동명리 1324-2,관정 옆 공터,33.399086,126.265502,clean
87,제주특별자치도 제주시 한림읍 동명리 1540-1(도),한림공고 후문 옆,33.407347,126.269246,clean
88,제주특별자치도 제주시 한림읍 동명리 175-4,문수동 선과장앞 안전지대,33.385716,126.283458,clean
89,제주특별자치도 제주시 한림읍 동명리 1601-2,삼일식당 사거리,33.408449,126.263919,clean
90,제주특별자치도 제주시 한림읍 동명리 1832,칠사돈 옆 공터,33.406275,126.260889,clean
91,제주특별자치도 제주시 한림읍 동명리 663(대),"서부소방서 앞
 대도로변",33.403089,126.270316,clean
92,제주특별자치도 제주시 한림읍 동명리 1581-1,한림 코아루아파트,33.408089,126.264704,clean
93,제주특별자치도 제주시 한림읍 동명리 1169,까사루나 펜션(하나카센터),33.392348,126.264689,clean
94,제주특별자치도 제주시 한림읍 명월리 382-2(전),명월상동 팽나무 공터,33.374656,126.281303,clean
95,제주특별자치도 제주시 한림읍 명월리 1777-5(과),리사무소 옆,33.386686,126.267297,clean
96,제주특별자치도 제주시 한림읍 명월리 2089-5,한림고 입구 사거리(국도변),33.396461,126.260238,clean
97,제주특별자치도 제주시 한림읍 명월리 2124(도),명월리 교차로(명월성),33.397686,126.262142,clean
98,제주특별자치도 제주시 한림읍 명월리 152-1(전),기성영농 뒤쪽,33.36912,126.283553,clean
99,제주특별자치도 제주시 한림읍 명월리 1965,동산슈퍼 뒤 브라운트리타운,33.392934,126.258683,clean
100,제주특별자치도 제주시 한림읍 금악리 1911-3(도),금악리사무소 앞,33.357417,126.296155,clean
101,제주특별자치도 제주시 한림읍 금악리 1164-6 (금악북로 170),탐라인공수정센터,33.359273,126.309252,clean
102,제주특별자치도 제주시 한림읍 금악리 1181-22,제일양돈단지 입구,33.355255,126.313942,clean
103,제주특별자치도 제주시 한림읍 금악리 77-5,성이시돌 젊음의 집 후문,33.344159,126.326335,clean
104,제주특별자치도 제주시 한림읍 금악리 109-7,이시돌 주택 주차장,33.342894,126.32273,clean
105,제주특별자치도 제주시 한림읍 금악리 109-6,이시돌 복지의원 내부,33.344518,126.320879,clean
106,제주특별자치도 제주시 한림읍 금악리 2048-2,새물통 삼거리,33.357931,126.297923,clean
107,제주특별자치도 제주시 한림읍 금악리 2033-8,성산교회 사거리,33.359688,126.29842,clean
108,제주특별자치도 제주시 한림읍 금악리 2031-16,금악 동물병원 옆 삼거리,33.3608,126.298243,clean
109,제주특별자치도 제주시 한림읍 금악리 2234-5(도),금악리 농협창고 주변,33.361863,126.295767,clean
110,제주특별자치도 제주시 한림읍 금악리 산31-15,제주우유 안쪽,33.351858,126.358314,clean
111,제주특별자치도 제주시 한림읍 상명리 2361(도),중천이물 공터,33.360588,126.279123,clean
112,제주특별자치도 제주시 한림읍 상명리 1111-2,리사무소 맞은편 도로,33.359224,126.270772,clean
113,제주특별자치도 제주시 한림읍 상명리 211-12(도),조성동 삼거리,33.351924,126.277277,clean
114,제주특별자치도 제주시 한림읍 상명리 1758-1,동카름,33.363471,126.268686,clean
115,제주특별자치도 제주시 한림읍 월림리 3256(도) (중산간서로 3869),부녀회관 뒤,33.349003,126.255996,clean
116,제주특별자치도 제주시 한림읍 월림리 3256(도) (중산간서로 3877),월림편의점 앞,33.349917,126.256053,clean
117,"제주특별자치도 제주시 한림읍 금능리 295-1(도),2316(도)",월림리 창고,33.351238,126.255344,clean
118,제주특별자치도 제주시 한림읍 옹포리 127-24(임),리사무소 공터,33.403034,126.255244,clean
119,제주특별자치도 제주시 한림읍 옹포리 319-2(도),영농법인 삼다 옆 골목,33.406034,126.256674,clean
120,제주특별자치도 제주시 한림읍 옹포리 363,안성상회 옆,33.405004,126.254749,clean
121,제주특별자치도 제주시 한림읍 옹포리 500-9,옹포횟집 앞,33.40415,126.251665,clean
122,제주특별자치도 제주시 한림읍 옹포리 618,비치빌라 앞 도로변,33.401566,126.252334,clean
123,제주특별자치도 제주시 한림읍 옹포리 636-1,썬빌리지아파트내,33.400264,126.252931,clean
124,제주특별자치도 제주시 한림읍 옹포리 155,맨도롱빌라,33.401564,126.254832,clean
125,제주특별자치도 제주시 한림읍 협재리 2872(도),통물 옆,33.382016,126.254513,clean
126,제주특별자치도 제주시 한림읍 협재리 2447-45(잡),해수욕장 동측 주차장,33.394775,126.240884,clean
127,제주특별자치도 제주시 한림읍 협재리 2447(임),해수욕장 서측 주차장,33.393844,126.239456,clean
128,제주특별자치도 제주시 한림읍 협재리 1567-1(대),블루오션,33.39756,126.246913,clean
129,제주특별자치도 제주시 한림읍 협재리 1468-1,우체국 맞은편,33.398087,126.24491,clean
130,제주특별자치도 제주시 한림읍 협재리 1723-2,일주도로 하얀집간판 앞,33.395671,126.242506,clean
131,제주특별자치도 제주시 한림읍 협재리 1816,협재교회 입구 도로변,33.394944,126.243346,clean
132,제주특별자치도 제주시 한림읍 협재리 1942-3,KT 송신탑,33.395249,126.247665,clean
133,제주특별자치도 제주시 한림읍 협재리 2504-2,해수욕장 화장실,33.393101,126.238553,clean
134,제주특별자치도 제주시 한림읍 협재리 876-9,제주리조텔 내부,33.378169,126.251564,clean
135,제주특별자치도 제주시 한림읍 협재리 977-1,낭빌레 하우스,33.382363,126.251587,clean
136,제주특별자치도 제주시 한림읍 협재리 899-3,"금강산콘도방향
 솔밭마을(하르방산장)",33.375151,126.250738,clean
137,제주특별자치도 제주시 한림읍 금능리 1494-7(유),포구 앞 공터,33.389304,126.228851,clean
138,제주특별자치도 제주시 한림읍 금능리 1401(잡),금능 오폐수 정화시설 뒤,33.389177,126.229862,clean
139,제주특별자치도 제주시 한림읍 금능리 1700-1,세운석유 앞,33.388023,126.225576,clean
140,제주특별자치도 제주시 한림읍 금능리 1634-2(도),능향원 앞,33.38595,126.223613,clean
141,제주특별자치도 제주시 한림읍 금능리 2036-1,"금능해수욕장
 화장실",33.390003,126.235826,clean
142,제주특별자치도 제주시 한림읍 금능리 1270-4(도) (한림로 201),"바다와 공원
 맞은편 도로",33.386601,126.229409,clean
143,제주특별자치도 제주시 한림읍 금능리 407-7,금능농공단지 삼다 삼거리,33.359428,126.242717,clean
144,제주특별자치도 제주시 한림읍 금능리 407-15,금능농공단지 대산파이프 삼거리,33.358146,126.242018,clean
145,제주특별자치도 제주시 한림읍 금능리 340-1,감귤복합처리가공공장 입구,33.352356,126.251232,clean
146,제주특별자치도 제주시 한림읍 금능리 350-4,서부농업기술센터 내부,33.353565,126.248375,clean
147,제주특별자치도 제주시 한림읍 월령리 424-1(대),리사무소 내부,33.376146,126.215489,clean
148,제주특별자치도 제주시 한림읍 월령리 317-1,월령리 포구 공터,33.37851,126.216293,clean
149,제주특별자치도 제주시 한림읍 월령리 262-1,삼거리부근 (연못),33.377425,126.216521,clean
150,제주특별자치도 제주시 한림읍 월령리 376-1,올레길 주차장,33.376319,126.21441,clean
151,제주특별자치도 제주시 한림읍 월령리 346,월령코지펜션 앞,33.380118,126.21601,clean
152,제주특별자치도 제주시 애월읍 애월리 2060-2,내고향주유소 동측,33.464767,126.316634,clean
153,제주특별자치도 제주시 애월읍 애월리 489-20,한울카센터 안길,33.466038,126.327419,clean
154,제주특별자치도 제주시 애월읍 애월리 405-4,애월중 북측길,33.464177,126.327676,clean
155,제주특별자치도 제주시 애월읍 일주서로 6233,애월읍사무소 동측 주차장,33.462281,126.32994,clean
156,제주특별자치도 제주시 애월읍 곽지리 1996-1,"곽지리사무소
맞은편",33.445406,126.308285,clean
157,제주특별자치도 제주시 애월읍 곽지리 1568-1,해변입구(다시정식당맞은편),33.449534,126.305235,clean
158,제주특별자치도 제주시 애월읍 곽지리 1572-2,"해변 입구(길가온
펜션 앞)",33.44903,126.305253,clean
159,제주특별자치도 제주시 애월읍 곽지리 2060-12  앞,"해변입구(세븐
일레븐 골목 )",33.446639,126.305017,clean
160,제주특별자치도 제주시 애월읍 금성2길24,리사무소,33.442167,126.300805,clean
161,제주특별자치도 제주시 애월읍 금성1길15 맞은편,슴성 554-2(하동주차장),33.445564,126.300612,clean
162,제주특별자치도 제주시 애월읍 금성2길64,금성리(상동) 756-1 창고,33.439192,126.30158,clean
163,제주특별자치도 제주시 애월읍 봉성리 3605-3(구몰동길 65),선운정사 앞,33.429482,126.307701,clean
164,제주특별자치도 제주시 애월읍 봉성리 4096-4,중화동,33.417209,126.311278,clean
165,제주특별자치도 제주시 애월읍 봉성로2길 13,마을소유(문화주택2차),33.416351,126.312126,clean
166,제주특별자치도 제주시 애월읍 봉성리 3248-2,신명동,33.417372,126.317248,clean
167,제주특별자치도 제주시 애월읍 봉성리 3375-1,구몰동,33.42521,126.313314,clean
168,제주특별자치도 제주시 애월읍 봉성로3길 17,중화동회관 앞,33.419174,126.310783,clean
169,제주특별자치도 제주시 애월읍 봉성로2길 55 삼거리,봉성리 3080-9도,33.415228,126.314484,clean
170,제주특별자치도 제주시 애월읍 봉성리 3816-4,리사무소 옆,33.421612,126.312702,clean
171,제주특별자치도 제주시 애월읍 어음1리 3642-2,어음1리사무소 맞은편,33.416656,126.3311,clean
172,제주특별자치도 제주시 애월읍 어음1리 3395-1,계원동 정류장 옆,33.409819,126.333892,clean
173,제주특별자치도 제주시 애월읍 어음2리 2960-17 대,마을회관(어음2리 2960-5)옆,33.400983,126.337029,clean
174,제주특별자치도 제주시 애월읍 어음2리 2922-1,어음분교후문,33.402691,126.337906,clean
175,제주특별자치도 제주시 애월읍 납읍리 1753-4, 애월읍 납읍리 1753-4,33.439599,126.329631,clean
176,제주특별자치도 제주시 애월읍 애납로 161 옆, 애월읍 애납로 161 옆,33.440094,126.328073,clean
177,제주특별자치도 제주시 애월읍 납읍리 2420-2,부농삼거리,33.436996,126.327981,clean
178,제주특별자치도 제주시 애월읍 납읍리 1609-5, 애월읍 납읍리 1609-5,33.438438,126.331798,clean
179,제주특별자치도 제주시 애월읍 납읍리 1622-4, 애월읍 납읍리 1622-4,33.438048,126.333835,clean
180,제주특별자치도 제주시 애월읍 납읍리 1595, 애월읍 납읍리 1595,33.437389,126.331896,clean
181,제주특별자치도 제주시 애월읍 고내리 663-4,구도로버스정거장앞공터,33.463012,126.339015,clean
182,제주특별자치도 제주시 애월읍 고내5길33앞,고내리 961-3,33.465022,126.336856,clean
183,제주특별자치도 제주시 애월읍 고내리 216-1,애월119센타,33.46666,126.349166,clean
184,제주특별자치도 제주시 애월읍 상가리 1196-4,리사무소내 저온저장고 남측,33.449521,126.345954,clean
185,제주특별자치도 제주시 애월읍 상가리 1794-3 앞,상가리버스표지판 남측 안길,33.451595,126.341996,clean
186,제주특별자치도 제주시 애월읍 상가중길43 맞은편 퐁낭, 애월읍 상가중길43 맞은편 퐁낭,33.44992,126.343465,clean
187,제주특별자치도 제주시 애월읍 상가리 1249-1 입구, 애월읍 상가리 1249-1 입구,33.451417,126.347325,clean
188,제주특별자치도 제주시 애월읍 하가로 141,하가리사무소,33.457118,126.350011,clean
189,제주특별자치도 제주시 애월읍 하가로141-2,연화주택,33.456652,126.350285,clean
190,제주특별자치도 제주시 애월읍 하가리 887,하가로 1길,33.457122,126.352702,clean
191,제주특별자치도 제주시 애월읍 하가리 1373-2,고하상로,33.455343,126.348946,clean
192,제주특별자치도 제주시 애월읍 신엄8길10 앞, 애월읍 신엄8길10 앞,33.470563,126.367773,clean
193,제주특별자치도 제주시 애월읍 애월해안로 466 남측도로,고스트타운 입구,33.47304,126.366938,clean
194,제주특별자치도 제주시 애월읍 신엄안3길46 앞,섯동네,33.47386,126.362241,clean
195,제주특별자치도 제주시 애월읍 신엄9길 22-2,리사무소(신엄9길24) 동측,33.473586,126.36796,clean
196,제주특별자치도 제주시 애월읍 신엄리 1005-3,어촌계공동창고 앞,33.475882,126.366516,clean
197,제주특별자치도 제주시 애월읍 신엄리 3091-1,농수산직거래장터 내,33.46956,126.360019,clean
198,제주특별자치도 제주시 애월읍 신엄706,리사무소입구,33.472672,126.372911,clean
199,제주특별자치도 제주시 애월읍 신엄753,구엄초뒷편,33.472805,126.374134,clean
200,제주특별자치도 제주시 애월읍 신엄786-1,노인회관앞,33.473868,126.373078,clean
201,제주특별자치도 제주시 애월읍 신엄814-3,명보빌라 앞 무료주차장,33.475207,126.372986,clean
202,제주특별자치도 제주시 애월읍 신엄리 851,금정누리빌 근처,33.476336,126.372567,clean
203,제주특별자치도 제주시 애월읍 신엄1231-1 서측 도로안,칠성교통근방,33.472738,126.370549,clean
204,제주특별자치도 제주시 애월읍 신엄리 1211-1,새가름,33.474751,126.370961,clean
205,제주특별자치도 제주시 애월읍 혜성샤르빌(중엄안3길13)  북측 코너, 애월읍 혜성샤르빌(중엄안3길13) ,33.475563,126.372119,clean
206,제주특별자치도 제주시 애월읍 구엄길9옆,대신빌라옆,33.475338,126.375934,clean
207,제주특별자치도 제주시 애월읍 구엄1103-1,해오름가는길,33.476628,126.377057,clean
208,제주특별자치도 제주시 애월읍 중구엄길 39 북쪽,구엄정자 옆,33.477229,126.379482,clean
209,제주특별자치도 제주시 애월읍 구엄동1길34(해오름어린이집) 옆,구엄리 873-1 임 세갈래 길,33.477229,126.379482,clean
210,제주특별자치도 제주시 애월읍 구엄4길48,돌빌레식당앞,33.483658,126.377516,clean
211,제주특별자치도 제주시 애월읍 일주서로6798,소망빌라 옆 골목,33.47467,126.378085,clean
212,제주특별자치도 제주시 애월읍 구엄남길 3,만미식품 뒤편,126.379472,33.4707731,clean
213,제주특별자치도 제주시 애월읍 신용로142,리사무소 앞,33.459094,126.369367,clean
214,제주특별자치도 제주시 애월읍 신엄리1728-1,용흥2길2 맞은편 무료주차장,33.46196,126.368445,clean
215,제주특별자치도 제주시 애월읍 신엄리1724-1,무료주차장 서측 삼거리,33.462135,126.367032,clean
216,제주특별자치도 제주시 애월읍 용흥2길39,용흥리 향기마을 자연체험장,33.460393,126.366495,clean
217,제주특별자치도 제주시 애월읍 신엄리1796-1,용흥6길입구 용흥상동 버스정류장 맞은편,33.45601,126.369733,clean
218,제주특별자치도 제주시 애월읍 신엄리1913-3,용흥입구 북측 삼거리,33.454529,126.370432,clean
219,제주특별자치도 제주시 애월읍 하귀2길 31,윤정빌리지 서측,33.48898,126.415653,clean
220,제주특별자치도 제주시 애월읍 하귀12길 36,동귀어촌계횟집 동측,33.487177,126.408888,clean
221,제주특별자치도 제주시 애월읍 하귀10길 17,리사무소북측,33.486867,126.41029,clean
222,제주특별자치도 제주시 애월읍 비바리짬뽕(하귀3길 35)옆,하귀1리 123-10차,33.486157,126.415872,clean
223,제주특별자치도 제주시 애월읍 하귀12길 22,동귀어촌계횟집 앞,33.486059,126.408706,clean
224,제주특별자치도 제주시 애월읍 하귀동남3길33,하귀일초등학교 옆 무료주차장,33.483841,126.414349,clean
225,제주특별자치도 제주시 애월읍 하귀동남1길 61,동귀카센터 근처,33.486871,126.418405,clean
226,제주특별자치도 제주시 애월읍 일주서로 7219-1 고운각펜션 동측,하귀1리 271-4 도로,33.489607,126.419119,clean
227,제주특별자치도 제주시 애월읍 하귀 7길 30-3,망고레이길건너편,33.484417,126.416778,clean
228,제주특별자치도 제주시 애월읍 하귀1길 50,묘연사 주변,33.484144,126.419846,clean
229,제주특별자치도 제주시 애월읍 하귀1리 238-4,어린이공원 남측주차장,33.483122,126.415169,clean
230,제주특별자치도 제주시 애월읍 하귀5길 2-1 북쪽,바글바글식당 주변,33.487357,126.416297,clean
231,제주특별자치도 제주시 애월읍 하귀1리 159,하귀일초등학교 주변,33.482744,126.414553,clean
232,제주특별자치도 제주시 애월읍 하귀10길 56,후거프라이빗펜션 주변,33.489075,126.411404,clean
233,제주특별자치도 제주시 애월읍 하귀10길 33,안성전기앞쪽,33.488142,126.409814,clean
234,제주특별자치도 제주시 애월읍 하귀14길 3-10,세한빌라 앞쪽,33.484397,126.406808,clean
235,제주특별자치도 제주시 애월읍 하귀로 17길 20,명보빌라건너편 100m,33.480984,126.407155,clean
236,제주특별자치도 제주시 애월읍 하귀로 115-5,선진종합건축 옆,33.484251,126.407919,clean
237,제주특별자치도 제주시 애월읍 하광로208,예평교회 주변,33.469544,126.419446,clean
238,제주특별자치도 제주시 애월읍 일주서로 7217,고등어쌈밥가게,33.489043,126.418983,clean
239,제주특별자치도 제주시 애월읍 하귀로23길 17-1,하귀2리사무소주차장,33.479182,126.403526,clean
240,제주특별자치도 제주시 애월읍 하귀로21길 13-1,새마을금고 북측,33.481117,126.404682,clean
241,제주특별자치도 제주시 애월읍 하귀미수동길 30,하귀2리 1752-5 (그린마트 앞),33.480462,126.400994,clean
242,제주특별자치도 제주시 애월읍 하귀로85-5 맞으편,고성천 앞,33.4824208,126.405395,clean
243,제주특별자치도 제주시 애월읍 하귀로 72,"임닛물 앞
새마을금고 맞은편",33.4812632,126.4048288,clean
244,제주특별자치도 제주시 애월읍 하귀로 25길 입구,하귀2리 3018-9 소왕천 주차장 옆,33.475976,126.4026245,clean
245,제주특별자치도 제주시 애월읍 시드니호텔(가문동길4) 앞,하귀2리 2594-2 도로,33.4837855,126.395036,clean
246,제주특별자치도 제주시 애월읍 애월해안로 857 맞은편,고우니식당 앞,33.4882602,126.3897125,clean
247,제주특별자치도 제주시 애월읍 하귀2리 2729-1,가문동포구 팔각정 앞,33.4867135,126.392659,clean
248,제주특별자치도 제주시 애월읍 번대동길 20-1 앞,하귀2리 2988-2 도로,33.4768104,126.3917866,clean
249,제주특별자치도 제주시 애월읍 학원동길4(영일운수) 앞,하귀2리 3020 도로 퐁낭아래,33.4732691,126.3990252,clean
250,제주특별자치도 제주시 애월읍 학원동길 30앞,학원동길 30앞,33.4732251,126.3991777,clean
251,제주특별자치도 제주시 애월읍 개수전길 23 앞, 애월읍 개수전길 23 앞,126.401649,33.4732085,clean
252,제주특별자치도 제주시 애월읍 답동3길 18(탐라노인복지센터) 앞,하귀2리 1228-3 도로,33.4765445,126.4067248,clean
253,제주특별자치도 제주시 애월읍 하귀로23길 58 맞은편,하귀2리 2101-3 도로,33.4750434,126.4037831,clean
254,제주특별자치도 제주시 애월읍 하귀26길 4-1,교회교육원,33.478853,126.4087298,clean
255,제주특별자치도 제주시 애월읍 상귀리 528-4 앞 도로,리사무소 앞,33.4727819,126.4089365,clean
256,제주특별자치도 제주시 애월읍 상귀리 257-4,동동네,33.4737191,126.4115066,clean
257,제주특별자치도 제주시 애월읍 애월읍 항몽로 95,반석,33.475973,126.4100315,clean
258,제주특별자치도 제주시 애월읍 상귀리 1357,소앵동,33.4641625,126.4023766,clean
259,제주특별자치도 제주시 애월읍 상귀리 241-2,경찰서관사,33.474905,126.4122391,clean
260,제주특별자치도 제주시 애월읍 하소로163,수산리사무소 옆,33.4669663,126.3933044,clean
261,제주특별자치도 제주시 애월읍 하소로136(수산리531-3도),하소로136도로,33.4695247,126.3942662,clean
262,제주특별자치도 제주시 애월읍 엄수로165(공솔빌라앞),엄수로165,33.4687542,126.3898399,clean
263,제주특별자치도 제주시 애월읍 신성감귤선과장 측변,엄수로103,33.4687253,126.3841575,clean
264,제주특별자치도 제주시 애월읍 예원로103 고운돌업체옆 공터,상귀리 1572-2,33.4604354,126.3982447,clean
265,제주특별자치도 제주시 애월읍 번대동길 62,수산리 673-1,126.390695,33.4734886,clean
266,제주특별자치도 제주시 애월읍 소길버스승차대 앞,장전리 1638-2,33.4413018,126.3791764,clean
267,제주특별자치도 제주시 애월읍 소길운동장 위쪽 삼거리,소길리 793-3 도로,33.4346431,126.3794615,clean
268,제주특별자치도 제주시 애월읍 장전리453-2,성덕슈퍼옆(장전4길입구),33.450733,126.388327,clean
269,제주특별자치도 제주시 애월읍 장전리386-1 대,장전보건소(하소로353) 북측,33.451264,126.390944,clean
270,제주특별자치도 제주시 애월읍 장전4길14 사거리,장전리465-1,33.449664,126.388233,clean
271,제주특별자치도 제주시 애월읍 유수암리 1897앞,보건소(유수암평화길14-2)맞은편,33.441132,126.402547,clean
272,제주특별자치도 제주시 애월읍 유수암리 1042-16,경로당옆,33.4232823,126.4052429,clean
273,제주특별자치도 제주시 애월읍 유수암리 2017-1앞,광상로 310 동측도로,33.44319,126.400657,clean
274,제주특별자치도 제주시 애월읍 유수암리 2580-4,거문덕이,33.42949,126.396797,clean
275,제주특별자치도 제주시 애월읍 고성6길 4 부근,위치확인필요,33.458224,126.41532,clean
276,제주특별자치도 제주시 애월읍 고성3길 10 부근,농산물간이집하장 앞,33.458977,126.414148,clean
277,제주특별자치도 제주시 애월읍 광상로 115 입구 맞은편,솔베이지펜션 맞은편,33.446644,126.417589,clean
278,제주특별자치도 제주시 애월읍 고성휴먼시아 103동 옆,고성리 1449-1,33.465395,126.411052,clean
279,제주특별자치도 제주시 애월읍 고성리 133-9전,리사무소 앞,33.434952,126.425617,clean
280,제주특별자치도 제주시 애월읍 고성남길 101,원광요양원 내,33.4286795,126.4307172,clean
281,제주특별자치도 제주시 애월읍 광령리 2807-3,UTS골프빌리지 앞,33.462254,126.444807,clean
282,제주특별자치도 제주시 애월읍 광령북7길 71,광령초원빌라 앞,33.465402,126.43764,clean
283,제주특별자치도 제주시 애월읍 광령리 산 24,광령리 산 24,33.454543,126.439205,clean
284,제주특별자치도 제주시 애월읍 광령8길 33,광령8길 33 앞,33.458,126.440012,clean
285,제주특별자치도 제주시 애월읍 광령4길  28,광령초등학교 후문,33.459156,126.436053,clean
286,제주특별자치도 제주시 애월읍 광성로 277,광령한마음새마을금고 주차장,33.460685,126.436468,clean
287,제주특별자치도 제주시 애월읍 광령5길 18,광령5길 18번지 앞,33.462171,126.435722,clean
288,제주특별자치도 제주시 애월읍 광령7길 13 옆,광령7길 13 옆,33.462056,126.438276,clean
289,제주특별자치도 제주시 애월읍 광령리 1276-2,순두물 옆,33.460823,126.440054,clean
290,제주특별자치도 제주시 애월읍 광령리 3067-1,광령2리사무소,33.449003,126.429518,clean
291,제주특별자치도 제주시 애월읍 광령리 2812,올해해오름펜션,33.4490888,126.4295656,clean
292,제주특별자치도 제주시 애월읍 광령평화3길18옆,한라주유소옆,33.4471602,126.433258,clean
293,제주특별자치도 제주시 애월읍 광령리 2615,관광대체육관옆,33.446236,126.433497,clean
294,제주특별자치도 제주시 애월읍 광령리 2498-1,유정연립,33.451389,126.43289,clean
295,제주특별자치도 제주시 애월읍 광령평화7길 20 앞,버섯마을,126.437265,33.4521614,clean
296,제주특별자치도 제주시 애월읍 광령자종길1(리사무소옆),광령리 3798-16,33.4639398,126.4232881,clean
297,제주특별자치도 제주시 애월읍 광령자종길16 청년회사무실 앞,광령리 3803-2,33.4649968,126.424023,clean
298,제주특별자치도 제주시 애월읍 광령자종길54,광령리 3778-4,33.4667528,126.4220905,clean
299,제주특별자치도 제주시 구좌읍 김녕리 497-4,김녕성세기해변 주차장,33.556639,126.758906,clean
300,제주특별자치도 제주시 구좌읍 만장굴길 122(김녕리 산 16),김녕미로공원 내부,33.53597,126.772169,clean
301,제주특별자치도 제주시 구좌읍 만장굴길 182,만장굴주차장,33.529039,126.772307,clean
302,제주특별자치도 제주시 구좌읍 김녕로 21길 12(김녕리 1223-5),김녕어울림센터 앞,33.556412,126.755677,clean
303,제주특별자치도 제주시 구좌읍 김녕로18길 19-1(김녕리 1145-79), 구좌읍 김녕로18길 19-1(김녕리,33.554039,126.755347,clean
304,제주특별자치도 제주시 구좌읍 김녕로17길 36(김녕리 1267-3),세기알좀녀쉼터 옆,33.558362,126.75473,clean
305,제주특별자치도 제주시 구좌읍 김녕로17길 15,김녕어촌계창고 앞,33.556473,126.753471,clean
306,제주특별자치도 제주시 구좌읍 김녕로 141(김녕리1497-1),임풍해장국앞,33.555388,126.753148,clean
307,제주특별자치도 제주시 구좌읍 김녕리1457(김녕로 1길 87), 구좌읍 김녕리1457(김녕로 1길 ,33.557295,126.752555,clean
308,제주특별자치도 제주시 구좌읍 김녕리1466-1(김녕로 19길 32), 구좌읍 김녕리1466-1(김녕로 1,33.556582,126.752551,clean
309,제주특별자치도 제주시 구좌읍 김녕리 1754,김녕중 동쪽(도로변위치),33.553055,126.752113,clean
310,제주특별자치도 제주시 구좌읍 김녕로 118-20(김녕리 1726-2),김녕중학교 안,33.552135,126.750505,clean
311,제주특별자치도 제주시 구좌읍 김녕로 118(김녕리 1697-4),동부보건소 앞,33.554739,126.750707,clean
312,제주특별자치도 제주시 구좌읍 김녕로 11길 14-1,김녕초등학교 뒤,33.555557,126.749954,clean
313,제주특별자치도 제주시 구좌읍 해맞이해안로 200(김녕리 9-2),"한국에너지기술연구원
제주글로벌연구센터 내부",33.564371,126.772603,clean
314,제주특별자치도 제주시 구좌읍 김녕로9길 7,김녕어촌계로 들어가는길,33.554666,126.748855,clean
315,제주특별자치도 제주시 구좌읍 김녕로93(김녕리 2216),영월갈비 옆,33.554393,126.748115,clean
316,제주특별자치도 제주시 구좌읍 일주동로 2045(김녕리 1811),김녕리 사무소뒤,33.551681,126.74893,clean
317,제주특별자치도 제주시 구좌읍 김녕로 8길 14(김녕리 1795-1),김녕경노당,33.553249,126.748632,clean
318,제주특별자치도 제주시 구좌읍 김녕리 3678,영배이용원 앞,33.555862,126.74773,clean
319,제주특별자치도 제주시 구좌읍 김녕항3길 7(김녕리 3686),김녕서운타운앞,33.556215,126.747118,clean
320,제주특별자치도 제주시 구좌읍 김녕리 3722번지 앞,운동기구앞,33.557102,126.747398,clean
321,제주특별자치도 제주시 구좌읍 김녕항3길 12-29(김녕리 3994), 구좌읍 김녕항3길 12-29(김녕리,33.557566,126.747232,clean
322,제주특별자치도 제주시 구좌읍 김녕항1길 32,혼디어울렁,33.557766,126.744367,clean
323,제주특별자치도 제주시 구좌읍 김녕항1길 50-13,해양경비안전센터,33.55817,126.740336,clean
324,제주특별자치도 제주시 구좌읍 김녕리 3959 맞은편,김녕리 백련사 맞은편,33.555261,126.74412,clean
325,제주특별자치도 제주시 구좌읍 김녕리 497-6,구좌체육관 주차장,33.553559,126.744601,clean
326,제주특별자치도 제주시 구좌읍 김녕리 3100,빨간풍차펜션 앞,33.54842,126.742776,clean
327,제주특별자치도 제주시 구좌읍 구좌해안로 229-16,김녕요트투어,33.558094,126.737417,clean
328,제주특별자치도 제주시 구좌읍 김녕리 4402,선유어린이집,33.555551,126.735223,clean
329,제주특별자치도 제주시 구좌읍 일주동로 1853(김녕리 5974),피노&키오,33.55618,126.729668,clean
330,제주특별자치도 제주시 구좌읍 동김길 150,소망요양원,33.547313,126.731774,clean
331,제주특별자치도 제주시 구좌읍 김녕리 5552(동김길 162-20),윈드스톤비치 펜션,33.545875,126.731655,clean
332,제주특별자치도 제주시 구좌읍 김녕로1길75 오른쪽, 구좌읍 김녕로1길75 오른쪽,126.751249,33.5578048,clean
333,제주특별자치도 제주시 구좌읍 월덕로 522(덕천리 311),덕천교회,33.50463,126.771902,clean
334,제주특별자치도 제주시 구좌읍 덕평로 365,덕천마을회관 앞,33.502064,126.771421,clean
335,제주특별자치도 제주시 구좌읍 동백로 458(덕천리 766),한울랜드,33.49651,126.751019,clean
336,제주특별자치도 제주시 구좌읍 덕평로 77(덕천리 1033),효미농원앞,33.487748,126.749406,clean
337,제주특별자치도 제주시 구좌읍 덕평로 31,상덕천,33.48494,126.747739,clean
338,제주특별자치도 제주시 구좌읍 덕천리 1181(덕평로 12),상덕천버스정거장옆,33.483553,126.746478,clean
339,제주특별자치도 제주시 구좌읍 중산간동로 1921(덕천리 산 11),"제주글램핑, 자체적설치",33.481371,126.751836,clean
340,제주특별자치도 제주시 구좌읍 동복로 5,해녀식당 옆,33.553344,126.706827,clean
341,제주특별자치도 제주시 구좌읍 동복로 34,해녀촌식당 앞,33.55332,126.709669,clean
342,제주특별자치도 제주시 구좌읍 동복로 75-8,동복리 75-8 좌측,33.553688,126.714149,clean
343,제주특별자치도 제주시 구좌읍 동복리1379,동동게스트하우스옆,33.553138,126.71478,clean
344,제주특별자치도 제주시 구좌읍 구좌해안로 32,해녀잠수촌식당 옆,33.555149,126.719058,clean
345,제주특별자치도 제주시 구좌읍 일주동로 1724,꼬뜨도르호텔,33.552263,126.716486,clean
346,제주특별자치도 제주시 구좌읍 동복남4길 3,취락구조(동산아래),33.551394,126.712853,clean
347,제주특별자치도 제주시 구좌읍 동복남2길 19-2,취락구조(동산위),33.549792,126.709304,clean
348,제주특별자치도 제주시 구좌읍 일주동로 1626,메이더호텔 뒤편,33.552007,126.706345,clean
349,제주특별자치도 제주시 구좌읍 상도로 3(상도리 334-4), 구좌읍 상도로 3(상도리 334-4,33.514348,126.865997,clean
350,제주특별자치도 제주시 구좌읍 세종로 201(하도리 산76),125전경대 앞,33.50713,126.877225,clean
351,제주특별자치도 제주시 구좌읍 상하도길 34, 구좌읍 상하도길 34,33.516175,126.867448,clean
352,제주특별자치도 제주시 구좌읍 상하도길 46앞, 구좌읍 상하도길 46앞,33.51647,126.868445,clean
353,제주특별자치도 제주시 구좌읍 상도리 471-18(구좌로 128-7), 구좌읍 상도리 471-18(구좌로 ,33.520996,126.864748,clean
354,제주특별자치도 제주시 구좌읍 상도리 471-40(해녀박물관길 26),해녀박물관내에,33.523303,126.862887,clean
355,제주특별자치도 제주시 구좌읍 세종로 36(세화리 98), 구좌읍 세종로 36(세화리 98),33.515862,126.864077,clean
356,제주특별자치도 제주시 구좌읍 세화리 1561-6,구좌읍사무소 옆,33.522611,126.852555,clean
357,제주특별자치도 제주시 구좌읍 일주동로 3132(세화리 1198),세화중학교 안,33.521797,126.854023,clean
358,제주특별자치도 제주시 구좌읍 일주동로 3132(세화리 1198-1),동녁도서관 안,33.520961,126.854917,clean
359,제주특별자치도 제주시 구좌읍 충렬로 14 (세화리 1216-2),전향동복지회관 앞,33.519321,126.855598,clean
360,제주특별자치도 제주시 구좌읍 세화남길 25(세화리 875-3), 구좌읍 세화남길 25(세화리 875,33.517663,126.857219,clean
361,제주특별자치도 제주시 구좌읍 세송로 17,합전동복지회관 주차장,33.516578,126.860158,clean
362,제주특별자치도 제주시 구좌읍 세화합전1길 19 남측, 구좌읍 세화합전1길 19 남측,33.514592,126.860731,clean
363,제주특별자치도 제주시 구좌읍 세화리 1510-1,신영식품 근처,126.856104,33.5257675,clean
364,제주특별자치도 제주시 구좌읍 구좌로 116 앞,해녀박물관,33.521113,126.862908,clean
365,제주특별자치도 제주시 구좌읍 세화리 1381-2(해맞이해안로 1465),미엘드세화 맞은편,33.524729,126.861852,clean
366,제주특별자치도 제주시 구좌읍 세화11길 22,세화리 통항동회관 앞,33.52312,126.86108,clean
367,제주특별자치도 제주시 구좌읍 세화 14길 6,영주카센터 근처,33.52071,126.860517,clean
368,제주특별자치도 제주시 구좌읍 세화 12길 12-1,구좌보건지소 앞골목,33.520044,126.85955,clean
369,제주특별자치도 제주시 구좌읍 세화 10길 5-1, 구좌읍 세화 10길 5-1,33.520547,126.85834,clean
370,제주특별자치도 제주시 구좌읍 세화 8길 10 앞, 구좌읍 세화 8길 10 앞,33.521549,126.857401,clean
371,제주특별자치도 제주시 구좌읍 세화 7길 12,"세화초등학교 후문
(훈일카센터 건너편)",33.523235,126.858876,clean
372,제주특별자치도 제주시 구좌읍 세화4길 12,세화리 미리내빌 앞,33.522451,126.855503,clean
373,제주특별자치도 제주시 구좌읍 구좌로 26-8,만천탕 앞,33.522864,126.854437,clean
374,제주특별자치도 제주시 구좌읍 세화리 1477-3,쇼디치 카페 옆,33.524722,126.85947,clean
375,제주특별자치도 제주시 구좌읍 세화1길 12,천하일미 맞은편,33.524518,126.854475,clean
376,제주특별자치도 제주시 구좌읍 세화리 1491-3,상하이반점 골목 주차장 인근,33.524219,126.856568,clean
377,제주특별자치도 제주시 구좌읍 세화3길 18,주차장,33.524822,126.85586,clean
378,제주특별자치도 제주시 구좌읍 세화리1500-6(해맞이해안로 1412),바다회국수 옆(세화오일장인근),33.52575,126.857863,clean
379,제주특별자치도 제주시 구좌읍 세평항로 46-9,세화리사무소 주차장,33.52702,126.856454,clean
380,제주특별자치도 제주시 구좌읍 세평항로 46-3,리사무소 옆(거금도아구찜앞),33.527125,126.855408,clean
381,제주특별자치도 제주시 구좌읍 송당리 2602-1앞,대천동사거리,33.436515,126.735389,clean
382,제주특별자치도 제주시 구좌읍 비자림로 1575(송당리 2250-2),제주담 식당,33.451315,126.768503,clean
383,제주특별자치도 제주시 구좌읍 비자림로 1760 앞,송당상동 버스정거장앞,33.466529,126.772572,clean
384,제주특별자치도 제주시 구좌읍 송당서1길 4(송당리 1572-4),보건진료소 앞,33.469969,126.775615,clean
385,제주특별자치도 제주시 구좌읍 중산간동로 2142,송당리버스정류장 우측,33.471256,126.771335,clean
386,제주특별자치도 제주시 구좌읍 송당리 1230-5(비자림로 1839-5 입구), 구좌읍 송당리 1230-5(비자림로,33.472628,126.776655,clean
387,제주특별자치도 제주시 구좌읍 중산간동로 2205(송당리 1277), 구좌읍 중산간동로 2205(송당리 ,33.471563,126.778624,clean
388,제주특별자치도 제주시 구좌읍 중산간동로 2222,송당농협 맞은편,33.47227,126.780591,clean
389,제주특별자치도 제주시 구좌읍 중산간동로 2240,(구)송당리사무소 서측,33.47165,126.781861,clean
390,제주특별자치도 제주시 구좌읍 송당리 1445-3,송당리 급수탑 앞,33.470417,126.786856,clean
391,제주특별자치도 제주시 구좌읍 송당리 1485,높은오름입구,33.468552,126.785067,clean
392,제주특별자치도 제주시 구좌읍 송당5길 19,김성종씨택 앞,126.784693,33.473145,clean
393,제주특별자치도 제주시 구좌읍 월정7길 1,구좌중앙초 안,33.552164,126.798228,clean
394,제주특별자치도 제주시 구좌읍 월정리 231-2번지 앞, 구좌읍 월정리 231-2번지 앞,33.552467,126.796015,clean
395,제주특별자치도 제주시 구좌읍 월정3길 57(월정리 548-1),월정마을회관 앞,33.55578,126.795178,clean
396,제주특별자치도 제주시 구좌읍 월정리 555-2,월정리 해안포구 입구,33.557182,126.794508,clean
397,제주특별자치도 제주시 구좌읍 월정서로 169, 구좌읍 월정서로 169,33.563122,126.778055,clean
398,제주특별자치도 제주시 구좌읍 월정리 1321-13, 구좌읍 월정리 1321-13,33.550963,126.782281,clean
399,제주특별자치도 제주시 구좌읍 월정3길 8,월정리 마을입구,33.552258,126.791571,clean
400,제주특별자치도 제주시 구좌읍 종달리 1840, 구좌읍 종달리 1840,33.494272,126.89441,clean
401,제주특별자치도 제주시 구좌읍 종달로 59,종달초 근처,33.492824,126.89619,clean
402,제주특별자치도 제주시 구좌읍 종달논길 56, 구좌읍 종달논길 56,33.492096,126.899564,clean
403,제주특별자치도 제주시 구좌읍 종달동길 3,종달리사무소앞,33.492734,126.900324,clean
404,제주특별자치도 제주시 구좌읍 종달동길 3,종달리사무소앞,33.492734,126.900324,clean
405,제주특별자치도 제주시 구좌읍 해맞이해안로 2196(종달리 42-5),소금바치순이네 근처,33.503398,126.912826,clean
406,제주특별자치도 제주시 구좌읍 종달리 1396-1,아모르게스트하우스앞,33.509919,126.90314,clean
407,제주특별자치도 제주시 구좌읍 종달리 1418-1,이야기별방,33.510111,126.901731,clean
408,제주특별자치도 제주시 구좌읍 평대리 127-3(일주동로 3096 맞은편), 구좌읍 평대리 127-3(일주동로 ,33.523922,126.850815,clean
409,제주특별자치도 제주시 구좌읍 평대9길 15,당근창고 앞,33.52588,126.849864,clean
410,제주특별자치도 제주시 구좌읍 평대리 65-12(평대 9길 27), 구좌읍 평대리 65-12(평대 9길,33.52634,126.851098,clean
411,제주특별자치도 제주시 구좌읍 평대13길 26,하나로마트 뒤편 주차장,33.525181,126.852927,clean
412,제주특별자치도 제주시 구좌읍 평대리 3348-2(평대13길 54), 구좌읍 평대리 3348-2(평대13,33.527103,126.854546,clean
413,제주특별자치도 제주시 구좌읍 평대9길 54(평대리 8-29),서련빌리지 안,33.527966,126.852773,clean
414,제주특별자치도 제주시 구좌읍 평대리 4-7, 구좌읍 평대리 4-7,33.529741,126.852821,clean
415,제주특별자치도 제주시 구좌읍 평대리 4-20,명진전복근처,33.532391,126.850762,clean
416,제주특별자치도 제주시 구좌읍 평대7길 57(평대리 2009-3), 구좌읍 평대7길 57(평대리 200,33.53258,126.844785,clean
417,제주특별자치도 제주시 구좌읍 평대 7길 24(평대리 577-5), 구좌읍 평대 7길 24(평대리 57,33.530399,126.843816,clean
418,제주특별자치도 제주시 구좌읍 일주동로 3007,평대리사무소 주차장,33.528272,126.842924,clean
419,제주특별자치도 제주시 구좌읍 평대 5길 7, 구좌읍 평대 5길 7,33.529689,126.840147,clean
420,제주특별자치도 제주시 구좌읍 평대5길 43(평대리 1996), 구좌읍 평대5길 43(평대리 199,33.532374,126.842422,clean
421,제주특별자치도 제주시 구좌읍 평대리 1994-6, 구좌읍 평대리 1994-6,33.533054,126.840673,clean
422,제주특별자치도 제주시 구좌읍 평대리 2026-16,대수굴 옆,33.535459,126.840183,clean
423,제주특별자치도 제주시 구좌읍 대수길 26-1(평대리2033-20), 구좌읍 대수길 26-1(평대리203,33.537147,126.838197,clean
424,제주특별자치도 제주시 구좌읍 일주동로 2948(평대리1744-1),평대주유소,33.530931,126.836998,clean
425,제주특별자치도 제주시 구좌읍 평대12길 15,동제주 종합사회복지관 옆,33.523239,126.848783,clean
426,제주특별자치도 제주시 구좌읍 평대리 282-3, 구좌읍 평대리 282-3,33.521378,126.846545,clean
427,제주특별자치도 제주시 구좌읍 세평항로 7-1, 구좌읍 세평항로 7-1,33.524137,126.853084,clean
428,제주특별자치도 제주시 구좌읍 하도리 3200-19,별방촌 앞,33.525425,126.863644,clean
429,제주특별자치도 제주시 구좌읍 면수1길 41(하도리 3203),별방촌 뒤편,33.524745,126.863911,clean
430,제주특별자치도 제주시 구좌읍 하도리 3359-21, 구좌읍 하도리 3359-21,33.523914,126.866392,clean
431,제주특별자치도 제주시 구좌읍 하도리 3312-8번지 앞(면수길 7),하도리 면수동회관 앞,33.521665,126.867928,clean
432,제주특별자치도 제주시 구좌읍 일주동로 3274,삼다도빌라,33.518692,126.867874,clean
433,제주특별자치도 제주시 구좌읍 일주동로 3280(하도리 79-67),하도리 반석주택,33.518465,126.868462,clean
434,제주특별자치도 제주시 구좌읍 하도초등학교 안, 구좌읍 하도초등학교 안,126.87856,33.5175151,clean
435,제주특별자치도 제주시 구좌읍 하도 3길 29(하도리 2182-3), 구좌읍 하도 3길 29(하도리 21,33.520274,126.879581,clean
436,제주특별자치도 제주시 구좌읍 하도서길 36(하도리 2161-1),서동복지회관앞,33.521326,126.880648,clean
437,제주특별자치도 제주시 구좌읍 하도리 1973(하도 3길 108-2 동측), 구좌읍 하도리 1973(하도 3길 ,33.526376,126.88189,clean
438,제주특별자치도 제주시 구좌읍 하도리 1901-4(하도서문길 9), 구좌읍 하도리 1901-4(하도서문,126.881226,33.5282377,clean
439,제주특별자치도 제주시 구좌읍 하도리 1792밭앞, 구좌읍 하도리 1792밭앞,126.883339,33.525553,clean
440,제주특별자치도 제주시 구좌읍 하도서길 7(하도리 1636), 구좌읍 하도서길 7(하도리 1636,33.522597,126.883345,clean
441,제주특별자치도 제주시 구좌읍 하도리 1438-4, 구좌읍 하도리 1438-4,33.521372,126.883527,clean
442,제주특별자치도 제주시 구좌읍 하도리 1130-2(하도 9길 17), 구좌읍 하도리 1130-2(하도 9,33.514341,126.886631,clean
443,제주특별자치도 제주시 구좌읍 하도 7길 5 앞(하도리 1283-1),민박다올제앞,33.516094,126.88529,clean
444,제주특별자치도 제주시 구좌읍 하도리 646,운동기구 공원 옆,33.519829,126.889678,clean
445,제주특별자치도 제주시 구좌읍 하도리 646,운동기구 공원 옆,33.519829,126.889678,clean
446,제주특별자치도 제주시 구좌읍 하도리 646,운동기구 공원 옆,33.519829,126.889678,clean
447,제주특별자치도 제주시 구좌읍 해맞이해안로 1897-27(하도리 22-10),하도어촌체험마을(무인카페),33.51994,126.90385,clean
448,제주특별자치도 제주시 구좌읍 하도리 35-4,어촌계펜션 우측,33.517005,126.899825,clean
449,제주특별자치도 제주시 구좌읍 하도리 43-1(해맞이해안로1950),제주파도소리 펜션,33.515012,126.900579,clean
450,제주특별자치도 제주시 구좌읍 하도리 947-37, 구좌읍 하도리 947-37,33.50985,126.893275,clean
451,제주특별자치도 제주시 구좌읍 하도 13길 6(하도리 1091-28),창흥동 입구,33.508602,126.887787,clean
452,"제주특별자치도 제주시 구좌읍 하도리 1867-2, 1868 경계"," 구좌읍 하도리 1867-2, 186",33.526646,126.879315,clean
453,제주특별자치도 제주시 구좌읍 한동리 2972-1,용암해수단지,33.541474,126.815047,clean
454,제주특별자치도 제주시 구좌읍 한동리 1644,무등수산,33.547572,126.826917,clean
455,제주특별자치도 제주시 구좌읍 한동리 1358-7, 구좌읍 한동리 1358-7,33.542872,126.830686,clean
456,제주특별자치도 제주시 구좌읍 한동리 8, 구좌읍 한동리 8,33.539635,126.836037,clean
457,제주특별자치도 제주시 구좌읍 한동리 1180-4, 구좌읍 한동리 1180-4,33.538533,126.830034,clean
458,제주특별자치도 제주시 구좌읍 한동리 1052,둔지빌,33.536387,126.827867,clean
459,제주특별자치도 제주시 구좌읍 한동리 906-1, 구좌읍 한동리 906-1,33.534214,126.826193,clean
460,제주특별자치도 제주시 구좌읍 한동로 64,상한동경로당 서측,33.534811,126.823497,clean
461,제주특별자치도 제주시 구좌읍 한동로 99, 구좌읍 한동로 99,33.533365,126.82022,clean
462,제주특별자치도 제주시 구좌읍 한동리 1113,인성영농 앞,33.536919,126.824414,clean
463,제주특별자치도 제주시 구좌읍 한동북1길 2,서동복지회관 입구,33.539164,126.826791,clean
464,제주특별자치도 제주시 구좌읍 행원리 1-58,전경대 초소 옆,33.557562,126.825268,clean
465,제주특별자치도 제주시 구좌읍 행원리 21,신재생에너지홍보관,33.559968,126.818181,clean
466,제주특별자치도 제주시 구좌읍 해맞이해안로 680-6,주차장,33.560147,126.815505,clean
467,제주특별자치도 제주시 구좌읍 해맞이해안로 680-50,주차장,33.557295,126.818674,clean
468,제주특별자치도 제주시 구좌읍 행원리 575-21,스마트그리드 홍보관  입구,33.55728,126.812238,clean
469,제주특별자치도 제주시 구좌읍 행원로13길 99,행원농공단지,33.555098,126.814759,clean
470,제주특별자치도 제주시 구좌읍 행원리 542-9,한라판지 공장,33.554553,126.815628,clean
471,제주특별자치도 제주시 구좌읍 행원로 9길 28, 구좌읍 행원로 9길 28,33.555214,126.809588,clean
472,제주특별자치도 제주시 구좌읍 행원로7길 18-21,행원리사무소 주차장,33.554435,126.808399,clean
473,제주특별자치도 제주시 구좌읍 행원로 7길 12 북측, 구좌읍 행원로 7길 12 북측,33.555031,126.80689,clean
474,제주특별자치도 제주시 구좌읍 해맞이해안로 571(행원리 1487),방파제,33.556967,126.805508,clean
475,제주특별자치도 제주시 구좌읍 행원로 1길 24,행원 취락구조,33.554898,126.801976,clean
476,제주특별자치도 제주시 구좌읍 행원로 120 우측,행원리 버스정류장 맞은편,33.553224,126.807821,clean
477,제주특별자치도 제주시 구좌읍 행원로 4길 30, 구좌읍 행원로 4길 30,33.551089,126.806051,clean
478,제주특별자치도 제주시 구좌읍 행원용사촌길 14,한라용사촌,33.535498,126.794882,clean
479,제주특별자치도 제주시 구좌읍 덕행로 262-17(행원리 2768),오션뷰3차,33.528267,126.787785,clean
480,제주특별자치도 제주시 구좌읍 행원리 3258,폴로경기장주차장,33.524933,126.782681,clean
481,제주특별자치도 제주시 구좌읍 덕행로 335(행원리 2885),숲속의 향기 펜션,33.520669,126.787998,clean
482,제주특별자치도 제주시 구좌읍 덕행로 450-4,오션뷰1차,33.51766,126.877254,clean
483,제주특별자치도 제주시 구좌읍 일주동로 2670(행원리 940-3),한국해양과학기술연구원,33.543502,126.810064,clean
484,제주특별자치도 제주시 조천읍 신촌3길18, 조천읍 신촌3길18,33.516041,126.524013,clean
485,제주특별자치도 제주시 조천읍 신촌북1길 27, 조천읍 신촌북1길 27,33.512065,126.533308,clean
486,제주특별자치도 제주시 조천읍 신촌리2284-5, 조천읍 신촌리2284-5,33.538408,126.61621,clean
487,제주특별자치도 제주시 조천읍 신촌북3길 4, 조천읍 신촌북3길 4,33.538596,126.618891,clean
488,제주특별자치도 제주시 조천읍 신촌북2길31-2, 조천읍 신촌북2길31-2,33.538627,126.619402,clean
489,제주특별자치도 제주시 조천읍 신촌9길40-1, 조천읍 신촌9길40-1,33.539079,126.623345,clean
490,제주특별자치도 제주시 조천읍 조천7길19-5, 조천읍 조천7길19-5,33.539222,126.634721,clean
491,제주특별자치도 제주시 조천읍 조천11길24, 조천읍 조천11길24,33.538945,126.638021,clean
492,제주특별자치도 제주시 조천읍 신북로265, 조천읍 신북로265,33.539706,126.639826,clean
493,제주특별자치도 제주시 조천읍 조함해안로52, 조천읍 조함해안로52,33.541883,126.6368,clean
494,제주특별자치도 제주시 조천읍 조함해안로142-10, 조천읍 조함해안로142-10,33.549799,126.640515,clean
495,제주특별자치도 제주시 조천읍 신북로258, 조천읍 신북로258,33.5397,126.639343,clean
496,제주특별자치도 제주시 조천읍 북촌11길39, 조천읍 북촌11길39,33.552413,126.693658,clean
497,제주특별자치도 제주시 조천읍 남조로3020, 조천읍 남조로3020,33.531179,126.644642,clean
498,제주특별자치도 제주시 조천읍 와흘4길35, 조천읍 와흘4길35,33.507829,126.632597,clean
499,제주특별자치도 제주시 조천읍 와흘로119, 조천읍 와흘로119,33.494936,126.634631,clean
500,제주특별자치도 제주시 조천읍 남조로2367, 조천읍 남조로2367,33.477229,126.655659,clean
501,제주특별자치도 제주시 조천읍 대흘리2341, 조천읍 대흘리2341,33.501527,126.652539,clean
502,제주특별자치도 제주시 조천읍 조와로373-1, 조천읍 조와로373-1,33.505733,126.636239,clean
503,제주특별자치도 제주시 조천읍 곱은달길25, 조천읍 곱은달길25,33.515355,126.671564,clean
504,제주특별자치도 제주시 조천읍 함와로312맞은편, 조천읍 함와로312맞은편,33.515055,126.676075,clean
505,제주특별자치도 제주시 조천읍 조함해안로441, 조천읍 조함해안로441,33.548042,126.661591,clean
506,제주특별자치도 제주시 조천읍 조함해안로585, 조천읍 조함해안로585,33.546446,126.673748,clean
507,제주특별자치도 제주시 조천읍 신북로499, 조천읍 신북로499,33.545045,126.663711,clean
508,제주특별자치도 제주시 조천읍 신북로520, 조천읍 신북로520,33.543768,126.66515,clean
509,제주특별자치도 제주시 조천읍 함덕남12길29, 조천읍 함덕남12길29,33.53593,126.672869,clean
510,제주특별자치도 제주시 조천읍 함덕리1002-6, 조천읍 함덕리1002-6,33.543668,126.668483,clean
511,제주특별자치도 제주시 조천읍 함덕14길1, 조천읍 함덕14길1,33.543495,126.667341,clean
512,제주특별자치도 제주시 조천읍 함덕19길 15, 조천읍 함덕19길 15,33.543997,126.670364,clean
513,제주특별자치도 제주시 조천읍 조함해안로525, 조천읍 조함해안로525,33.54522,126.669076,clean
514,제주특별자치도 제주시 조천읍 함덕리1024-3, 조천읍 함덕리1024-3,33.546737,126.661682,clean
515,제주특별자치도 제주시 조천읍 함와로56맞은편, 조천읍 함와로56맞은편,33.537399,126.675324,clean
516,제주특별자치도 제주시 조천읍 신흥로1길10-1, 조천읍 신흥로1길10-1,33.549391,126.651392,clean
517,제주특별자치도 제주시 조천읍 신흥로2길37, 조천읍 신흥로2길37,33.551804,126.651964,clean
518,제주특별자치도 제주시 조천읍 북촌1길43, 조천읍 북촌1길43,33.550411,126.684211,clean
519,제주특별자치도 제주시 조천읍 북촌11길19, 조천읍 북촌11길19,33.552596,126.695265,clean
520,제주특별자치도 제주시 조천읍 북촌12길21-1, 조천읍 북촌12길21-1,33.54988,126.699159,clean
521,제주특별자치도 제주시 조천읍 북촌리542-1, 조천읍 북촌리542-1,33.550346,126.695738,clean
522,제주특별자치도 제주시 조천읍 중산간동로923-2, 조천읍 중산간동로923-2,33.494117,126.680559,clean
523,제주특별자치도 제주시 조천읍 선흘동2길31, 조천읍 선흘동2길31,33.515249,126.704967,clean
524,제주특별자치도 제주시 조천읍 중산간동로1290, 조천읍 중산간동로1290,33.513197,126.705305,clean
525,제주특별자치도 제주시 조천읍 선화길22옆, 조천읍 선화길22옆,33.462683,126.71327,clean
526,제주특별자치도 제주시 조천읍 선흘리1946-1, 조천읍 선흘리1946-1,33.460566,126.702698,clean
527,제주특별자치도 제주시 조천읍 함덕22길 11-4, 조천읍 함덕22길 11-4,33.54096,126.673471,clean
528,제주특별자치도 제주시 조천읍 조천읍함대로11, 조천읍 조천읍함대로11,33.544881,126.658482,clean
529,제주특별자치도 제주시 조천읍 선교로198, 조천읍 선교로198,33.487979,126.699304,clean
530,제주특별자치도 제주시 조천읍 조천10길14, 조천읍 조천10길14,33.540315,126.63795,clean
531,제주특별자치도 제주시 조천읍 조천리1927-2, 조천읍 조천리1927-2,33.521374,126.63721,clean
532,제주특별자치도 제주시 조천읍 와흘전2길53, 조천읍 와흘전2길53,33.471348,126.639039,clean
533,제주특별자치도 제주시 조천읍 선흘리1967, 조천읍 선흘리1967,33.465996,126.699211,clean
534,제주특별자치도 제주시 조천읍 함덕18길18옆, 조천읍 함덕18길18옆,33.541686,126.670083,clean
535,제주특별자치도 제주시 조천읍 신흥관전길89-5, 조천읍 신흥관전길89-5,33.550335,126.647691,clean
536,제주특별자치도 제주시 조천읍 선흘리4022, 조천읍 선흘리4022,33.487393,126.698145,clean
537,제주특별자치도 제주시 조천읍 신촌11길7, 조천읍 신촌11길7,33.536642,126.62531,clean
538,제주특별자치도 제주시 조천읍 신북로95, 조천읍 신북로95,33.537866,126.623433,clean
539,제주특별자치도 제주시 조천읍 신촌5길1, 조천읍 신촌5길1,33.536507,126.620583,clean
540,제주특별자치도 제주시 조천읍 신촌8길3, 조천읍 신촌8길3,33.536943,126.622518,clean
541,제주특별자치도 제주시 조천읍 신촌7길13, 조천읍 신촌7길13,33.537986,126.621424,clean
542,제주특별자치도 제주시 조천읍 신촌7길30, 조천읍 신촌7길30,33.538653,126.622292,clean
543,제주특별자치도 제주시 조천읍 신촌9길26, 조천읍 신촌9길26,33.538694,126.623171,clean
544,제주특별자치도 제주시 조천읍 신촌5길31, 조천읍 신촌5길31,33.538692,126.620321,clean
545,제주특별자치도 제주시 조천읍 신촌9길40-8, 조천읍 신촌9길40-8,33.539966,126.623895,clean
546,제주특별자치도 제주시 조천읍 신촌북3길43, 조천읍 신촌북3길43,33.539547,126.61475,clean
547,제주특별자치도 제주시 조천읍 신촌북1길 16, 조천읍 신촌북1길 16,33.536878,126.617305,clean
548,제주특별자치도 제주시 조천읍 신촌북3길 62-1, 조천읍 신촌북3길 62-1,33.539644,126.613577,clean
549,제주특별자치도 제주시 조천읍 신촌서5길102, 조천읍 신촌서5길102,33.538304,126.614513,clean
550,제주특별자치도 제주시 조천읍 신촌리 2429-2, 조천읍 신촌리 2429-2,33.538486,126.615866,clean
551,제주특별자치도 제주시 조천읍 신촌7길18, 조천읍 신촌7길18,33.538034,126.621682,clean
552,제주특별자치도 제주시 조천읍 신북로 51, 조천읍 신북로 51,33.536475,126.619289,clean
553,제주특별자치도 제주시 조천읍 신촌북2길 12, 조천읍 신촌북2길 12,33.538526,126.619647,clean
554,제주특별자치도 제주시 조천읍 신촌5길47, 조천읍 신촌5길47,33.539788,126.621257,clean
555,제주특별자치도 제주시 조천읍 신북로46, 조천읍 신북로46,33.534504,126.618758,clean
556,제주특별자치도 제주시 조천읍 신촌3길 16-3, 조천읍 신촌3길 16-3,33.536813,126.619261,clean
557,제주특별자치도 제주시 조천읍 신촌2길14, 조천읍 신촌2길14,33.533779,126.619308,clean
558,제주특별자치도 제주시 조천읍 신촌남1길45, 조천읍 신촌남1길45,33.528621,126.617574,clean
559,제주특별자치도 제주시 조천읍 신촌남1길55, 조천읍 신촌남1길55,33.529606,126.617974,clean
560,제주특별자치도 제주시 조천읍 일주동로792, 조천읍 일주동로792,33.533187,126.626286,clean
561,제주특별자치도 제주시 조천읍 신와로95, 조천읍 신와로95,33.522731,126.618379,clean
562,제주특별자치도 제주시 조천읍 신조로44, 조천읍 신조로44,33.520233,126.624469,clean
563,제주특별자치도 제주시 조천읍 신조로22, 조천읍 신조로22,33.519123,126.621983,clean
564,제주특별자치도 제주시 조천읍 신와로66, 조천읍 신와로66,33.524726,126.616512,clean
565,제주특별자치도 제주시 조천읍 신촌10길22, 조천읍 신촌10길22,33.535364,126.62539,clean
566,제주특별자치도 제주시 조천읍 신촌서5길72-1, 조천읍 신촌서5길72-1,33.536978,126.615787,clean
567,제주특별자치도 제주시 조천읍 조와로7길9-1, 조천읍 조와로7길9-1,33.512635,126.636254,clean
568,제주특별자치도 제주시 조천읍 조와로61-4, 조천읍 조와로61-4,33.531682,126.635017,clean
569,제주특별자치도 제주시 조천읍 신조로203, 조천읍 신조로203,33.521007,126.639695,clean
570,제주특별자치도 제주시 조천읍 신조로152, 조천읍 신조로152,33.520477,126.634965,clean
571,제주특별자치도 제주시 조천읍 조와로194, 조천읍 조와로194,33.520297,126.635147,clean
572,제주특별자치도 제주시 조천읍 대흘남길31, 조천읍 대흘남길31,33.474955,126.66258,clean
573,제주특별자치도 제주시 조천읍 와흘리244, 조천읍 와흘리244,33.476352,126.645083,clean
574,제주특별자치도 제주시 조천읍 와흘전2길51-13, 조천읍 와흘전2길51-13,33.472044,126.640318,clean
575,제주특별자치도 제주시 조천읍 종인내길69, 조천읍 종인내길69,33.502404,126.620543,clean
576,제주특별자치도 제주시 조천읍 신북로202, 조천읍 신북로202,33.537453,126.634851,clean
577,제주특별자치도 제주시 조천읍 조천4길7, 조천읍 조천4길7,33.536605,126.632734,clean
578,제주특별자치도 제주시 조천읍 조천2길 37, 조천읍 조천2길 37,33.534499,126.629874,clean
579,제주특별자치도 제주시 조천읍 조천1길19, 조천읍 조천1길19,33.538313,126.632094,clean
580,제주특별자치도 제주시 조천읍 조천1길5, 조천읍 조천1길5,33.537966,126.631047,clean
581,제주특별자치도 제주시 조천읍 종인내길69, 조천읍 종인내길69,33.502404,126.620543,clean
582,제주특별자치도 제주시 조천읍 조천리 3087-2, 조천읍 조천리 3087-2,33.537974,126.634348,clean
583,제주특별자치도 제주시 조천읍 조천5길 1, 조천읍 조천5길 1,33.538168,126.634936,clean
584,제주특별자치도 제주시 조천읍 조천7길2, 조천읍 조천7길2,33.53916,126.636156,clean
585,제주특별자치도 제주시 조천읍 조천7길10, 조천읍 조천7길10,33.53912,126.635388,clean
586,제주특별자치도 제주시 조천읍 조천9길 25, 조천읍 조천9길 25,33.540399,126.636638,clean
587,제주특별자치도 제주시 조천읍 조함해안로12, 조천읍 조함해안로12,33.541353,126.638804,clean
588,제주특별자치도 제주시 조천읍 조함해안로31, 조천읍 조함해안로31,33.542169,126.637058,clean
589,제주특별자치도 제주시 조천읍 조천북1길8, 조천읍 조천북1길8,33.54375,126.636284,clean
590,제주특별자치도 제주시 조천읍 조천7길41, 조천읍 조천7길41,33.541743,126.63638,clean
591,제주특별자치도 제주시 조천읍 조천북1길17, 조천읍 조천북1길17,33.543937,126.6359,clean
592,제주특별자치도 제주시 조천읍 조흥길1, 조천읍 조흥길1,33.542651,126.639584,clean
593,제주특별자치도 제주시 조천읍 조천8길14-1, 조천읍 조천8길14-1,33.532047,126.644709,clean
594,제주특별자치도 제주시 조천읍 조천북4길8, 조천읍 조천북4길8,33.543596,126.63717,clean
595,제주특별자치도 제주시 조천읍 조천11길13, 조천읍 조천11길13,33.539101,126.63761,clean
596,제주특별자치도 제주시 조천읍 조와로17-5, 조천읍 조와로17-5,33.535904,126.635925,clean
597,제주특별자치도 제주시 조천읍 조천8길 21, 조천읍 조천8길 21,33.536233,126.637156,clean
598,제주특별자치도 제주시 조천읍 조천12길14-11, 조천읍 조천12길14-11,33.537525,126.639922,clean
599,제주특별자치도 제주시 조천읍 남조로3096, 조천읍 남조로3096,33.537499,126.641498,clean
600,제주특별자치도 제주시 조천읍 일주동로906, 조천읍 일주동로906,33.535109,126.63827,clean
601,제주특별자치도 제주시 조천읍 조천남4길41, 조천읍 조천남4길41,33.532875,126.64007,clean
602,제주특별자치도 제주시 조천읍 신북로324,주암주택 102동 앞쪽,33.540355,126.645993,clean
603,제주특별자치도 제주시 조천읍 신북로324,주암주택 103동 서쪽,33.539934,126.644741,clean
604,제주특별자치도 제주시 조천읍 조천18길23-2, 조천읍 조천18길23-2,33.541536,126.645289,clean
605,제주특별자치도 제주시 조천읍 조천리 599, 조천읍 조천리 599,33.535652,126.645469,clean
606,제주특별자치도 제주시 조천읍 조천18길11-1, 조천읍 조천18길11-1,33.541789,126.644116,clean
607,제주특별자치도 제주시 조천읍 조천리 1808-4, 조천읍 조천리 1808-4,33.522831,126.647928,clean
608,제주특별자치도 제주시 조천읍 신조로34, 조천읍 신조로34,33.519778,126.622918,clean
609,제주특별자치도 제주시 조천읍 조천리 3464, 조천읍 조천리 3464,33.516713,126.648606,clean
610,제주특별자치도 제주시 조천읍 중산간동로601, 조천읍 중산간동로601,33.501934,126.649843,clean
611,제주특별자치도 제주시 조천읍 조천리809-2, 조천읍 조천리809-2,33.542678,126.647191,clean
612,제주특별자치도 제주시 조천읍 신북로219, 조천읍 신북로219,33.53822,126.636117,clean
613,제주특별자치도 제주시 조천읍 신조로373, 조천읍 신조로373,33.519757,126.658199,clean
614,제주특별자치도 제주시 조천읍 함덕6길 15, 조천읍 함덕6길 15,33.543977,126.660723,clean
615,제주특별자치도 제주시 조천읍 함덕16길25, 조천읍 함덕16길25,33.542698,126.665715,clean
616,제주특별자치도 제주시 조천읍 함덕남2길28, 조천읍 함덕남2길28,33.536732,126.662246,clean
617,제주특별자치도 제주시 조천읍 함덕8길 47앞, 조천읍 함덕8길 47앞,33.542492,126.662877,clean
618,제주특별자치도 제주시 조천읍 함덕6길34, 조천읍 함덕6길34,33.542406,126.660692,clean
619,제주특별자치도 제주시 조천읍 함덕29길29, 조천읍 함덕29길29,33.544476,126.674698,clean
620,제주특별자치도 제주시 조천읍 함덕남12길 11, 조천읍 함덕남12길 11,33.535712,126.674937,clean
621,제주특별자치도 제주시 조천읍 함덕8길26, 조천읍 함덕8길26,33.543701,126.662928,clean
622,제주특별자치도 제주시 조천읍 함덕리 1408-1, 조천읍 함덕리 1408-1,33.541347,126.665855,clean
623,제주특별자치도 제주시 조천읍 함덕서4길62, 조천읍 함덕서4길62,33.541693,126.666833,clean
624,제주특별자치도 제주시 조천읍 함덕6길56북쪽, 조천읍 함덕6길56북쪽,33.540915,126.660862,clean
625,제주특별자치도 제주시 조천읍 함덕6길19-12, 조천읍 함덕6길19-12,33.544137,126.661739,clean
626,제주특별자치도 제주시 조천읍 함덕8길34, 조천읍 함덕8길34,33.542649,126.663193,clean
627,제주특별자치도 제주시 조천읍 함덕20길42, 조천읍 함덕20길42,33.540068,126.666998,clean
628,제주특별자치도 제주시 조천읍 함덕20길33-14북쪽, 조천읍 함덕20길33-14북쪽,33.539842,126.669247,clean
629,제주특별자치도 제주시 조천읍 함덕14길24, 조천읍 함덕14길24,33.542178,126.66503,clean
630,제주특별자치도 제주시 조천읍 함덕12길 55, 조천읍 함덕12길 55,33.53964,126.66563,clean
631,제주특별자치도 제주시 조천읍 함덕16길15-8, 조천읍 함덕16길15-8,33.541893,126.667967,clean
632,제주특별자치도 제주시 조천읍 함덕16길3-1, 조천읍 함덕16길3-1,33.542775,126.6685,clean
633,제주특별자치도 제주시 조천읍 함덕남2길19-10, 조천읍 함덕남2길19-10,33.538082,126.662498,clean
634,제주특별자치도 제주시 조천읍 함덕서4길10, 조천읍 함덕서4길10,33.540452,126.661741,clean
635,제주특별자치도 제주시 조천읍 함덕리 272-72, 조천읍 함덕리 272-72,33.542928,126.675853,clean
636,제주특별자치도 제주시 조천읍 함덕27길10, 조천읍 함덕27길10,33.543265,126.674286,clean
637,제주특별자치도 제주시 조천읍 함덕27길15, 조천읍 함덕27길15,33.543772,126.673735,clean
638,제주특별자치도 제주시 조천읍 신북로650-1, 조천읍 신북로650-1,33.542624,126.678962,clean
639,제주특별자치도 제주시 조천읍 함덕남10길20, 조천읍 함덕남10길20,33.537454,126.673783,clean
640,제주특별자치도 제주시 조천읍 일주동로1222, 조천읍 일주동로1222,33.539053,126.67077,clean
641,제주특별자치도 제주시 조천읍 함덕리4154-3, 조천읍 함덕리4154-3,33.541593,126.675631,clean
642,제주특별자치도 제주시 조천읍 신북로603, 조천읍 신북로603,33.542129,126.67347,clean
643,제주특별자치도 제주시 조천읍 조함해안로576-2, 조천읍 조함해안로576-2,33.546331,126.67282,clean
644,제주특별자치도 제주시 조천읍 조함해안로514, 조천읍 조함해안로514,33.544493,126.667328,clean
645,제주특별자치도 제주시 조천읍 신북로515, 조천읍 신북로515,33.544627,126.664743,clean
646,제주특별자치도 제주시 조천읍 함덕30길 27, 조천읍 함덕30길 27,33.54032,126.677441,clean
647,제주특별자치도 제주시 조천읍 함덕30길 27, 조천읍 함덕30길 27,33.539819,126.677613,clean
648,제주특별자치도 제주시 조천읍 함덕30길 27, 조천읍 함덕30길 27,33.539819,126.677613,clean
649,제주특별자치도 제주시 조천읍 함덕서4길60-12, 조천읍 함덕서4길60-12,33.540674,126.667459,clean
650,제주특별자치도 제주시 조천읍 함덕서4길60-16, 조천읍 함덕서4길60-16,33.540572,126.667217,clean
651,제주특별자치도 제주시 조천읍 함덕남12길19-6, 조천읍 함덕남12길19-6,33.534625,126.674176,clean
652,제주특별자치도 제주시 조천읍 함덕남12길19-7, 조천읍 함덕남12길19-7,33.536346,126.674106,clean
653,제주특별자치도 제주시 조천읍 함덕5길16, 조천읍 함덕5길16,33.546653,126.659143,clean
654,제주특별자치도 제주시 조천읍 조함해안로406, 조천읍 조함해안로406,33.548693,126.659216,clean
655,제주특별자치도 제주시 조천읍 함덕남2길19-9, 조천읍 함덕남2길19-9,33.537821,126.661764,clean
656,제주특별자치도 제주시 조천읍 함덕남2길14, 조천읍 함덕남2길14,33.537538,126.661692,clean
657,제주특별자치도 제주시 조천읍 함덕14길41, 조천읍 함덕14길41,33.540938,126.665221,clean
658,제주특별자치도 제주시 조천읍 일주동로1415, 조천읍 일주동로1415,33.546448,126.686467,clean
659,제주특별자치도 제주시 조천읍 북촌서길9-2, 조천읍 북촌서길9-2,33.550233,126.685928,clean
660,제주특별자치도 제주시 조천읍 북촌북길20, 조천읍 북촌북길20,33.551488,126.690634,clean
661,제주특별자치도 제주시 조천읍 북촌7길14, 조천읍 북촌7길14,33.551349,126.693991,clean
662,제주특별자치도 제주시 조천읍 북촌5길12, 조천읍 북촌5길12,33.550744,126.692519,clean
663,제주특별자치도 제주시 조천읍 북촌북길25-5, 조천읍 북촌북길25-5,33.548244,126.692141,clean
664,제주특별자치도 제주시 조천읍 북촌리573, 조천읍 북촌리573,33.547619,126.692523,clean
665,제주특별자치도 제주시 조천읍 북촌9길11, 조천읍 북촌9길11,33.551331,126.694642,clean
666,제주특별자치도 제주시 조천읍 북흘로9, 조천읍 북흘로9,33.548657,126.695069,clean
667,제주특별자치도 제주시 조천읍 북촌11길20-9, 조천읍 북촌11길20-9,33.552712,126.695821,clean
668,제주특별자치도 제주시 조천읍 북촌15길23, 조천읍 북촌15길23,33.554563,126.699793,clean
669,제주특별자치도 제주시 조천읍 일주동로1574, 조천읍 일주동로1574,33.553403,126.701438,clean
670,제주특별자치도 제주시 조천읍 북촌12길 33, 조천읍 북촌12길 33,33.548866,126.699072,clean
671,제주특별자치도 제주시 조천읍 북흘로135, 조천읍 북흘로135,33.539731,126.70239,clean
672,제주특별자치도 제주시 조천읍 신북로353-12, 조천읍 신북로353-12,33.544445,126.648052,clean
673,제주특별자치도 제주시 조천읍 신흥로1길25, 조천읍 신흥로1길25,33.549622,126.650329,clean
674,제주특별자치도 제주시 조천읍 신흥로2길2-21, 조천읍 신흥로2길2-21,33.550408,126.653625,clean
675,제주특별자치도 제주시 조천읍 신흥로 25, 조천읍 신흥로 25,33.547675,126.652366,clean
676,제주특별자치도 제주시 조천읍 신흥로1길25, 조천읍 신흥로1길25,33.549622,126.650329,clean
677,제주특별자치도 제주시 조천읍 신흥로1길 43-8, 조천읍 신흥로1길 43-8,33.549756,126.648796,clean
678,제주특별자치도 제주시 조천읍 조함해안로217-1, 조천읍 조함해안로217-1,33.555131,126.644143,clean
679,제주특별자치도 제주시 조천읍 북선로368, 조천읍 북선로368,33.513819,126.698497,clean
680,제주특별자치도 제주시 조천읍 대흘리826-1, 조천읍 대흘리826-1,33.507317,126.664827,clean
681,제주특별자치도 제주시 조천읍 대흘리 583, 조천읍 대흘리 583,33.517123,126.669286,clean
682,제주특별자치도 제주시 조천읍 남조로2201-7, 조천읍 남조로2201-7,33.463388,126.659675,clean
683,제주특별자치도 제주시 조천읍 남조로2023, 조천읍 남조로2023,33.450093,126.658863,clean
684,제주특별자치도 제주시 조천읍 교래3길98,교래리사무소,33.433866,126.674154,clean
685,제주특별자치도 제주시 조천읍 비자림로768, 조천읍 비자림로768,33.436911,126.688599,clean
686,제주특별자치도 제주시 조천읍 남조로1717-35, 조천읍 남조로1717-35,33.426628,126.670572,clean
687,제주특별자치도 제주시 조천읍 남조로1660, 조천읍 남조로1660,33.421137,126.680953,clean
688,제주특별자치도 제주시 조천읍 와선로162-9, 조천읍 와선로162-9,33.483655,126.690778,clean
689,제주특별자치도 제주시 조천읍 비자림로1065, 조천읍 비자림로1065,33.436455,126.718374,clean
690,제주특별자치도 제주시 조천읍 선흘리1997-1, 조천읍 선흘리1997-1,33.482386,126.701889,clean
691,제주특별자치도 제주시 조천읍 선교로375, 조천읍 선교로375,33.476084,126.708924,clean
692,제주특별자치도 제주시 조천읍 선교로434-2, 조천읍 선교로434-2,33.469764,126.708577,clean
693,제주특별자치도 제주시 조천읍 선흘리4079-6, 조천읍 선흘리4079-6,33.465325,126.693491,clean
694,제주특별자치도 제주시 조천읍 번영로1338, 조천읍 번영로1338,33.470537,126.677728,clean
695,제주특별자치도 제주시 조천읍 와산남길37, 조천읍 와산남길37,33.484293,126.677075,clean
696,제주특별자치도 제주시 조천읍 함덕리1752, 조천읍 함덕리1752,33.53284,126.664338,clean
697,제주특별자치도 제주시 조천읍 신촌남8길106, 조천읍 신촌남8길106,33.523952,126.625805,clean
698,제주특별자치도 제주시 조천읍 와흘리 2570-21, 조천읍 와흘리 2570-21,33.506051,126.628412,clean
699,제주특별자치도 제주시 한경면 판포리 1600-2,오수처리장,33.3707569,126.206925,clean
700,제주특별자치도 제주시 한경면 판포리 2126,전동 동회관앞(함영자),33.3596216,126.2075734,clean
701,제주특별자치도 제주시 한경면 판포리 2617-1,농협창고옆(중동),33.3584631,126.2029423,clean
702,제주특별자치도 제주시 한경면 판포리 2928-3,신명동 포구,33.3644532,126.1964593,clean
703,제주특별자치도 제주시 한경면 판포리 2852-8,구 초등학교,33.3627461,126.2018125,clean
704,제주특별자치도 제주시 한경면 판포리 1986-4,마을회관 주차장(노인회관),33.3616192,126.2068657,clean
705,제주특별자치도 제주시 한경면 판포리 1707,판포어촌계 식당 앞,126.201169,33.3648066,clean
706,제주특별자치도 제주시 한경면 판포리 2872,메가리조트,33.3651009,126.1992259,clean
707,제주특별자치도 제주시 한경면 판포리 2961-3,판포 취락구조,33.3630448,126.1974412,clean
708,제주특별자치도 제주시 한경면 판포리 1757,판포 상동 저장창고 앞,33.3642286,126.2073215,clean
709,제주특별자치도 제주시 한경면 판포리 726,판포 산8번지 비채올린 입구,33.3486936,126.2181201,clean
710,제주특별자치도 제주시 한경면 금등리 549-1,금등마을회관 옆,33.3603359,126.1956706,clean
711,제주특별자치도 제주시 한경면 금등리 184-1,수장동회관앞,33.343658,126.2112984,clean
712,제주특별자치도 제주시 한경면 금등리 558,마을 안 길(회관 서측길,33.3592622,126.1955394,clean
713,제주특별자치도 제주시 한경면 금등리 639,IGH호델입구,33.3637429,126.1940935,clean
714,제주특별자치도 제주시 한경면 금등리 649-3,금등양식장 진입로 삼거리,33.3621439,126.1901547,clean
715,제주특별자치도 제주시 한경면 두모리 2608,두모방파제 공유수면,33.3575384,126.1822761,clean
716,제주특별자치도 제주시 한경면 두모리  2876-4,한경철물 앞 공터,33.3513609,126.1839339,clean
717,제주특별자치도 제주시 한경면 두모리  2962-1,두모리 건강쉼터 주변공간,33.3528863,126.1856702,clean
718,제주특별자치도 제주시 한경면 두모리 2628-1,마을 안,33.3442476,126.2039107,clean
719,제주특별자치도 제주시 한경면 두모리 2818-1,면사무소 맞은편 광어양식장 공유수면,33.3508641,126.1809775,clean
720,제주특별자치도 제주시 한경면 신창리 368-1,어촌계창고앞,33.348083,126.181743,clean
721,제주특별자치도 제주시 한경면 신창리 1321-2,싱게물공원화장실앞 주차장,33.342914,126.174193,clean
722,제주특별자치도 제주시 한경면 신창리 961-1,신흥동 마을 끝 삼거리,33.337144,126.185979,clean
723,제주특별자치도 제주시 한경면 신창리 233-1,한경주유소 앞,33.3372393,126.1769413,clean
724,제주특별자치도 제주시 한경면 신창리 237-1,신창리사무소앞 주차장,33.34994,126.184129,clean
725,제주특별자치도 제주시 한경면 신창리 431,수협 옆,33.347713,126.182861,clean
726,제주특별자치도 제주시 한경면 신창리 193-2,상동(창고 맞은편)한경농협쪽,33.3486215,126.1871409,clean
727,제주특별자치도 제주시 한경면 신창리 18-2,한경농협마트,33.3481107,126.1792767,clean
728,제주특별자치도 제주시 한경면 신창리 422,신창초중학교 주차장,33.3481107,126.1792767,clean
729,제주특별자치도 제주시 한경면 용수리1111-1,창고옆 공터,33.3338016,126.1729841,clean
730,제주특별자치도 제주시 한경면 용수리 1504,주전동(창고주변),33.33301,126.1706377,clean
731,제주특별자치도 제주시 한경면 용수리 3909-1,용당 양식장 주변(해안도로),33.334722,126.163592,clean
732,제주특별자치도 제주시 한경면 용수리 4107-6,용수보건소 주차장(리사무소),33.325258,126.168769,clean
733,제주특별자치도 제주시 한경면 용수리 4363-1,갈매기민박앞,33.321473,126.171248,clean
734,제주특별자치도 제주시 한경면 용수리 4117-3,어촌계사무실 옆,33.324084,126.166308,clean
735,제주특별자치도 제주시 한경면 용수리 4229-2,전경초소 앞,33.3246,126.163334,clean
736,제주특별자치도 제주시 한경면 용수리 4194,용수 해안 양식장 옆,33.3245783,33.32752,clean
737,제주특별자치도 제주시 한경면 두모리1402,마을회간 로타리 무료주차장,33.3356796,126.1966733,clean
738,제주특별자치도 제주시 한경면 두모리  1270-8,마을 안 길,33.3336167,126.1976785,clean
739,제주특별자치도 제주시 한경면 두모리 1502,한원리 남동 물통,33.3370958,126.1953187,clean
740,제주특별자치도 제주시 한경면 두모리 1504,농협창고 주차장,33.3380999,126.1955165,clean
741,제주특별자치도 제주시 한경면 한원리 602-8,북호동 입구 사거리,33.3400617,126.2012144,clean
742,제주특별자치도 제주시 한경면 두모리 1871-1,파인힐 골목(농협로터리~한원방향),33.343447,126.1936949,clean
743,제주특별자치도 제주시 한경면 두모리 1308-7,로터리(용당방향)팔각정 남측 삼거리,33.3344103,126.1956091,clean
744,제주특별자치도 제주시 한경면 낙천리 1927,낙천리사무소 주차장,33.3263853,126.2273511,clean
745,제주특별자치도 제주시 한경면 낙천리 1741-1,마을소공원,33.3249727,126.2278529,clean
746,제주특별자치도 제주시 한경면 낙천리1705-1,마을 안쪽 끝,33.3222953,126.2282442,clean
747,제주특별자치도 제주시 한경면 낙천리 1909-1,의자마을 입구,33.3275863,126.2255544,clean
748,제주특별자치도 제주시 한경면 조수리 378,리사무소뒤 주차장,33.3372832,126.2285163,clean
749,제주특별자치도 제주시 한경면 조수리 1553,조수약천교회옆 도로변,33.3308728,126.2158715,clean
750,제주특별자치도 제주시 한경면 조수리 423-1,구초등학교 입구,33.3362358,126.2188194,clean
751,제주특별자치도 제주시 한경면 조수리 317-3,현수막 걸이대 앞(천주교 입구),33.3356954,126.2200569,clean
752,제주특별자치도 제주시 한경면 조수리 788-2,한라농장입구,33.341448,126.220051,clean
753,제주특별자치도 제주시 한경면 조수리4007-2,한경농협창고옆,33.2937558,126.2308207,clean
754,제주특별자치도 제주시 한경면 조수리 3741-3,어멍식당 앞,33.2966905,126.2130667,clean
755,제주특별자치도 제주시 한경면 조수리3763,블그못로 23,33.2966387,126.2116518,clean
756,제주특별자치도 제주시 한경면 조수리2854-4,신축6동,126.20978,33.3191873,clean
757,제주특별자치도 제주시 한경면 저지리 1783-2,저지리사무소 앞,33.341448,126.220051,clean
758,제주특별자치도 제주시 한경면 저지리 1197-1,수동회관,33.3301738,126.2463165,clean
759,제주특별자치도 제주시 한경면 저지리 산13-24,성전동입구,33.3370663,126.2277,clean
760,제주특별자치도 제주시 한경면 저지리 3040,명이동(물통오리식당 맞은편 관정),33.3409777,126.2489377,clean
761,제주특별자치도 제주시 한경면 저지리 1504-6,농협창고(신협맞은편),33.31949,126.26156,clean
762,제주특별자치도 제주시 한경면 저지리 2114-24,예술인마을입구,33.3277974,126.2448432,clean
763,제주특별자치도 제주시 한경면 저지리2114-79,현대미술관 인근,33.340017,126.26491,clean
764,제주특별자치도 제주시 한경면 저지리114-76,현대미술관 뒤쪽,126.270293,33.3270325,clean
765,제주특별자치도 제주시 한경면 저지리 1529-4,생각하는 정원,33.3383733,126.2553878,clean
766,제주특별자치도 제주시 한경면 저지리 2120-85,방림원 차고지,33.3261714,126.2465391,clean
767,제주특별자치도 제주시 한경면 저지리 416-1,저청초등학교안 주차장,33.3248292,126.2475061,clean
768,제주특별자치도 제주시 한경면 저지리 산39,유리의 성,33.3175112,126.2638305,clean
769,제주특별자치도 제주시 한경면 저지리 2889-3,"분재예술원↔ 명리동 중간
(몽생이)",33.324716,126.259976,clean
770,제주특별자치도 제주시 한경면 저지리 3215,명리동 알동네식당 옆골목안,33.3246456,126.2513323,clean
771,제주특별자치도 제주시 한경면 저지리 1799-1,저지파출소 옆,33.3164588,126.2592801,clean
772,제주특별자치도 제주시 한경면 저지리 3267,"비밀의 정원
(유리성~녹차밭사이)",33.3082844,126.281528,clean
773,제주특별자치도 제주시 한경면 저지리 산 38,"곶자왈식당, 마트",33.309007,126.2803525,clean
774,제주특별자치도 제주시 한경면 청수리 1634-1,청수편의점 맞은편,33.3248292,126.2475061,clean
775,제주특별자치도 제주시 한경면 청수리 1505-1,청수 우리집 편션 옆,33.3214705,126.2363463,clean
776,제주특별자치도 제주시 한경면 청수리 854-1,평화박물관 입구,33.3200063,126.2375558,clean
777,제주특별자치도 제주시 한경면 청수리 1535,청수천주교 성당 안,33.3055931,126.2421444,clean
778,제주특별자치도 제주시 한경면 청수리 3389,애서원 입구,33.3203969,126.2391652,clean
779,제주특별자치도 제주시 한경면 청수리 147-4,청수리평화동 수출단지 선과장앞,33.3045442,126.249813,clean
780,제주특별자치도 제주시 한경면 청수리 53-1,청수알미늄맞은편(평화동소공원),33.3045442,126.249813,clean
781,제주특별자치도 제주시 한경면 청수리 113-2,청수승마장(웃뜨르빛센타),33.3106892,126.2521389,clean
782,제주특별자치도 제주시 한경면 청수리 2130,"청수 캠핑장(펜션)
낙천-청수 가기전 4거리 왼쪽 농로",33.3020447,126.2502385,clean
783,제주특별자치도 제주시 한경면 청수리2391,청수타운하우스,33.31316,126.244629,clean
784,제주특별자치도 제주시 한경면 고산리 2179-1,제주리필건물 앞(동문식당),33.3019551,126.1807032,clean
785,제주특별자치도 제주시 한경면 고산리 2825-1,도로변 금성물류 입구쪽,33.302983,126.1733051,clean
786,제주특별자치도 제주시 한경면 고산리 2205-1,우체국 돌담 옆(사철나무),33.3011319,126.1700873,clean
787,제주특별자치도 제주시 한경면 고산리 3871,한장동마을 공터,33.3036118,126.1703192,clean
788,제주특별자치도 제주시 한경면 고산리 3809-4,한장동 입구(신축건물),33.290856,126.164711,clean
789,제주특별자치도 제주시 한경면 고산리 3855,한장동 양식장,33.2913368,126.1565418,clean
790,제주특별자치도 제주시 한경면 고산리 3616-9,자구내포구 화장실 옆,33.30912,126.165563,clean
791,제주특별자치도 제주시 한경면 고산리 3594-1,자구내 입구,33.30808,126.165941,clean
792,제주특별자치도 제주시 한경면 고산리 3818-1,한장동 농협창고 옆,33.29047,126.167745,clean
793,제주특별자치도 제주시 한경면 고산리 3616-11,자구내 (해양파출소),33.308381,126.164245,clean
794,제주특별자치도 제주시 한경면 고산리 2409-4,태권도장 삼거리(고산로 6길 16),33.3066758,126.1716513,clean
795,제주특별자치도 제주시 한경면 고산리 1296-6,저류지 접 도로변(서종수),33.3066758,126.1716513,clean
796,제주특별자치도 제주시 한경면 고산리 2749-1,"6,000냥 부페",33.3066837,126.1768144,clean
797,제주특별자치도 제주시 한경면 고산리 3147-4,뷰티고 주차장,33.303256,126.1715097,clean
798,제주특별자치도 제주시 한경면 고산리 2162-5,"고영란 집 맞은편 사거리
고조로 24맞은편",33.3049868,126.1721158,clean
799,제주특별자치도 제주시 한경면 고산리 2609-4,한국통신사원아파트앞,33.304495,126.1754704,clean
800,제주특별자치도 제주시 한경면 고산리 2141-3,"고산로 4길 14
(어린이집쪽 정미소 남쪽)",33.3075157,126.1694757,clean
801,제주특별자치도 제주시 한경면 고산리 3148-1,뜨레모아(체육관 맞은편),33.3034972,126.1912653,clean
802,제주특별자치도 제주시 한경면 고산리  1885-13,고학로64가기전도로변(고산2. 사거리),33.3024568,126.177516,clean
803,제주특별자치도 제주시 한경면 고산리 1890-27,리사무소옆(항내물)택시탑승,33.3034088,126.1787524,clean
804,제주특별자치도 제주시 한경면 고산리 1999-5,항내물(하천안쪽),33.3021939,126.1790889,clean
805,제주특별자치도 제주시 한경면 고산리 451,신수동방송국입구(신물),33.3030729,126.1795818,clean
806,제주특별자치도 제주시 한경면 고산리 250,농협창고옆(전답동),33.30325126,126.1824576,clean
807,제주특별자치도 제주시 한경면 고산리 1547-1,고산5길23맞은편(이기창 이장),33.3029522,126.1896312,clean
808,제주특별자치도 제주시 한경면 고산리 1727,칠전동회관 주차장,33.3013072,126.1825771,clean
809,제주특별자치도 제주시 한경면 고산리 1618-2,고산2리회관 남측 골목,33.302446,126.1768431,clean
810,제주특별자치도 제주시 한경면 고산리 1600,회관 건너편도로 방향,33.3013072,126.1825771,clean
811,제주특별자치도 제주시 한경면 고산리 2103-3,원광요양원앞,33.3048153,126.1802458,clean
812,제주특별자치도 제주시 한경면 고산리 1930-2,리사무소 옆(회관 옆),33.3048153,126.1802458,clean
813,제주특별자치도 제주시 한경면 청수리 3277,다목적회관입입구,33.2927056,126.2251332,clean
814,제주특별자치도 제주시 한경면 청수리 3338,폐교 옆,33.2927056,126.2251332,clean
815,제주특별자치도 제주시 한경면 청수리 3390,월광동회관 입구,33.2954637,126.2248962,clean
816,제주특별자치도 제주시 한경면 청수리 2503-2,수룡2길 11,33.2934894,126.2474391,clean
817,제주특별자치도 제주시 한경면 낙천리 283-1,수룡동 농협창고옆(낙천리 283-1),33.3104413,126.2388292,clean
818,제주특별자치도 제주시 한경면 청수리 2477-1,수룡동 마을 안길 끝,33.3078674,126.2415075,clean
819,제주특별자치도 제주시 한경면 청수리3388-1,무뚱식당옆,33.302783,126.23781,clean
820,제주특별자치도 제주시 추자면 대서리 4-4,여정여관 앞,33.96275,126.298027,clean
821,제주특별자치도 제주시 추자면 대서리 8-4,제일식당 앞,33.963723,126.297265,clean
822,제주특별자치도 제주시 추자면 대서리 147-2,솔잎가든식당 앞,33.962682,126.295113,clean
823,제주특별자치도 제주시 추자면 대서리 147-16,대서리사무소 앞,33.962108,126.294327,clean
824,제주특별자치도 제주시 추자면 대서리 147-16,추자한의원 앞,33.962293,126.294347,clean
825,제주특별자치도 제주시 추자면 영흥리 366-8,나바론민박 앞,33.960916,126.295437,clean
826,제주특별자치도 제주시 추자면 영흥리 362-3,영흥리사무소 앞,33.960041,126.296309,clean
827,제주특별자치도 제주시 추자면 영흥리 367-14,영흥리 광장 동쪽,33.960062,126.297598,clean
828,제주특별자치도 제주시 추자면 묵리 731-6,묵리포구 인근,33.944881,126.312545,clean
829,제주특별자치도 제주시 추자면 영흥리 325-5,추자청소년문화의집 서쪽,33.961335,126.292823,clean
830,제주특별자치도 제주시 추자면 영흥리 307,해군부대아파트 내,33.960474,126.293929,clean
831,제주특별자치도 제주시 추자면 묵리 216,묵리경로당 앞,33.944945,126.314911,clean
832,제주특별자치도 제주시 추자면 신양리 841-2,신양2리 마을길,33.940798,126.322208,clean
833,제주특별자치도 제주시 추자면 신양리 874-8,장작평사 삼거리,33.940487,126.323634,clean
834,제주특별자치도 제주시 추자면 신양리 448-3,하추자 추자도수협 옆,33.944492,126.326641,clean
835,제주특별자치도 제주시 추자면 신양리 434-9,신양1리 해녀탈의장 옆,33.94618,126.328176,clean
836,제주특별자치도 제주시 추자면 신양리 434-1,하추자 신양항 뒤편,33.945777,126.329729,clean
837,제주특별자치도 제주시 추자면 신양리 172-1,추자피싱랜드민박 앞,33.947758,126.332098,clean
838,제주특별자치도 제주시 추자면 예초리 200-7,예초리마을 광장,33.956496,126.33236,clean
839,제주특별자치도 제주시 추자면 대서리 83-1,추자체육관 서쪽,33.963767,126.293552,clean
840,제주특별자치도 제주시 추자면 대서리 19-2,추자면사무소 옆,33.964078,126.296261,clean
841,제주특별자치도 제주시 추자면 묵리 134-1,쌍림파크 앞,33.941553,126.317522,clean
842,제주특별자치도 제주시 추자면 신양리 839-1,전우실업 사원아파트입구,33.941221,126.322602,clean
843,제주특별자치도 제주시 우도면 연평리 1604-3번지선,천진리 소공원앞,33.496888,126.953455,clean
844,제주특별자치도 제주시 우도면 연평리 1675-3번지선,우도파출소앞,33.494742,126.952678,clean
845,제주특별자치도 제주시 우도면 연평리 1735-3번지선,동천진동해녀탈의실앞,33.492429,126.952873,clean
846,제주특별자치도 제주시 우도면 연평리 2650-1번지선,하얀산호식당옆,33.494284,126.945822,clean
847,제주특별자치도 제주시 우도면 연평리 1830-2번지선,서천진동 물통앞,33.496321,126.948753,clean
848,제주특별자치도 제주시 우도면 연평리 343-1번지선,우도봉 주차장,33.493803,126.959092,clean
849,제주특별자치도 제주시 우도면 연평리 243번지선,영일동 버스정류소앞,33.502161,126.966861,clean
850,제주특별자치도 제주시 우도면 연평리 208-1번지선,영일동 마을회관 옆,33.502665,126.964419,clean
851,제주특별자치도 제주시 우도면 연평리 312번지선,검멀레주차장내,33.497688,126.968472,clean
852,제주특별자치도 제주시 우도면 연평리 610-1번지선,조일리 리사무소옆,33.509586,126.963098,clean
853,제주특별자치도 제주시 우도면 연평리 37번지선 맞은편,안비양 입구 공터,33.512842,126.965046,clean
854,제주특별자치도 제주시 우도면 연평리 5-1번지선,안비양 공중화장실옆,33.514726,126.968797,clean
855,제주특별자치도 제주시 우도면 연평리 1185-5번지선,하고수동해수욕장앞,33.513796,126.957303,clean
856,제주특별자치도 제주시 우도면 연평리 1231-4번지선,오봉리 상고수동,33.517576,126.953414,clean
857,제주특별자치도 제주시 우도면 연평리 926번지선,오봉리 삼양동,33.519271,126.95129,clean
858,제주특별자치도 제주시 우도면 연평리 890-2번지선,오봉리 전흘동,33.519325,126.949961,clean
859,제주특별자치도 제주시 우도면 연평리 969-1번지선,오봉리 산물통해녀촌 옆,33.51639,126.949191,clean
860,제주특별자치도 제주시 우도면 연평리 2384-5번지선 맞은편,하우목동항 대합실옆,33.5098,126.942938,clean
861,제주특별자치도 제주시 우도면 연평리 2072-2번지선,산호사 상우목동,33.503791,126.946556,clean
862,제주특별자치도 제주시 우도면 연평리 1457번지선,우도농협앞,33.507955,126.953918,clean
863,제주특별자치도 제주시 우도면 연평리 1442번지선,우도초중학교,33.505933,126.956152,clean
864,제주특별자치도 제주시 관덕로9길18,중앙로 밀레,33.514859,126.524302,clean
865,제주특별자치도 제주시 중앙로7길15,주민센터,33.514907,126.526542,clean
866,제주특별자치도 제주시 관덕로13길12,칠성상가조합,33.513991,126.526067,clean
867,제주특별자치도 제주시 만덕로6길29,한어정앞,33.513502,126.52891,clean
868,제주특별자치도 제주시 신산로2길8,영미식당옆,33.51264,126.531236,clean
869,제주특별자치도 제주시 동문로8길16, 동문로8길16,33.511772,126.530195,clean
870,제주특별자치도 제주시 신산로2길21, 신산로2길21,33.512266,126.529722,clean
871,제주특별자치도 제주시 동문로4길7-9, 동문로4길7-9,33.511947,126.528758,clean
872,제주특별자치도 제주시 동문로6길17-3, 동문로6길17-3,33.511609,126.52927,clean
873,제주특별자치도 제주시 신선서길10-19, 신선서길10-19,33.509749,126.528639,clean
874,제주특별자치도 제주시 성지로34, 성지로34,33.510497,126.527177,clean
875,제주특별자치도 제주시 중앙로13길31,동문시장뒤,33.511556,126.527799,clean
876,제주특별자치도 제주시 관덕로7길4,목관아지 주차장,33.513854,126.523277,clean
877,제주특별자치도 제주시 일도2동 1041-1,남수각 내리막입구,33.5089984,126.5191447,clean
878,제주특별자치도 제주시 일도2동 1046-2,기산아파트 북측 울타리,33.5069448,126.5204483,clean
879,제주특별자치도 제주시 일도2동 1036-6,서광맛국수 동측,33.5073815,126.5220703,clean
880,제주특별자치도 제주시 일도2동 1032-5,호남석재 입구,33.5084849,126.5244968,clean
881,제주특별자치도 제주시 일도2동 1029-25,동문성당 정문 앞,33.5103632,126.5225429,clean
882,제주특별자치도 제주시 일도2동 992-11,(구)중앙병원 입구,33.5133225,126.5257681,clean
883,제주특별자치도 제주시 일도2동 1006-20,구)중앙병원 남측,33.511677,126.5256817,clean
884,제주특별자치도 제주시 일도2동 982-1,킹마트 동측,33.5134486,126.5276645,clean
885,제주특별자치도 제주시 일도2동 601-5,(구)조흥골프연습장 서측,33.5128594,126.5286194,clean
886,제주특별자치도 제주시 일도2동 984-3,시농협 북측,33.512204,126.5278598,clean
887,제주특별자치도 제주시 일도2동 161,일도2동주민센터 내 주차장,33.5116315,126.5294624,clean
888,제주특별자치도 제주시 일도2동 320-1,한국타이어앞,33.5108041,126.5298616,clean
889,제주특별자치도 제주시 일도2동 162-29,일도2동복지회관앞,33.5103777,126.5284201,clean
890,제주특별자치도 제주시 일도2동 162-31,신산미화아파트 남측,33.5100334,126.5281246,clean
891,제주특별자치도 제주시 일도2동 165-6,서반일도빌라 앞,33.508766,126.5268404,clean
892,제주특별자치도 제주시 일도2동 823-3,신산공원 동남측,33.5080311,126.5248521,clean
893,제주특별자치도 제주시 일도2동 875,영상미디어센터 내,33.505556,126.5265017,clean
894,제주특별자치도 제주시 일도2동 337,16호 공원 남측,33.5069483,126.527591,clean
895,제주특별자치도 제주시 일도2동 337,16호 공원 북측,33.5069483,126.527591,clean
896,제주특별자치도 제주시 일도2동 352,인화초 동쪽,33.5070468,126.5293662,clean
897,제주특별자치도 제주시 일도2동 352,인화초 정문 동쪽,33.5070468,126.5293662,clean
898,제주특별자치도 제주시 일도2동 995-6,두맹이 복지회관 앞,33.5120066,126.5244342,clean
899,제주특별자치도 제주시 일도2동 322,동부교회 맞은편,33.5113245,126.5312563,clean
900,제주특별자치도 제주시 일도2동 133-9,전원아트빌 2차 동측,33.5134381,126.5318988,clean
901,제주특별자치도 제주시 일도2동 138-17,삼화빌라 동측,33.5131674,126.5331831,clean
902,제주특별자치도 제주시 일도2동 154,공원13호 서쪽,33.5112734,126.5331234,clean
903,제주특별자치도 제주시 일도2동 154,공원13호 동쪽,33.5112734,126.5331234,clean
904,제주특별자치도 제주시 일도2동 154-15,성환아파트서쪽,33.5109633,126.5335838,clean
905,제주특별자치도 제주시 일도2동 153-5,영락교회뒤,33.5112868,126.5344125,clean
906,제주특별자치도 제주시 일도2동 355-8,15호 어린이공원 동측,33.5088602,126.5319208,clean
907,제주특별자치도 제주시 일도2동 355-8,15호 어린이공원 서측,33.5088602,126.5319208,clean
908,제주특별자치도 제주시 일도2동 365-1,용인아파트입구,33.5058932,126.5307028,clean
909,제주특별자치도 제주시 일도2동 414,공원19호 북측,33.5039009,126.5327843,clean
910,제주특별자치도 제주시 일도2동 414,공원19호 남측,33.5039009,126.5327843,clean
911,제주특별자치도 제주시 일도2동 369-13,인제사거리 팔각정 남측,33.5073455,126.5321432,clean
912,제주특별자치도 제주시 일도2동 375-13,동광우체국 뒤,33.5077431,126.5334463,clean
913,제주특별자치도 제주시 일도2동 397,17호 공원 서측,33.5081455,126.5350033,clean
914,제주특별자치도 제주시 일도2동 397,17호 공원 동측,33.5081455,126.5350033,clean
915,제주특별자치도 제주시 일도2동 45,한진수학학원 남측,33.5074625,126.5371144,clean
916,제주특별자치도 제주시 일도2동 405-3,18호 공원 북측,33.5062919,126.5346975,clean
917,제주특별자치도 제주시 일도2동 405-3,18호 공원 북측,33.5062919,126.5346975,clean
918,제주특별자치도 제주시 일도2동 405-3,18호 공원 남측,33.5062919,126.5346975,clean
919,제주특별자치도 제주시 일도2동 408,서해1차아파트 입구,33.5051845,126.5337614,clean
920,제주특별자치도 제주시 일도2동 511,영락교회 맞은편 공영주차장 북동측,33.5119514,126.5352656,clean
921,제주특별자치도 제주시 일도2동 46-2,그린공원 배드민턴장,33.5046356,126.5373812,clean
922,제주특별자치도 제주시 일도2동 65,공원41호 북측,33.5022573,126.5360726,clean
923,제주특별자치도 제주시 일도2동 54-6,구 뉴월드 마트 서측,33.5023834,126.5350675,clean
924,제주특별자치도 제주시 일도2동 65,공원41호 남측,33.5022573,126.5360726,clean
925,제주특별자치도 제주시 일도2동 82-8,동광성당 서측 주차장,33.4999547,126.5366911,clean
926,제주특별자치도 제주시 일도2동 82-8,동광성당 서측 주차장,33.4999547,126.5366911,clean
927,제주특별자치도 제주시 일도2동 87-6,동광성당 동측,33.500144,126.537762,clean
928,제주특별자치도 제주시 일도2동 88,공원42호 동측,33.5000624,126.5384972,clean
929,제주특별자치도 제주시 일도2동 88-1,공원42번 서측 주차장,33.4998366,126.5380727,clean
930,제주특별자치도 제주시 일도2동 85-1,제주신보 남측,33.4992535,126.5367061,clean
931,제주특별자치도 제주시 일도2동 112,대림2차아파트서측 공영주차장,33.4995399,126.540684,clean
932,제주특별자치도 제주시 일도2동 18-1,대림2아파트남측맞은편,33.4997563,126.5420729,clean
933,제주특별자치도 제주시 일도2동 1029-44,신산경로당앞,33.5098746,126.5224769,clean
934,제주특별자치도 제주시 일도2동 338-2,알프스호텔옆,33.506747,126.5262728,clean
935,제주특별자치도 제주시 일도2동 358-8,다비치 안경,33.5072984,126.5309817,clean
936,제주특별자치도 제주시 일도2동 1011-1,효성전기 북측,33.5107208,126.5270895,clean
937,제주특별자치도 제주시 일도2동 352,인화초교 체육관 옆,33.5070468,126.5293662,clean
938,제주특별자치도 제주시 일도2동 133-2,사라봉회관 앞,33.5137146,126.5309578,clean
939,제주특별자치도 제주시 일도2동 326,세기신산시장아파트 동측,33.5104578,126.5320016,clean
940,제주특별자치도 제주시 일도2동 326,세기신산시장아파트 서측,33.5104578,126.5320016,clean
941,제주특별자치도 제주시 일도2동 401-13,천수대홍아파트 서측,33.5081121,126.5363082,clean
942,제주특별자치도 제주시 동광로11길 5,황금불가마 동측,33.5037292,126.5340838,clean
943,제주특별자치도 제주시 동광로7길 16-28,평화교회 서측,33.5037762,126.5324578,clean
944,제주특별자치도 제주시 동광로9길 39,국일건재사 옆,33.5044398,126.5307454,clean
945,제주특별자치도 제주시 동광로1길 15,광양초등학교 서측,33.5021557,126.528753,clean
946,제주특별자치도 제주시 광양1길 8,상록회관 동측,33.504431,126.52777,clean
947,제주특별자치도 제주시 광양1길 34,광양성당 북측,33.5033937,126.5296126,clean
948,제주특별자치도 제주시 오현길 9,신세계아파트 남측,33.506042,126.527775,clean
949,제주특별자치도 제주시 중앙로25길 17,주민센터 남측,33.506875,126.5268889,clean
950,제주특별자치도 제주시 고전길 15-1,태선갈비 북측 주차장 옆,33.5072792,126.5251444,clean
951,제주특별자치도 제주시 중앙로23길 26,삼성미화아파트 북측,33.5076673,126.5276118,clean
952,제주특별자치도 제주시 중앙로21길 29,삼성아파트 동측,33.5086134,126.5271562,clean
953,제주특별자치도 제주시 고전길 26,시민회관 서측,33.5083723,126.5251524,clean
954,제주특별자치도 제주시 오현길 49,국립제주검역소 남측,33.509408,126.525938,clean
955,제주특별자치도 제주시 중앙로17길 6,장원아이비아파트 북측,33.5091079,126.5242638,clean
956,제주특별자치도 제주시 오현길67,오현단 북측,33.5108758,126.5253294,clean
957,제주특별자치도 제주시 성지로7,제주성지 북측,33.50987,126.5243723,clean
958,제주특별자치도 제주시 서광로29길 38,KT 앞,33.5035387,126.5263148,clean
959,제주특별자치도 제주시 광양2길 25,양암타워빌 앞,33.5025682,126.5270944,clean
960,제주특별자치도 제주시 서광로29길 17,참사랑문화의집 북측,33.5018051,126.5262139,clean
961,제주특별자치도 제주시 서광로27길 2,극동주유소 북측,33.5005011,126.5253401,clean
962,제주특별자치도 제주시 오현길81,동문수산시장 주차장 내,33.5120518,126.5249014,clean
963,제주특별자치도 제주시 관덕로8길 31,영흥반점 남측,33.5105054,126.5233439,clean
964,제주특별자치도 제주시  제주시 신성로 14,(한국타이어명일종합상사 서측 다리),33.495917,126.521358,clean
965,제주특별자치도 제주시 서광로18길 23,(도남동902도남e편한세상 북서측),33.497831,126.520935,clean
966,제주특별자치도 제주시 서광로22길 31,서광로22길 31(도남동903-8도남e편한세상 동측),33.497254,126.523473,clean
967,제주특별자치도 제주시 독짓골8길67,(독사천 동아아파트 103동 남서측),33.488883,126.530891,clean
968,제주특별자치도 제주시 도남로3길 3-2,도남로3갈 3-2(도남동 노인회관 옆),33.498256,126.526277,clean
969,제주특별자치도 제주시 서광로28길 1,(삼천리 자전거 앞),33.499784,126.526133,clean
970,제주특별자치도 제주시 도남동 914-3,(강정형외과 인근 공원 동측),33.499807,126.525482,clean
971,제주특별자치도 제주시 서광로28길38,(이도2동1796-3 복개주차장),33.497659,126.528252,clean
972,제주특별자치도 제주시 서광로28길52,(도남동 923-5 복개천주차장),33.496904,126.529237,clean
973,제주특별자치도 제주시 광양14길 17-19,(이도2동1188-27 복개주차장),33.497192,126.529598,clean
974,제주특별자치도 제주시 신성로2길17,(도남동 51-25 보현사 뒤 남서측(동양월마트 앞),33.495807,126.523325,clean
975,제주특별자치도 제주시 신성로2길 34,신성로2길 34(도남동 51-25 보현사 뒤 남동측),33.495182,126.524978,clean
976,제주특별자치도 제주시 도남로10길 35-4,(도남연립주택 서측벽(꼬마세상어린이집 앞),33.494693,126.524076,clean
977,제주특별자치도 제주시 신성로4길 37,(성환빌라B동 서측 골목 코너(도남1차e-편한@ 남측),33.494046,126.522396,clean
978,제주특별자치도 제주시 도남동 55,도남초교 북동측 사거리,33.493911,126.527026,clean
979,제주특별자치도 제주시 신성로6길 29-2,(한양주택 가동 서측(도남초등학교 남측),33.492704,126.525295,clean
980,제주특별자치도 제주시 도남로8길 19-2,(청룡사 남측),33.493317,126.526969,clean
981,제주특별자치도 제주시 도남로13길 4,(도남동 82-2 도남우체국북측),33.492749,126.528814,clean
982,제주특별자치도 제주시 신성로10길 37,(수선화아파트 북동측 골목 입구),33.493684,126.530846,clean
983,제주특별자치도 제주시 신성로12길 17,(아람가든 앞 공영주차장 서측),33.495953,126.531305,clean
984,제주특별자치도 제주시 신성로14길 19,(아람가든 앞 공영주차장 동측),33.495917,126.531856,clean
985,제주특별자치도 제주시 고산동산서길 11,(제석사 인근 공원 남측 삼거리),33.494257,126.530862,clean
986,제주특별자치도 제주시 이도이동 1960-3,한일베라체 뒤 공영주차장,33.494345,126.546216,clean
987,제주특별자치도 제주시 도남동 664-6,우정빌라 북서측 골목입구(국민연금 공단 북측 주차장 옆),33.490428,126.52733,clean
988,제주특별자치도 제주시 서광로28길 35,(도남동 1944 복개주차장 인근),33.498126,126.528349,clean
989,제주특별자치도 제주시 도남동 65-3,한솔새마을금고 남측 삼거리(우정탕 맞은편 주차장,33.49143,126.528445,clean
990,제주특별자치도 제주시 도남로17길7,(수선화아파트 1차가동 북측 공원 서측),33.490369,126.529798,clean
991,제주특별자치도 제주시 도남로17길7,(수선화아파트 1차가동 북측 공원 서측),33.490369,126.529798,clean
992,제주특별자치도 제주시 독짓골6길18,(보덕사극락전 서측 삼거리(아산빌라 맞은편),33.491642,126.531757,clean
993,제주특별자치도 제주시 독짓골8길 57,(이도주공 3단지 서측 그린물류 맞은편),33.48993,126.531234,clean
994,제주특별자치도 제주시 독짓골8길 31,(보덕사 남측 ),33.491167,126.532669,clean
995,제주특별자치도 제주시 구남로7길 4,(속편한내과 서측),33.493713,126.532729,clean
996,제주특별자치도 제주시 구남로7길 13,(속편한내과 남측),33.493788,126.533603,clean
997,제주특별자치도 제주시 구남로7길 42-1,(할매추어탕 서측 무료주차장),33.491771,126.535271,clean
998,제주특별자치도 제주시 동광로4길 3,백성원해장국 앞,33.501206,126.531366,clean
999,제주특별자치도 제주시 가령로4길 11,(동자치센터 서측 공원 북측),33.497128,126.534201,clean
1000,제주특별자치도 제주시 이도이동 857-3,동부경찰서 북서측 다리옆,33.503214,126.534985,clean
1001,제주특별자치도 제주시 이도이동 1212-14,동부경찰서 서측 하천변,33.502089,126.536013,clean
1002,제주특별자치도 제주시 동광로6길 17,(시청5별관 동측),33.500594,126.532658,clean
1003,제주특별자치도 제주시 광양11길 10-1,광양11길 10-1(이도2동 1178-7 시청본관 뒤),33.499287,126.531388,clean
1004,제주특별자치도 제주시 광양11길24,광양11길24(이도2동1177-5 시청제2별관 뒤),33.499931,126.532497,clean
1005,제주특별자치도 제주시 남광로4길 33,남광로4길 33(중앙여고 동쪽 주차장),33.491105,126.540598,clean
1006,제주특별자치도 제주시 고산동산 3길 24,고산동산 3길 24(굿모닝아파트 삼거리),33.498151,126.533592,clean
1007,제주특별자치도 제주시 고산동산 3길 5,고산동산 3길 5(자치경찰단 북동측),33.497102,126.532676,clean
1008,제주특별자치도 제주시 가령로 68,한국전력공사? 주전력소 주차장 입구,33.498441,126.536215,clean
1009,제주특별자치도 제주시 남광로 2길 49-27,남광로 2길 49-27(탐라중학교 서측 옛 황금갈비 무료주차장 119번 옆),33.490361,126.542638,clean
1010,제주특별자치도 제주시 고산동산5길 24,고산동산5길 24(이도2동자치센터 남측),33.496654,126.535381,clean
1011,제주특별자치도 제주시 가령로 68,한국전력공사? 주전력소 주차장 입구,33.498441,126.536215,clean
1012,제주특별자치도 제주시 오복2길 27,오복2길 27(이도2동950-1장미2차A맞은편),33.493728,126.536703,clean
1013,제주특별자치도 제주시 남광북3길 18-15,남광북3길 18-15(경원빌라 맞은편 공원 동측),33.494298,126.537292,clean
1014,제주특별자치도 제주시 구남로6길55-1,구남로6길55-1 (광명광고 북측 주차장),33.486611,126.537668,clean
1015,제주특별자치도 제주시 구남로6길55-1,구남로6길55-1 (광명광고 북측 주차장),33.486611,126.537668,clean
1016,제주특별자치도 제주시 서광로28길 38,서광로28길 38(이도2동1796-3 복개주차장),33.497672,126.528242,clean
1017,제주특별자치도 제주시 동광로16길8,동광로16길8(미래상호신용금고 남동측 사거리),33.505148,126.538882,clean
1018,제주특별자치도 제주시 가령골1길 5,가령골1길 5 (영보맨션 삼거리),33.503657,126.53774,clean
1019,제주특별자치도 제주시 서광로26길 38-1,서광로26길 38-1(청암연립 입구),33.496586,126.524472,clean
1020,제주특별자치도 제주시 가령로 33,동부경찰서 후문 남측,33.501147,126.536936,clean
1021,제주특별자치도 제주시 가령로 33,동부경찰서 후문 남측,33.501147,126.536936,clean
1022,제주특별자치도 제주시 청귤로1길 40,청귤로1길 40(월드컵식당 남동측(동여중 서측 하천 건너편)),33.502081,126.538755,clean
1023,제주특별자치도 제주시 신설로5길 38,신설로5길 38 (한마음병원 남측 공원),33.49569,126.546987,clean
1024,제주특별자치도 제주시 청귤로 7길2,청귤로 7길2(색동나라어린이집 남측),33.499028,126.539109,clean
1025,제주특별자치도 제주시 구남동6길6,구남동6길6(남문주유소 뒷편(먹돌식당 맞은편)) 118번 옆,33.48878,126.538425,clean
1026,제주특별자치도 제주시 정든로1길 36,탐라교회옆 공원,33.497333,126.541075,clean
1027,제주특별자치도 제주시 정든로1길 18,정든로1길 18(제주마린 뒤 하천산책로변),33.499238,126.54154,clean
1028,제주특별자치도 제주시 정든로3길 28,정든로3길 28(제주일보동부지구 코너),33.499256,126.542081,clean
1029,제주특별자치도 제주시 정든로1길 36,탐라교회옆 공원,33.497333,126.541075,clean
1030,제주특별자치도 제주시 정든로3길 8,정든로3길 9(제주소년소녀합창단 남측),33.497578,126.541739,clean
1031,제주특별자치도 제주시 정든로 61,정든로 61 (지방노동사무소 뒤 주차장맞은편),33.499303,126.543952,clean
1032,제주특별자치도 제주시 이도2동 1986-5,이도2동 1986-5(21세기 병원 동측 공영주차장 106번 옆),33.491636,126.537751,clean
1033,제주특별자치도 제주시 이도공원길 37,이도공원길 37(대한불교태고종제주교구성심사 맞은편),33.498203,126.544031,clean
1034,제주특별자치도 제주시 이도공원동길 15,(이도근린공원 남동측(애니카랜드 맞은편)),33.49721,126.545211,clean
1035,제주특별자치도 제주시 도남로10길 1-5,도남로10길 1-5(청룡사 북동 코너),33.493598,126.527462,clean
1036,제주특별자치도 제주시 오복4길 1,오복4길 1 (제주깎두기 서측 골목),33.496047,126.535912,clean
1037,제주특별자치도 제주시 신설동길 66,신설동길 66 (연북로 동측(신설동로 교차지점),33.492762,126.550612,clean
1038,제주특별자치도 제주시 신설동길 82,신설동길 82 (신설동 경로당),33.492753,126.550604,clean
1039,제주특별자치도 제주시 신설동길 100,신설동길 100(신설동로 162 지역),33.491125,126.551517,clean
1040,제주특별자치도 제주시 구남동 6길 31,구남동 6길 31 이도어린이집 인근 공원 앞,33.488089,126.536286,clean
1041,제주특별자치도 제주시 구남동2길 45-6,구남동2길 45-6(구남동 후니빌 북측 무료주차장(가온어린이집 인근),33.488201,126.534092,clean
1042,제주특별자치도 제주시 청귤로 15,청귤로 15 (이도2동 375-1 공원),33.499802,126.538308,clean
1043,제주특별자치도 제주시 구남동2길 22-11,구남동2길 22-11(이도2동 1998-3 무료주차장),33.488156,126.534108,clean
1044,제주특별자치도 제주시 이도이동 1955-4,한마음병원 남측 탐나마트 인근(이도이동 1955-4인근),33.494054,126.547028,clean
1045,제주특별자치도 제주시 이도이동 1960-3,한일베라체 뒤 공영주차장,33.494345,126.546216,clean
1046,제주특별자치도 제주시 복지로북길 2-20,복지로북길 2-20(시민복지타운 한국은행 동측),33.487912,126.52176,clean
1047,제주특별자치도 제주시 구남로2길 36,구남로2길 36(구남로2길 36 C&J빌 인근),33.486504,126.535314,clean
1048,제주특별자치도 제주시 구남로2길 36,구남로2길 36(구남로2길 36 C&J빌 인근),33.486504,126.535314,clean
1049,제주특별자치도 제주시 구남동2길 51-3,구남동2길 51-3(구남동 김기량성당 남측)116 옆,33.487712,126.533499,clean
1050,제주특별자치도 제주시 구남동2길 51-3,구남동2길 51-3(구남동 김기량성당 남측)101 옆,33.487712,126.533499,clean
1051,제주특별자치도 제주시 신설로2길 9,신설로2길 9 (혜성무지개 타운 맞은편 무료주차장),33.49451,126.542211,clean
1052,제주특별자치도 제주시 신설로6길 2-11,신설로6길 2-11(이도농협 동측 주차장),33.492641,126.543207,clean
1053,제주특별자치도 제주시 남광로2길 7,남광로2길 7(이도2동 1992-7소방서 사거리 LPG충전소 동남측),33.492123,126.537693,clean
1054,제주특별자치도 제주시 이도2동 1986-5,이도2동 1986-5(21세기 병원 동측 공영주차장 84번 옆),33.491636,126.537751,clean
1055,제주특별자치도 제주시 구남로8길 10-2,구남로8길 10-2(제주소방서 뒷편 무료주차장),33.490529,126.53655,clean
1056,제주특별자치도 제주시 이도이동 1993-1,이도이동 1993-1(남광초등학교 서측 주차장),33.49221,126.539076,clean
1057,제주특별자치도 제주시 신설로 16,신설로 16 (한마음공원 서측 인도변),33.494199,126.543525,clean
1058,제주특별자치도 제주시 구남로2길 8,구남로2길 8(탑모라횟집(구남동) 남쪽주차장),33.488537,126.532913,clean
1059,제주특별자치도 제주시 복지로7길 4,복지로7길 4(정부종합청사 앞 주차장(도남동 755-1)),33.488689,126.52594,clean
1060,제주특별자치도 제주시 복지로3길 11-9,복지로3길 11-9(정부종합청사 앞 주차장(도남동 735-1)),33.488461,126.523871,clean
1061,제주특별자치도 제주시 복지로3길 16-1,복지로3길 16-1(정부종합청사 앞 공원(도남동 742)),33.487913,126.522637,clean
1062,제주특별자치도 제주시 청사로1길 18-4,청사로1길 18-4(상공회의소 동측 무료주차장),33.490563,126.520047,clean
1063,제주특별자치도 제주시 복지로9길 28-2,복지로9길 28-2(도남동 748-8 무료주차장 내),33.488822,126.527679,clean
1064,제주특별자치도 제주시 원남6길 42,원남6길 42 (한성베르뜨 빌라 북측),33.485659,126.530044,clean
1065,제주특별자치도 제주시 구남로8길 10-2,구남로8길 10-2(제주소방서 뒷편 무료주차장),33.490529,126.53655,clean
1066,제주특별자치도 제주시 구남동6길6,구남동6길6(남문주유소 뒷편(먹돌식당 맞은편)) 77번 옆,33.48878,126.538425,clean
1067,제주특별자치도 제주시 남광로 2길 49-27,남광로 2길 49-27(탐라중학교 서측 옛 황금갈비 무료주차장 56번 옆),33.490242,126.543284,clean
1068,제주특별자치도 제주시 이도이동 1928-9,신설동 수선화D동앞,33.494794,126.549754,clean
1069,제주특별자치도 제주시 도남동 70 나동 앞,수선화아파트 나동 1차 관리사무소앞,33.490065,126.53063,clean
1070,제주특별자치도 제주시 동광로 86(영화호텔옆),동광로 86(영화호텔옆),33.504725,126.537567,clean
1071,제주특별자치도 제주시 천수로 33(동여중 남동측),천수로 33(동여중 남동측),33.503007,126.540978,clean
1072,제주특별자치도 제주시 청귤로3길 44(학생문화원뒤편),청귤로3길 44(학생문화원뒤편),33.501724,126.542046,clean
1073,제주특별자치도 제주시 도남로4길 6-1(도남창혜빌라 앞),도남로4길 6-1(도남창혜빌라 앞),33.497354,126.525401,clean
1074,제주특별자치도 제주시 신설동길 18(신설동 오랜지팜입구),신설동길 18(신설동 오랜지팜입구),33.497015,126.548196,clean
1075,제주특별자치도 제주시 이도이동 2985-1,이도초교 후문 서측 교량 옆,33.487694,126.530445,clean
1076,제주특별자치도 제주시 승천로 22,승천로 22(일중 후문 입구),33.495842,126.539502,clean
1077,제주특별자치도 제주시 남광북1길 8,남광북1길 8(동진자동차공업사 맞은편),33.494558,126.535592,clean
1078,제주특별자치도 제주시 신성로10길 37,신성로10길 37(수선화아파트 북동측 골목 입구),33.493432,126.530605,clean
1079,제주특별자치도 제주시 서사로24길 6 앞,한라일보 서측,33.498316,126.519057,clean
1080,제주특별자치도 제주시 서사로24길 24 앞,제2삼오교 서측,33.295415,126.310354,clean
1081,제주특별자치도 제주시 삼오길 9 서측,예하게스트하우스 서측,33.295774,126.310168,clean
1082,제주특별자치도 제주시 삼오길 19 옆,삼화주유소 남측,33.295756,126.310828,clean
1083,제주특별자치도 제주시 서사로21길 15 옆,동명탕 동측,33.295569,126.311744,clean
1084,제주특별자치도 제주시 서광로18길 5-12 옆,고방림내과 서측,33.295694,126.311834,clean
1085,제주특별자치도 제주시 서광로 260 옆,보석철물 서측,33.295891,126.312732,clean
1086,제주특별자치도 제주시 서사로 126 북측,삼미기업 북측,33.300457,126.311079,clean
1087,제주특별자치도 제주시 삼도1동 505 서측,중앙어린이놀이터 서측,33.300461,126.305606,clean
1088,제주특별자치도 제주시 평전3길 1 옆,민범주택 서측,33.300576,126.310747,clean
1089,제주특별자치도 제주시 서사로18길 40 서측,중앙초등학교 서측,33.301132,126.305302,clean
1090,제주특별자치도 제주시 동주민센터(528-17) 동측,삼도1동주민센터 동측,33.301322,126.310619,clean
1091,제주특별자치도 제주시 서사로19길 35 앞,태광하이츠빌 남측,33.300392,126.312489,clean
1092,제주특별자치도 제주시 서사로19길 27 동측,성결교회 동측,33.300486,126.312299,clean
1093,제주특별자치도 제주시 광양4길 32 서측,탐라장애인종합복지관 서측,33.300514,126.312848,clean
1094,제주특별자치도 제주시 삼도1동 547-11 남측,용천어린이놀이터 남측,33.300725,126.311899,clean
1095,제주특별자치도 제주시 서사로 115 남측,동양월마트 남측,33.300711,126.311218,clean
1096,제주특별자치도 제주시 서사로15길 27 동측,용천소공원 서측,33.300937,126.312278,clean
1097,제주특별자치도 제주시 전농로 88 남측,제주교육인터넷방송국 남측,33.301339,126.312308,clean
1098,제주특별자치도 제주시 전농로 88 서측,제주교육인터넷방송국 서측,33.301394,126.311867,clean
1099,제주특별자치도 제주시 서사로 84 서측,진영마트서사라점 서측,33.301812,126.310938,clean
1100,제주특별자치도 제주시 전농로1길 9 북측,삼남주유소 동측,33.301979,126.305295,clean
1101,제주특별자치도 제주시 전농로1길 26앞,미래컨벤션센터 동측,33.302357,126.305574,clean
1102,제주특별자치도 제주시 삼도1동 785-1 북측,서사라어린이놀이터 북측,33.302259,126.310887,clean
1103,제주특별자치도 제주시 전농로1길 50 서측,삼도1동노인회관 서측,33.302882,126.310133,clean
1104,제주특별자치도 제주시 서사로 56 서측,NH농협제주지역본부 서측,33.302898,126.310953,clean
1105,제주특별자치도 제주시 서사로 28 북측,삼성전자디지털프라자 제주삼도점 북측,33.303647,126.311003,clean
1106,제주특별자치도 제주시 삼도1동 519 앞,뉴월드마트서사라점  남측,33.300168,126.310443,clean
1107,제주특별자치도 제주시 전농로9길 7,중앙여중서쪽,33.505046,126.520529,clean
1108,제주특별자치도 제주시 전농로11길 10,중앙여중동쪽,33.512065,126.533308,clean
1109,제주특별자치도 제주시 중앙로26길 25,미듬아뜨리에 아파트,33.505299,126.522682,clean
1110,제주특별자치도 제주시 남성로26길 26,남성경로당 북쪽,33.504618,126.525436,clean
1111,제주특별자치도 제주시 남성로22길 37,보쌈집 북쪽,33.505825,126.522353,clean
1112,제주특별자치도 제주시 서사로7길 5,비젼교회 서쪽,33.507122,126.520582,clean
1113,제주특별자치도 제주시 서사로7길 5,비젼교회 서쪽,33.507122,126.520582,clean
1114,제주특별자치도 제주시 남성로26길 28,남성방범초소 북쪽,33.507223,126.522878,clean
1115,제주특별자치도 제주시 남성로26길 12,참이슬아파트 동쪽,33.507906,126.523591,clean
1116,제주특별자치도 제주시 남성로154-6,구 전승화외과 남쪽,33.50868,126.521891,clean
1117,제주특별자치도 제주시 남성로22길 2,남초등학교 남쪽,33.509082,126.521022,clean
1118,제주특별자치도 제주시 남성로23길 15,구제대병원 서쪽,33.510419,126.521983,clean
1119,제주특별자치도 제주시 남성로143-19,남초등학교 서쪽,33.510265,126.520451,clean
1120,제주특별자치도 제주시 관덕로2길 13,구 현대극장 서쪽,33.511648,126.52051,clean
1121,제주특별자치도 제주시 관덕로4길 9,향사당 서쪽,33.512176,126.521371,clean
1122,제주특별자치도 제주시 관덕로6길 11,모이세해장국 서쪽,33.512169,126.522051,clean
1123,제주특별자치도 제주시 중앙로12길 14,중앙성당 북쪽,33.512159,126.523457,clean
1124,제주특별자치도 제주시 중앙로12길 14,중앙성당 북쪽,33.512159,126.523457,clean
1125,제주특별자치도 제주시 중앙로8길 13,목관아지 서쪽,33.51422,126.521513,clean
1126,제주특별자치도 제주시 관덕로3길 13-1,북초등학교 정문,33.514595,126.522848,clean
1127,제주특별자치도 제주시 무근성3길,타젠바이크 정면,33.513485,126.518408,clean
1128,제주특별자치도 제주시 무근성길 40-1,무근성슈퍼 북쪽,33.514622,126.519973,clean
1129,제주특별자치도 제주시 무근성1길 10,무근성경로당 동쪽,33.514748,126.51934,clean
1130,제주특별자치도 제주시 탑동로9길 18,119센터 동쪽,33.516618,126.517887,clean
1131,제주특별자치도 제주시 탑동로9길7,라마다호텔 남쪽,33.517594,126.517752,clean
1132,제주특별자치도 제주시 탑동로13길 39,미화빌라 남쪽,33.516782,126.520695,clean
1133,제주특별자치도 제주시 탑동로3길 8,미화빌라 동쪽,33.516719,126.52055,clean
1134,제주특별자치도 제주시 탑동로3길 28,우체국택배 서쪽담,33.515914,126.522151,clean
1135,제주특별자치도 제주시 북성로 33,북초등학교 북쪽 공용주차장,33.515617,126.520582,clean
1136,제주특별자치도 제주시 탑동로4길 66,이마트주차장,33.518157,126.521926,clean
1137,제주특별자치도 제주시 무근성3길 66,전복김밥 동쪽 주차장,33.515389,126.518244,clean
1138,제주특별자치도 제주시 중앙로22길 11,칼빌딩 서쪽,33.504952,126.525143,clean
1139,제주특별자치도 제주시,제주중학교 교문 안쪽,33.511248,126.516413,clean
1140,제주특별자치도 제주시 흥운길 73 맞은편,용연다리서측,33.51489,126.513646,clean
1141,제주특별자치도 제주시 용두암길 58 맞은편,제2한천교 앞,33.511427,126.511804,clean
1142,제주특별자치도 제주시 흥운길 55-9 서측,꼬마숲 어린이집 좌측,33.514029,126.512117,clean
1143,제주특별자치도 제주시 용담로1길 18 맞은편,사대부고 동측,33.513685,126.510473,clean
1144,제주특별자치도 제주시 성화로6길 50,서초교 후문,33.511272,126.510428,clean
1145,제주특별자치도 제주시 흥운길 28,흥운마을회관 내,33.511169,126.512177,clean
1146,제주특별자치도 제주시 용화로 52,용담킹마트 서측,33.509566,126.508781,clean
1147,제주특별자치도 제주시 용화로 37 동측,헤어아트미용실 옆,33.509906,126.507655,clean
1148,제주특별자치도 제주시 성화로1길 5,성화연립동측,33.51263,126.504136,clean
1149,제주특별자치도 제주시 용화로9길 14 앞,한울미용실 앞,33.510641,126.508032,clean
1150,제주특별자치도 제주시 용화로5길 24, 용화로5길 24,33.512288,126.506629,clean
1151,제주특별자치도 제주시 성화로10길 15 맞은편, 성화로10길 15 맞은편,33.512235,126.506666,clean
1152,제주특별자치도 제주시 용해로 65 남측,할망곰탕 남측,33.510711,126.503354,clean
1153,제주특별자치도 제주시 성화로5길 11 서측,유성주택서측,33.512831,126.504108,clean
1154,제주특별자치도 제주시 용마로1 맞은편, 용마로1 맞은편,33.513307,126.505879,clean
1155,제주특별자치도 제주시 용마로2길 36,현대2차아파트 남쪽,33.514187,126.507929,clean
1156,제주특별자치도 제주시 용마로3길 11 맞은편, 용마로3길 11 맞은편,33.51506,126.506172,clean
1157,제주특별자치도 제주시 용마서2길 13 서측, 용마서2길 13 서측,33.514443,126.50432,clean
1158,제주특별자치도 제주시 용마서1길 27, 용마서1길 27,33.515738,126.505107,clean
1159,제주특별자치도 제주시 용담3동 1071,레포츠공원주차장,33.518021,126.499683,clean
1160,제주특별자치도 제주시 용담3동 1071,"레포츠공원주차장(20, 21번 나란히 서있음)",33.518021,126.499683,clean
1161,제주특별자치도 제주시 서해안로 456-12,어영마을회관 남측,33.518523,126.489027,clean
1162,제주특별자치도 제주시 용문로 158-3 동측, 용문로 158-3 동측,33.508615,126.510848,clean
1163,제주특별자치도 제주시 용문로20길 16 동측,제주은행동측골목,33.507864,126.511181,clean
1164,제주특별자치도 제주시 용문로18길 27 서측, 용문로18길 27 서측,33.505912,126.510592,clean
1165,제주특별자치도 제주시 용원1길 18,시계바늘어린이집 앞,33.504634,126.51014,clean
1166,제주특별자치도 제주시 월성로4길 65 맞은편, 월성로4길 65 맞은편,33.499084,126.499577,clean
1167,제주특별자치도 제주시 한천로37 서측골목, 한천로37 서측골목,33.502209,126.509397,clean
1168,제주특별자치도 제주시 용원길 19 서측, 용원길 19 서측,33.502242,126.507254,clean
1169,제주특별자치도 제주시 한천로 22 서측, 한천로 22 서측,33.501274,126.508102,clean
1170,제주특별자치도 제주시 월성로4길 54 맞은편, 월성로4길 54 맞은편,33.501721,126.505174,clean
1171,제주특별자치도 제주시 명신3길 5 남측, 명신3길 5 남측,33.499521,126.502582,clean
1172,제주특별자치도 제주시 월성로4길 54 맞은편, 월성로4길 54 맞은편,33.499649,126.500732,clean
1173,제주특별자치도 제주시 월성로4길 16 맞은편, 월성로4길 16 맞은편,33.502127,126.504006,clean
1174,제주특별자치도 제주시 월성로2길 3 북측, 월성로2길 3 북측,33.503748,126.50418,clean
1175,제주특별자치도 제주시 용해로 147, 용해로 147,33.504755,126.506967,clean
1176,제주특별자치도 제주시 용문로11길 15 동측, 용문로11길 15 동측,33.506887,126.50697,clean
1177,제주특별자치도 제주시 용문로17길 6 동측, 용문로17길 6 동측,33.507701,126.50904,clean
1178,제주특별자치도 제주시 용문로17길 27 남측, 용문로17길 27 남측,33.507762,126.506877,clean
1179,제주특별자치도 제주시 용문로17길 25,한라요양원 우측,33.508531,126.506006,clean
1180,제주특별자치도 제주시 용담로1길 33,현대4차아파트 내,33.515915,126.507093,clean
1181,제주특별자치도 제주시 용화로10길 8, 용화로10길 8,33.509126,126.507749,clean
1182,제주특별자치도 제주시 용문로157 북측, 용문로157 북측,33.508628,126.510039,clean
1183,제주특별자치도 제주시 용화로 6-9, 용화로 6-9,33.509099,126.504213,clean
1184,제주특별자치도 제주시 용문로 88 남측, 용문로 88 남측,33.503332,126.504958,clean
1185,제주특별자치도 제주시 어영길 1-1, 어영길 1-1,33.519673,126.49412,clean
1186,제주특별자치도 제주시 서해안로 687-1, 서해안로 687-1,33.515706,126.512306,clean
1187,제주특별자치도 제주시 서천길 5-1,정성원룸 주차장,33.502127,126.511086,clean
1188,제주특별자치도 제주시 용담로 58,사대부고 남측,33.512831,126.508832,clean
1189,제주특별자치도 제주시 서해안로 376,화이트하우스 옆,33.51237,126.484201,clean
1190,제주특별자치도 제주시 용한로3 동측,복개천 주차장,33.510063,126.512048,clean
1191,제주특별자치도 제주시 성화로4길 46, 성화로4길 46,33.510533,126.510482,clean
1192,제주특별자치도 제주시 용화로4길 1,돈돈이네식당 옆 4거리,33.509991,126.504697,clean
1193,제주특별자치도 제주시 용화로5길 7,영보맨션 가동 남측,33.510533,126.506291,clean
1194,제주특별자치도 제주시 용화로5길 8,영보맨션 나동 앞,33.510396,126.50586,clean
1195,제주특별자치도 제주시 용화로5길 13,남양맨션다동 앞,33.510507,126.506039,clean
1196,제주특별자치도 제주시 용담로 36,미화빌라입구,33.512751,126.506775,clean
1197,제주특별자치도 제주시 용담로5길 5,현대2차아파트 내,33.512996,126.508131,clean
1198,제주특별자치도 제주시 용담로5길 25,현대1차아파트 내,33.515623,126.508299,clean
1199,제주특별자치도 제주시 서해안로 660 동측, 서해안로 660 동측,33.516424,126.50791,clean
1200,제주특별자치도 제주시 용해로 16,용마마을회관 좌측,33.515877,126.50236,clean
1201,제주특별자치도 제주시 공항로1길 6,공항입구 교차로 남서쪽 골목,33.504715,126.500158,clean
1202,제주특별자치도 제주시 서해안로 572, 서해안로 572,33.519629,126.498966,clean
1203,제주특별자치도 제주시 서해안로 546 동측, 서해안로 546 동측,33.519914,126.496436,clean
1204,제주특별자치도 제주시 서해안로 452,어영공원맞은편,33.51789,126.487956,clean
1205,제주특별자치도 제주시 용해로 58-25,615비행대 관사,33.511398,126.501806,clean
1206,제주특별자치도 제주시 용문로14길 14, 용문로14길 14,33.507098,126.510337,clean
1207,제주특별자치도 제주시 용문로18길 53 서측,문화재 터 옆 주차장,33.503505,126.510362,clean
1208,제주특별자치도 제주시 용문로18길 53 서측,삼영교통남서측길,33.505574,126.500883,clean
1209,제주특별자치도 제주시 용담2동 730-3, 용담2동 730-3,33.505574,126.500883,clean
1210,제주특별자치도 제주시 임항로 8,공영주차장,33.516491,126.5253021,clean
1211,제주특별자치도 제주시 중앙로1길 33서축,GS탑동아람점 뒤,33.5162354,126.5284396,clean
1212,제주특별자치도 제주시 서부두길10,횟집거리해경파출소앞,33.5173,126.527868,clean
1213,제주특별자치도 제주시 임항로71-7 동측,30년해장국 인근,33.5172404,126.5319831,clean
1214,제주특별자치도 제주시 산지로1-4동측,산지 변전소옆,33.516419,126.531684,clean
1215,제주특별자치도 제주시 임항로287옆,백록담주요소 북측,33.5151921,126.5387791,clean
1216,제주특별자치도 제주시 만덕로4길 10-1옆,주민센터 뒤쪽,33.5149091,126.5309376,clean
1217,제주특별자치도 제주시 만덕로3길 2앞,노동의원 맞은편,33.5148838,126.5322995,clean
1218,제주특별자치도 제주시 만덕로3길 19앞,우일아파트 앞,33.5150723,126.5381773,clean
1219,제주특별자치도 제주시 연무정동2길 13옆,동초등학교 후문,33.5146082,126.5338454,clean
1220,제주특별자치도 제주시 연무정동길 19앞,동초등학교 후문 동측사거리,33.5150012,126.534519,clean
1221,제주특별자치도 제주시 연무정길 32 앞,현대아파트 상가 앞,33.5164353,126.535355,clean
1222,제주특별자치도 제주시 사라봉9길21 앞,(구)출입국관리사무소뒤,33.5161775,126.5393857,clean
1223,제주특별자치도 제주시 칠머리길15-1 북측,칠머리주차장,33.5179697,126.53571,clean
1224,제주특별자치도 제주시 연무정길6앞,형제현수막 앞,33.5170619,126.5377025,clean
1225,제주특별자치도 제주시 동문로95 북측,여상후문,33.5140674,126.5369069,clean
1226,제주특별자치도 제주시 임항로 286앞,미듬하나로아파트 앞,33.5154335,126.5381443,clean
1227,제주특별자치도 제주시 동대북길1 앞,신천지호텔 동측,33.5177114,126.53819,clean
1228,제주특별자치도 제주시 사라봉7길 5앞,다이아나 호텔후문,33.5175637,126.5399673,clean
1229,제주특별자치도 제주시 임항로235앞,한도맨션 앞,33.5183627,126.5412821,clean
1230,제주특별자치도 제주시 사라봉7길14 동측,사라봉 어린이공원,33.5175637,126.5399673,clean
1231,제주특별자치도 제주시 사라봉1길 50,광덕아파트 동측,33.5145223,126.5411561,clean
1232,제주특별자치도 제주시 사라봉1길 42앞,광덕아파트 동북측,33.5151068,126.5412507,clean
1233,제주특별자치도 제주시 건화길18,건화마을,33.5136465,126.5516463,clean
1234,제주특별자치도 제주시 임항로146,항만119센터앞,33.5201279,126.5393656,clean
1235,제주특별자치도 제주시 임항로37,수협어시장,33.5167949,126.5287068,clean
1236,제주특별자치도 제주시 임항로242서측,금아빌라 서측,33.5185531,126.5403037,clean
1237,제주특별자치도 제주시 임항로191,국제여객터미널,33.5227169,126.5434748,clean
1238,제주특별자치도 제주시 동문로169,사라봉축구장,33.5132456,126.544825,clean
1239,제주특별자치도 제주시 사라봉동길25,국민체육센터,33.5146274,126.544825,clean
1240,제주특별자치도 제주시 사라봉동길30,우당도서관,33.5152251,126.5485633,clean
1241,제주특별자치도 제주시 일주동로17,국립제주박물관,33.5139974,126.5489702,clean
1242,제주특별자치도 제주시 임항로191,해경함정(7부두안쪽),33.5227169,126.5434748,clean
1243,제주특별자치도 제주시 임항로128,해양수산관리단,33.5192613,126.5375945,clean
1244,제주특별자치도 제주시 임항로 111,제주항연안여객터미널,33.519552,126.5349557,clean
1245,제주특별자치도 제주시 임항로85,경비안전서 함정부두,33.5177457,126.5326279,clean
1246,제주특별자치도 제주시 삼사석길45,청룡체육관앞,33.522537,126.569567,clean
1247,제주특별자치도 제주시 진동로 64,동마을회관앞,33.524637,126.567371,clean
1248,제주특별자치도 제주시 진남로8길41,화북아파트옆,33.522312,126.566619,clean
1249,제주특별자치도 제주시 진남로8길50,청풍맨션앞,33.52316,126.566253,clean
1250,제주특별자치도 제주시 진남로49,청풍대앞,33.523312,126.565451,clean
1251,제주특별자치도 제주시 금산5길24-3,화북포구앞,33.525099,126.564436,clean
1252,제주특별자치도 제주시 금산5길41,서마을해녀탈의장옆,33.52609,126.564146,clean
1253,제주특별자치도 제주시 금산3길5-1,전원아파트옆,33.524084,126.563351,clean
1254,제주특별자치도 제주시 금산길26,금산마을회관앞,33.524358,126.562583,clean
1255,제주특별자치도 제주시 진남로15,백향식당옆,33.522734,126.561678,clean
1256,제주특별자치도 제주시 진남로8길2,화북농협뒤,33.519505,126.567615,clean
1257,제주특별자치도 제주시 진동로3길30,올래마트뒤,33.520196,126.566457,clean
1258,제주특별자치도 제주시 진남로6길 35,화북교회밑,33.521908,126.565472,clean
1259,제주특별자치도 제주시 곤을길23,동태탕앞,33.522908,126.559632,clean
1260,제주특별자치도 제주시 진남로4길10,화북주민센터북측,33.520593,126.565173,clean
1261,제주특별자치도 제주시 진동로1길3,대원주택앞,33.51933,126.56458,clean
1262,제주특별자치도 제주시 진동로5길9,망동산앞,33.521176,126.564484,clean
1263,제주특별자치도 제주시 진서로28,삼다연립앞,33.52099,126.563045,clean
1264,제주특별자치도 제주시 진남로2길45,황룡주택앞,33.522188,126.563331,clean
1265,제주특별자치도 제주시 문화마을길 5-1,문화주택입구,33.513107,126.552616,clean
1266,제주특별자치도 제주시 거로길 1,경동택배밑,33.514443,126.556232,clean
1267,제주특별자치도 제주시 거로길37,썬빌라앞,33.512399,126.558682,clean
1268,제주특별자치도 제주시 거로중길 34,등돌거리,33.511683,126.558609,clean
1269,제주특별자치도 제주시 선반로41,평화고속앞,33.515076,126.562052,clean
1270,제주특별자치도 제주시 화남로45,유한킴벌리앞,33.514069,126.563426,clean
1271,제주특별자치도 제주시 거로남3길 22,삼다유통앞,33.510812,126.561026,clean
1272,제주특별자치도 제주시 거로남6길5,국청사입구,33.509791,126.561642,clean
1273,제주특별자치도 제주시 거로남4길 19-8,부응주택앞,33.508382,126.562523,clean
1274,제주특별자치도 제주시 황사평6길73,마을회관앞,33.493204,126.560998,clean
1275,제주특별자치도 제주시 동화로1길 3,화북주공소방소뒤,33.519853,126.573468,clean
1276,제주특별자치도 제주시 동화로1길 45-22,동녘경로당앞,33.518419,126.57867,clean
1277,제주특별자치도 제주시 동화로1길49,동화초공원앞,33.517932,126.576532,clean
1278,제주특별자치도 제주시 부록길 22,농협선과장앞,33.503214,126.568042,clean
1279,제주특별자치도 제주시 거로동길13,황금에스티앞,33.514486,126.558597,clean
1280,제주특별자치도 제주시 진동로 44,해피드림앞,33.522731,126.567823,clean
1281,제주특별자치도 제주시 동제원길41,원두교앞,33.519,126.559504,clean
1282,제주특별자치도 제주시 진남로8길25,억수식당옆,33.521313,126.566849,clean
1283,제주특별자치도 제주시 진북길18,해신사옆,33.524649,126.566298,clean
1284,제주특별자치도 제주시 거로서길15,장원그린빌앞,33.512876,126.555551,clean
1285,제주특별자치도 제주시 화삼북로4길10,공원앞,33.516223,126.577747,clean
1286,제주특별자치도 제주시 진남로6길17,화북동주민센터옆,33.520436,126.565672,clean
1287,제주특별자치도 제주시 진서로 12,화북초후문,33.519885,126.563481,clean
1288,제주특별자치도 제주시 진서로55,뜨레향앞,33.523256,126.562374,clean
1289,제주특별자치도 제주시 동제원길28, 동제원길28,33.517947,126.558967,clean
1290,제주특별자치도 제주시 일주동로6,스타침대앞,33.511847,126.548465,clean
1291,제주특별자치도 제주시 일주동로22,SK LPG앞,33.512361,126.55001,clean
1292,제주특별자치도 제주시 선반남2길30-9,세인트빌앞,33.511459,126.562273,clean
1293,제주특별자치도 제주시 거로길4,경동택배앞,33.514039,126.556454,clean
1294,제주특별자치도 제주시 선반남2길1,삼성전자앞,33.512099,126.559916,clean
1295,제주특별자치도 제주시 선반남1길61,SK LPG앞,33.513887,126.566175,clean
1296,제주특별자치도 제주시 선반로14길 23,대구공업사앞,33.513054,126.569045,clean
1297,제주특별자치도 제주시 청풍남6길53,영남슈퍼앞,33.515027,126.569642,clean
1298,제주특별자치도 제주시 청풍남4길13,주림빌라트앞,33.517577,126.565692,clean
1299,제주특별자치도 제주시 화남로 12,세진자동차 밑,33.517405,126.563186,clean
1300,제주특별자치도 제주시 일주동로 196,문제요 옆,33.518674,126.566832,clean
1301,제주특별자치도 제주시 청풍남8길12-1,화북성당앞,33.518427,126.570781,clean
1302,제주특별자치도 제주시 일주동로 232,월마트 맞은편,33.519446,126.570806,clean
1303,제주특별자치도 제주시 일주동로 233,월마트 위,33.519631,126.570702,clean
1304,제주특별자치도 제주시 화삼로 17,무지개마트뒤,33.51463,126.575023,clean
1305,제주특별자치도 제주시 황사평4길 14-19,취락구조입구,33.495666,126.561912,clean
1306,제주특별자치도 제주시 황사평4길 3,다리옆,33.494485,126.56306,clean
1307,제주특별자치도 제주시 기와1길 55,태고원옆,33.486981,126.560633,clean
1308,제주특별자치도 제주시 기와5길 87,애덕의집앞,33.490722,126.557911,clean
1309,제주특별자치도 제주시 거로남8길 23,거로운동장입구,33.509802,126.563484,clean
1310,제주특별자치도 제주시 삼양일동 1062-1,대유아파트 북측,33.5308127,126.5920658,clean
1311,제주특별자치도 제주시 삼양일동 1588-1,한전아파트 106동 동측,33.5281224,126.5914387,clean
1312,제주특별자치도 제주시 삼양이동 2181-14,삼양초등학교 동측 골목,33.520861,126.5870045,clean
1313,제주특별자치도 제주시 삼양일동 1628-7,마을금고 남측 주차장,33.5268409,126.5905115,clean
1314,제주특별자치도 제주시 삼양일동 1651-5,삼양1동 마을회관 남측 블록,33.5254709,126.5906382,clean
1315,제주특별자치도 제주시 삼양일동 1598-2,삼양검은모래해변 동측 주차장,33.5262786,126.5877894,clean
1316,제주특별자치도 제주시 삼양일동 1521-36,삼양1동 하천 옆,33.5240846,126.5901276,clean
1317,제주특별자치도 제주시 삼양일동 1665-1,신도그린빌라 옆,33.523164,126.5883383,clean
1318,제주특별자치도 제주시 삼양일동 1657-8,삼양해수사우나 동측 주차장,33.5249517,126.5868994,clean
1319,제주특별자치도 제주시 삼양이동 1953,24시편의점 북측,33.5245971,126.5842987,clean
1320,제주특별자치도 제주시 삼양이동 2179-10,한양아파트 옆 공원,33.5202161,126.5839103,clean
1321,제주특별자치도 제주시 삼양이동 2130-1,안평식당 서측 어린이공원,33.5221063,126.5831585,clean
1322,제주특별자치도 제주시 삼양이동 2100-2,삼양 제2펌프장 남측 공원,33.5240415,126.5819647,clean
1323,제주특별자치도 제주시 삼양삼동 2650-3,삼양3동 괴물 옆,33.5252581,126.5740939,clean
1324,제주특별자치도 제주시 삼양이동 2154-1,대일아파트 인근 어린이공원,33.5200702,126.5800797,clean
1325,제주특별자치도 제주시 삼양이동 2133-5,안평식당 동측 주차장,33.5221009,126.5845524,clean
1326,제주특별자치도 제주시 삼양이동 2176-13,민우주택 동측 주차장,33.5197199,126.582595,clean
1327,제주특별자치도 제주시 삼양삼동 2602,삼양3동 마을회관 맞은편,33.5267433,126.5762464,clean
1328,제주특별자치도 제주시 도련이동 575-1,도련2동 마을회관 동측,33.5144785,126.590326,clean
1329,제주특별자치도 제주시 도련일동 1652-1,도련1동 정류장,33.5091665,126.5895552,clean
1330,제주특별자치도 제주시 도련일동 1903-20,흥진빌라 옆,33.5104941,126.5859397,clean
1331,제주특별자치도 제주시 도련일동 2257-2,도련1동 마을회관,33.5091728,126.5846226,clean
1332,제주특별자치도 제주시 삼양이동 2009-1,삼양 제2펌프장 북측,33.5245946,126.5817247,clean
1333,제주특별자치도 제주시 도련일동 2238-3,도련1동 마을회관 서측,33.5087777,126.5824318,clean
1334,제주특별자치도 제주시 삼양일동 1912-5,삼양3수원지 옆,33.5312342,126.591299,clean
1335,제주특별자치도 제주시 삼양일동 1579-1,100번 버스 회차지,33.5294571,126.5934865,clean
1336,제주특별자치도 제주시 삼양일동 1939-5,빨래터 동측,33.5295952,126.589067,clean
1337,제주특별자치도 제주시 삼양일동 1635-1,한전아파트 104동 남측 입구,33.5275336,126.5916847,clean
1338,제주특별자치도 제주시 삼양일동 1637-1,한전아파트 102동 동측,33.5272622,126.5922074,clean
1339,제주특별자치도 제주시 삼양일동 1254-5,"한사랑빌라 앞, 검문소 서측",33.5217676,126.5935776,clean
1340,제주특별자치도 제주시 삼양일동 1315-1,검문소 서측 일주도로변,33.5211303,126.5963065,clean
1341,제주특별자치도 제주시 삼양일동 산 1-1,"원당봉 공원, 문강사 앞",33.5264785,126.5982184,clean
1342,제주특별자치도 제주시 삼양일동 1624-19,비치조아펜션 옆,33.5272257,126.587973,clean
1343,제주특별자치도 제주시 삼양일동 1569-43,삼양검은모래해변 입구,33.525725,126.58692,clean
1344,제주특별자치도 제주시 삼양이동 2127-1,한국농어촌공사 남측,33.5225687,126.5874896,clean
1345,제주특별자치도 제주시 삼양이동 1965-3,감수탕 옆,33.5256848,126.5838978,clean
1346,제주특별자치도 제주시 삼양이동 2124-7,선사한의원 뒤편,33.52256,126.5862091,clean
1347,제주특별자치도 제주시 삼양이동 2115-1,한라하이츠빌 남측,33.523297,126.5816131,clean
1348,제주특별자치도 제주시 삼양삼동 2553,삼양3동 둠벵이교 서측,33.5250227,126.5793198,clean
1349,제주특별자치도 제주시 삼양삼동 2536-2,예지원어린이집 남측,33.5243333,126.5766431,clean
1350,제주특별자치도 제주시 도련이동 581-1,도련사거리 씨유 건너편 골목,33.515742,126.589522,clean
1351,제주특별자치도 제주시 도련이동 645-6,제일일출아파트 입구,33.5151209,126.5917066,clean
1352,제주특별자치도 제주시 도련이동 454-2,한정빌라 앞,33.5144842,126.5927955,clean
1353,제주특별자치도 제주시 도련일동 1740-1,도련별장맨션 인근,33.5090436,126.5903834,clean
1354,제주특별자치도 제주시 도련일동 2225-6,선과장 옆,33.5073941,126.582692,clean
1355,제주특별자치도 제주시 도련일동 2746,그린나래어린이집 서측,33.5071215,126.5798618,clean
1356,제주특별자치도 제주시 도련일동 2206-8,거로목공소 앞,33.5108956,126.5783879,clean
1357,제주특별자치도 제주시 도련일동 2043-1,홍익보육원 앞 도로변,33.516836,126.586291,clean
1358,제주특별자치도 제주시 도련일동 1640-2,도련주공아파트 후문 부근,33.5075871,126.5877986,clean
1359,제주특별자치도 제주시 도련일동 1992-9,삼화지구 서남쪽,33.5125102,126.5788834,clean
1360,제주특별자치도 제주시 도련일동 1996-13,공원 동측,33.514618,126.583027,clean
1361,제주특별자치도 제주시 도련일동 1907-6,오름제주 앞,33.5122093,126.5844955,clean
1362,제주특별자치도 제주시 도련일동 1970-7,삼화방방 북측,33.5147994,126.5799046,clean
1363,제주특별자치도 제주시 도련일동 1035-1,도련1동 정수장 입구,33.5012936,126.5941939,clean
1364,제주특별자치도 제주시 도련일동 2852,정효원,33.50713,126.575479,clean
1365,제주특별자치도 제주시 봉개동 1811-1,대기원룸 앞,33.49183,126.592133,clean
1366,제주특별자치도 제주시 봉개동 2428-2,봉아름주유소옆,33.49179,126.590931,clean
1367,제주특별자치도 제주시 봉개동 2015-7,갤럭시타운남측,33.488423,126.59384,clean
1368,제주특별자치도 제주시 봉개동 2084-3,실과바늘수선집앞,33.487789,126.596827,clean
1369,제주특별자치도 제주시 용강동 1271-3,용강마을회관 북측,33.498622,126.608722,clean
1370,제주특별자치도 제주시 용강동 1306-4,용강마을회관 옆,33.478228,126.586276,clean
1371,제주특별자치도 제주시 봉개동 418-4,명도암버스정류장 옆,33.477012,126.586245,clean
1372,제주특별자치도 제주시 회천동 2177-3,㈜현우전력,33.470356,126.61081,clean
1373,제주특별자치도 제주시 회천동 3264,동회천마을 진입로(동회천길 7 앞),33.489336,126.598027,clean
1374,제주특별자치도 제주시 봉개동 1552-7,26번 버스회차지 앞,33.504936,126.614038,clean
1375,제주특별자치도 제주시 봉개동 1819-18,공주국수 앞,33.467051,126.610699,clean
1376,제주특별자치도 제주시 봉개동 2482-4,봉개원룸 서측,33.484189,126.603888,clean
1377,제주특별자치도 제주시 봉개동 1851-2,뒷슬빌라 가동 앞,33.487053,126.600522,clean
1378,제주특별자치도 제주시 봉개동 1494-2,사랑행복한 교회 입구,33.504191,126.615595,clean
1379,제주특별자치도 제주시 봉개동 1353,번영로 용마가든 옆,33.49138,126.593617,clean
1380,제주특별자치도 제주시 봉개동 1407-1,봉개교회 입구,33.491086,126.589636,clean
1381,제주특별자치도 제주시 봉개동 609-2,손맛식당 옆,33.486882,126.60038,clean
1382,제주특별자치도 제주시 봉개동 297-4,안국사 버스정류장 옆,33.487704,126.59054,clean
1383,제주특별자치도 제주시 봉개동 227-39,은혜마을 입구,33.495644,126.596052,clean
1384,제주특별자치도 제주시 봉개동 234-148,참살이체험농장 입구,33.490928,126.596857,clean
1385,제주특별자치도 제주시 회천동 1315-1,동회천버스정류장 남측,33.465401,126.615842,clean
1386,제주특별자치도 제주시 아라일동 6131,아라주공아파트동측 공영주차장,33.4261379,126.5626925,clean
1387,제주특별자치도 제주시 아라1동 6128-5,아라1동 6128-5(아이파크서남측),33.4261379,126.5626925,clean
1388,제주특별자치도 제주시 아라1동 1,제주대학교 정문 동측,33.4553037,126.5616176,clean
1389,제주특별자치도 제주시 아라1동 6136-1,아라주공 버스정류소 남측,33.4261379,126.5626925,clean
1390,제주특별자치도 제주시 아라1동 4-6,아라1동 4-6번지 (인재개발원정문앞),33.4484369,126.5584045,clean
1391,제주특별자치도 제주시 산천단동3길 16,산천단동3길 16,33.4491104,126.5593387,clean
1392,제주특별자치도 제주시 산천단동1길 15,산천단동1길 15 (산천단마을회관 북측),33.4492764,126.5574086,clean
1393,제주특별자치도 제주시 아라2동 981-3(도),금월길 94 (금천 거마가든),33.4806387,126.5537022,clean
1394,제주특별자치도 제주시 아라2동 1162-3(도),나나어린이집 서측,33.4855477,126.5489908,clean
1395,제주특별자치도 제주시 아라이동 1474-2 (도),자치경찰대 앞,33.4848014,126.5436257,clean
1396,제주특별자치도 제주시 월평동 1038-4(임),월평동 1038-4번지 (버스정류소),33.4696523,126.5756752,clean
1397,제주특별자치도 제주시 영평동 548-3번지(전),영평동 548-3번지 (영평하동마을회관동측),33.4869194,126.5769387,clean
1398,제주특별자치도 제주시 영평동 2796(도),영평동 2424-2앞 (신고북측),33.4803732,126.5603201,clean
1399,제주특별자치도 제주시 영평동 2796(도),영평동 1873-3앞 (영평상동 마을회관),33.4769111,126.567635,clean
1400,제주특별자치도 제주시 오등동 604-5(도),오등동 604-5 (하늘채 가든앞),33.4752451,126.5302938,clean
1401,제주특별자치도 제주시 오등동 1419-2(도),오등9길 41 서측(오등마을회관 서측),33.4754194,126.5254572,clean
1402,제주특별자치도 제주시 오동동 1720-1(도),아연로 295 옹달샘슈퍼 앞,33.466694,126.5181256,clean
1403,제주특별자치도 제주시 아라2동 1324-2(도),간월동로5길 56 (한라자동차학원앞),33.4893131,126.5475636,clean
1404,제주특별자치도 제주시 아라2동 2995(도),간월동로5길 36 (간드락마을회관),33.4797302,126.5505628,clean
1405,제주특별자치도 제주시 아라1동 3000(도),구산로4길 17 (구산마을회관 앞),33.4773847,126.5406041,clean
1406,제주특별자치도 제주시 아라1동 2348-4 (도),구산동길 11-8 (성안교회 북측),33.4820224,126.542521,clean
1407,제주특별자치도 제주시 아라2동 3008-1(차),신설로 56 탐라중 서측,33.476097,126.5543009,clean
1408,제주특별자치도 제주시 영평동 1054-3,영평동 1054-3 (원예자재앞),33.4241658,126.5769732,clean
1409,제주특별자치도 제주시 아라1동 3002,장구마을 입구,33.4760598,126.53133,clean
1410,제주특별자치도 제주시 오등동 1887-2,오등동 405-15 (낙원비치 앞),33.4663815,126.5355272,clean
1411,제주특별자치도 제주시 아라2동 3025,남광초등학교 동측 (다리),33.476097,126.5543009,clean
1412,제주특별자치도 제주시 아라1동 6111,가령골식당 앞 공영주차장(아라지구),33.4261379,126.5626925,clean
1413,제주특별자치도 제주시 아라1동 6114-5,까리따스유치원 북측 공영주차장,33.4261379,126.5626925,clean
1414,제주특별자치도 제주시 아라1동 6106-3,아라주공 북측 공영주차장,33.4261379,126.5626925,clean
1415,제주특별자치도 제주시 아라1동 6142-1,천일아파트 옆 공영주차장 옆,33.4261379,126.5626925,clean
1416,제주특별자치도 제주시 아라1동 6159,건우인더스 앞 주차장,33.4261379,126.5626925,clean
1417,제주특별자치도 제주시 아라1동 6096,아라초등학교 남측 (제일교회 동측),33.4261379,126.5626925,clean
1418,제주특별자치도 제주시 아라1동 6093-4,아라농협 뒤,33.4261379,126.5626925,clean
1419,제주특별자치도 제주시 아라1동 6064-4,제대병원 서북측 공영주차장,33.4261379,126.5626925,clean
1420,제주특별자치도 제주시 아라1동 6068-9,봉이식육점 앞 공영주차장,33.4261379,126.5626925,clean
1421,제주특별자치도 제주시 아라1동 6061,료얄식품 남측 공영주차장,33.4261379,126.5626925,clean
1422,제주특별자치도 제주시 아라1동 6059,매전마을회관 서측 공영주차장,33.4261379,126.5626925,clean
1423,제주특별자치도 제주시 아라1동 6051,매전마을회관 북측 공영주차장,33.4261379,126.5626925,clean
1424,제주특별자치도 제주시 아라1동6046-5,광신농원 앞,33.4261379,126.5626925,clean
1425,제주특별자치도 제주시 아라1동 6083-3,원신아파트 북측 공영주차장(진일마트),33.4261379,126.5626925,clean
1426,제주특별자치도 제주시 아라1동 6075-6,미화아파트 서측 공영주차장,33.4261379,126.5626925,clean
1427,제주특별자치도 제주시 아라2동 2986,SK충전소 남측 (아라리움 북측),33.4881317,126.5515397,clean
1428,제주특별자치도 제주시 아라1동 6189(천),제대병원 정문 (대한약국 옆),33.4261379,126.5626925,clean
1429,제주특별자치도 제주시 아라1동 2995-21(도로),제대마을,33.4261379,126.5626925,clean
1430,제주특별자치도 제주시 아라2동 1462-10,한국농어촌공사 장비관리소,33.482358,126.546907,clean
1431,제주특별자치도 제주시 영평동 2796(도),웃가시나물,33.470033,126.567977,clean
1432,제주특별자치도 제주시 아라1동 2612-29(도로),구산길 여고 서측,33.4261379,126.5626925,clean
1433,제주특별자치도 제주시 아라1동 2542-4(도로),구산마을회관 서측 원두어린이집 입구,33.4816585,126.5354412,clean
1434,제주특별자치도 제주시 아라1동 2726-12(과),아라마트,33.4261379,126.5626925,clean
1435,제주특별자치도 제주시 월평동 275-6,시각장애인복지회관,33.470563,126.5814232,clean
1436,제주특별자치도 제주시 오등동 1351-6(도),진평연립 북측,33.4711331,126.5245283,clean
1437,제주특별자치도 제주시 오등동 1679-5(대),교정아파트,33.4682575,126.5213154,clean
1438,제주특별자치도 제주시 오등동 1162-6(대),한북로 백제관광 앞,33.4426234,126.537055,clean
1439,제주특별자치도 제주시 오등동 408(대),연강병원 앞,33.461219,126.5333079,clean
1440,제주특별자치도 제주시 아라1동 481-9,제주대학교사거리 서측 앙끄레마을 부근,33.4559163,126.5498169,clean
1441,제주특별자치도 제주시 아라1동 2987-2,플리텍대학 동측 하늘바당원룸 앞,33.4466688,126.5653135,clean
1442,제주특별자치도 제주시 아라1동 368-15,공강피시방 앞,33.4505015,126.5584079,clean
1443,제주특별자치도 제주시 아라1동 362-78,산천단동3길 8-9 (트윈별원룸옆),33.4491861,126.5613561,clean
1444,제주특별자치도 제주시 아라1동 362-47,정도원룸(인력개발원 남측),33.445944,126.5623636,clean
1445,제주특별자치도 제주시 아라1동 387-2(잡),관음사,33.4260514,126.5579295,clean
1446,제주특별자치도 제주시 아라1동 산67-5(도),신비의 도로,33.4325951,126.5568417,clean
1447,제주특별자치도 제주시 영평동 2273,제주장애인요양원,33.4480615,126.5698183,clean
1448,제주특별자치도 제주시 영평동 2796(도),교학촌 입구 (첨단과학단지),33.4722492,126.5655418,clean
1449,제주특별자치도 제주시 영평동 2277(도),첨단과학단지 다음 맞은편 블럭,33.4513828,126.5694949,clean
1450,제주특별자치도 제주시 월평동 1378(천),영주고 정문 앞,33.4623415,126.5764627,clean
1451,제주특별자치도 제주시 월평동 651-4(도),효자암,33.4553559,126.5776299,clean
1452,제주특별자치도 제주시 영평동 2795(도),영평 다정타운,33.4860123,126.5662887,clean
1453,제주특별자치도 제주시 영평동 2009-6(도),중앙고 입구 삼거리,33.4714077,126.5700341,clean
1454,제주특별자치도 제주시 월평동 1379(도),삼광사 앞,33.4703442,126.5734327,clean
1455,제주특별자치도 제주시 영평동 2351-1(대),모자원,33.4742404,126.5647323,clean
1456,제주특별자치도 제주시 월평동 945,혜주원 뒤,33.4677192,126.5728389,clean
1457,제주특별자치도 제주시 월평동 288-5,월평동 시립요양원,33.4704293,126.5839222,clean
1458,제주특별자치도 제주시 아라1동 6078-7(공원),제대병원기숙사옆(아라종합약국북측),33.4261379,126.5626925,clean
1459,제주특별자치도 제주시 아라1동 6140-10(대),대학약국 앞,33.4261379,126.5626925,clean
1460,제주특별자치도 제주시 아라1동 1798(중앙로 616(대)),제대병원 상가,33.4688041,126.5471066,clean
1461,제주특별자치도 제주시 아라1동 1635-4(도),아라천주교구 앞,33.4769418,126.5472666,clean
1462,제주특별자치도 제주시 아라2동 942-6(도),제주어린이집 옆 (GS25시 옆),33.4785111,126.553092,clean
1463,제주특별자치도 제주시 아라2동 947-2(도),금천마을 뜨래별 입구,33.4795635,126.553734,clean
1464,제주특별자치도 제주시 아라2동 1565-3,전원요양원,33.4794471,126.5462458,clean
1465,제주특별자치도 제주시 아라2동 2421-16(도),온누리 주유소,33.4863723,126.5421286,clean
1466,제주특별자치도 제주시 아라1동 2452-6(전),제주해양경찰,33.4866637,126.5405367,clean
1467,제주특별자치도 제주시 아라2동 2999-1(천),영지학교 뒷편,33.4914946,126.5422396,clean
1468,제주특별자치도 제주시 아라2동 1412-4(임),대림빌라 입구 도로변 (간드락),33.4872298,126.5475823,clean
1469,제주특별자치도 제주시 아라2동 1434-5(도),월두 마을회관 남측,33.4848105,126.548478,clean
1470,제주특별자치도 제주시 아라2동 2995(월두4길 11앞(도)),월두4길 11 앞(아라2동 2995(도)),33.4797302,126.5505628,clean
1471,제주특별자치도 제주시 아라2동 1165-1(대),금월길 14 아라빌라 앞,33.486186,126.5490651,clean
1472,제주특별자치도 제주시 오등동 1899(도),오등동 아정펠리즈 서측,33.468413,126.522253,clean
1473,제주특별자치도 제주시 아라1동 2486-3(전),연북로 대게식당 옆,33.4857486,126.5380063,clean
1474,제주특별자치도 제주시 아라1동 6140-4(차),염광아파트 서측 공영주차장,33.4261379,126.5626925,clean
1475,제주특별자치도 제주시 오등동 1472-3,제주엔젤어린이집 동측,33.477339,126.520736,clean
1476,제주특별자치도 제주시 오등1길 167-9,온난화대응농업연구소사옥내,33.468673,126.520518,clean
1477,제주특별자치도 제주시 서광로2길33-1,종합경기장입구,33.497388,126.514002,clean
1478,제주특별자치도 제주시 오라로10길6,주민센터동쪽,33.497172,126.57369,clean
1479,제주특별자치도 제주시 오라로116,한국외식업맞은편,33.49616,126.515502,clean
1480,제주특별자치도 제주시 오라로146,푸주옥 옆,33.49617,126.518222,clean
1481,제주특별자치도 제주시 사평4길26,하늘그린발라앞,33.492914,126.512622,clean
1482,제주특별자치도 제주시 서사로25길18,삼도주택 앞,33.498686,126.52097,clean
1483,제주특별자치도 제주시 오라1동1111,실내수여장동쪽,33.49752,126.517281,clean
1484,제주특별자치도 제주시 공설로11길1,공설마을회관동쪽,33.499974,126.519431,clean
1485,제주특별자치도 제주시 공설로5길4,공설마을회관앞,33.49957,126.517115,clean
1486,제주특별자치도 제주시 동성길41,경호상사앞,33.498404,126.509913,clean
1487,제주특별자치도 제주시 월구길36,전파사관사앞,33.500667,126.50628,clean
1488,제주특별자치도 제주시 월구길12,오라3동경로당서쪽,33.500403,126.503604,clean
1489,제주특별자치도 제주시 모시길40,올리브나무어린이집동쪽,33.498044,126.506161,clean
1490,제주특별자치도 제주시 오남로221,한라도서관구내식당뒤편,33.478584,126.515932,clean
1491,제주특별자치도 제주시 오라2동2180-6,공구이마트 입구,33.494542,126.511202,clean
1492,제주특별자치도 제주시 사평4길33,사평마을회관앞,33.491983,126.512702,clean
1493,제주특별자치도 제주시 연사길43,혜성슈퍼 옆,33.490823,126.513837,clean
1494,제주특별자치도 제주시 사평6길29,오라초 후문,33.492085,126.513937,clean
1495,제주특별자치도 제주시 연사길99,웰빙파크빌북쪽,33.489428,126.508946,clean
1496,제주특별자치도 제주시 정실4길11,정실마을회관앞,33.470711,126.508524,clean
1497,제주특별자치도 제주시 오라2동656-2,월정사주차창동쪽,33.468533,126.510165,clean
1498,제주특별자치도 제주시 오남로6길7,소울디자인맞은편,33.493984,126.517177,clean
1499,제주특별자치도 제주시 사평8길16,신흥축산유통북측,33.493279,126.514483,clean
1500,제주특별자치도 제주시 월구1길21,징겸다리어린이집앞,33.499274,126.502516,clean
1501,제주특별자치도 제주시 사평4길43,세월하이츠빌남쪽주차장,33.491732,126.51261,clean
1502,제주특별자치도 제주시 동성길13,동성마을회관동쪽,33.500791,126.510692,clean
1503,제주특별자치도 제주시 정실동길15,예스탑㈜북쪽,33.467824,126.514637,clean
1504,제주특별자치도 제주시 오라2동 1986-3,탐라자동차학원입구,33.488668,126.510902,clean
1505,제주특별자치도 제주시 오라2동 1986-3,탐라자동차학원입구,33.488668,126.510902,clean
1506,제주특별자치도 제주시 오라로16길1,오라1동마을회관앞,33.496098,126.516518,clean
1507,제주특별자치도 제주시 서광로2길9,골든파크 앞,33.501016,126.512845,clean
1508,제주특별자치도 제주시 연미3길 11,오라포레스트 앞,33.490921,126.510715,clean
1509,제주특별자치도 제주시 동성길76-3,천만기업 앞,33.495978,126.507807,clean
1510,제주특별자치도 제주시 월구1길70,제주춘강의원서측,33.495965,126.520681,clean
1511,제주특별자치도 제주시 연오로47,중앙오름편션입구,33.490728,126.501741,clean
1512,제주특별자치도 제주시 오라로16길16,오라1동마을회관남쪽,33.49469,126.516624,clean
1513,제주특별자치도 제주시 오남로46,제주보건소서쪽,33.493252,126.519397,clean
1514,제주특별자치도 제주시 오남로231,제주아트센터구내,33.477506,126.515601,clean
1515,제주특별자치도 제주시 오라남로46-80,인효원 입구,33.455819,126.509278,clean
1516,제주특별자치도 제주시 오라남로57-10,제광원 구내,33.457263,126.513649,clean
1517,제주특별자치도 제주시 오라2동3734,자연나라 앞,33.442337,126.511996,clean
1518,제주특별자치도 제주시 아연로174,정실교옆,33.472594,126.508682,clean
1519,제주특별자치도 제주시 서광로52-10,거북이주유소 서남쪽,33.499932,126.502128,clean
1520,제주특별자치도 제주시 오라2동3074-1,연미마을동쪽,33.48825,126.505494,clean
1521,제주특별자치도 제주시 아연로193-3,노형어린이집남쪽,33.471419,126.510463,clean
1522,제주특별자치도 제주시 연미길97-19,테니스장 주차장,33.487131,126.502265,clean
1523,제주특별자치도 제주시 오남로224,김순선자연조산원내,33.477828,126.514259,clean
1524,제주특별자치도 제주시 연오로173,나이스빌라앞,33.479698,126.500266,clean
1525,제주특별자치도 제주시 종천길75,한라기업사 동쪽,33.469742,126.502435,clean
1526,제주특별자치도 제주시 아연로253,제주발전연구원주차장,33.469536,126.514848,clean
1527,제주특별자치도 제주시 아연로113-8,정실다온가입구,33.475801,126.504768,clean
1528,제주특별자치도 제주시 오남로25,감나무집건너편농수산내,33.492988,126.520005,clean
1529,제주특별자치도 제주시 신대로45,마리나호텔뒤,33.4931562,126.4983263,clean
1530,제주특별자치도 제주시 연동320-14,한흥주택앞,33.4924549,126.5004779,clean
1531,제주특별자치도 제주시 신대로5길26,웰컴센터내,33.4863165,126.4990978,clean
1532,제주특별자치도 제주시 문연로27,KT신제주점뒤,33.4903399,126.500551,clean
1533,제주특별자치도 제주시 문연로35,MBC방송국뒤,33.4903524,126.5013621,clean
1534,제주특별자치도 제주시 문연로27,KT신제주점뒤,33.490399,126.500551,clean
1535,제주특별자치도 제주시 문연로5,도교육청뒤,33.4902703,126.4982302,clean
1536,제주특별자치도 제주시 문연로5,도교육청뒤,33.4902703,126.4902302,clean
1537,제주특별자치도 제주시 문연로6,도청뒤,33.4888341,126.4980797,clean
1538,제주특별자치도 제주시 신대로13길37,도청뒤공영주차장,33.4879322,126.5007388,clean
1539,제주특별자치도 제주시 신대로109,제스코마트뒤,33.4872499,126.4970998,clean
1540,제주특별자치도 제주시 문송길31,제스코마트후문,33.4870771,126.497501,clean
1541,제주특별자치도 제주시 선덕로3길5,구보건환경연구원앞,33.4863332,126.4983864,clean
1542,제주특별자치도 제주시 신대로13길38-3,기업은행연수원,33.4874439,126.5008014,clean
1543,제주특별자치도 제주시 명주길2,석재사뒤,33.494435,126.493299,clean
1544,제주특별자치도 제주시 연삼로29-4,양산수늘음빌라입구,33.494272,126.4962894,clean
1545,제주특별자치도 제주시 신광로1길10,학산맨션서측,33.4931674,126.4938772,clean
1546,제주특별자치도 제주시 신대로54,건설공제조합뒤,33.492534,126.4963652,clean
1547,제주특별자치도 제주시 신대로8길42,신제주성당서북측,33.4927606,126.4926479,clean
1548,제주특별자치도 제주시 신광로1길38,삼무공원북측,33.4923087,126.4910277,clean
1549,제주특별자치도 제주시 신대로8길38,삼무공원동측,33.4920897,126.4929661,clean
1550,제주특별자치도 제주시 연동270-15,연동경로당서남측,33.4913123,126.492277,clean
1551,제주특별자치도 제주시 신대로10길50,연동경로당동측,33.491331,126.492167,clean
1552,제주특별자치도 제주시 신대로68,현대호텔주차장입구,33.491151,126.496023,clean
1553,제주특별자치도 제주시 삼무로11길28,공간어린이집남측,33.4911867,126.4956611,clean
1554,제주특별자치도 제주시 연동281-25,더호텔북서측,33.4902966,126.4932705,clean
1555,제주특별자치도 제주시 연동270-5,삼무공원화장실,33.4914777,126.4920147,clean
1556,제주특별자치도 제주시 제원길3-1,발리호텔남측,33.4895107,126.4896635,clean
1557,제주특별자치도 제주시 연동272-31,로얄호텔북측,33.4890445,126.491207,clean
1558,제주특별자치도 제주시 연동292-82,성일택시동측,33.4888528,126.4944984,clean
1559,제주특별자치도 제주시 신대로104,구KBS북측도로,33.4880672,126.4961045,clean
1560,제주특별자치도 제주시 은남길26,KAL사택북측,33.4875086,126.4952393,clean
1561,제주특별자치도 제주시 연동293-6,은남어린이놀이터,33.4870434,126.4943522,clean
1562,제주특별자치도 제주시 신대로118,지적공사남측,33.4869072,126.4962063,clean
1563,제주특별자치도 제주시 신대로22길25,건강관리협회북측,33.4821425,126.4924972,clean
1564,제주특별자치도 제주시 연동274-25,돔나이트앞,33.4849992,126.4916537,clean
1565,제주특별자치도 제주시 연동12길5,월드마트뒤,33.485102,126.4933626,clean
1566,제주특별자치도 제주시 문연로6,도청후문입구,33.4888341,126.4980797,clean
1567,제주특별자치도 제주시 신대로136,태흥누리안5차앞,33.4852323,126.4961491,clean
1568,제주특별자치도 제주시 연동14길13,한국걸스카웃연맹서측,33.4844994,126.4945953,clean
1569,제주특별자치도 제주시 신대로20길33,한국은행사택서남측,33.483572,126.4927672,clean
1570,제주특별자치도 제주시 신대로20길33,한국은행사택서남측,33.483572,126.4927672,clean
1571,제주특별자치도 제주시 연동297-1,도호어린이공원서측,33.4831261,126.4942813,clean
1572,제주특별자치도 제주시 연동297-1,도호어린이공원동측,33.4831261,126.4942813,clean
1573,제주특별자치도 제주시 연동1375-4,건강관리협회북동측,33.4820945,126.494412,clean
1574,제주특별자치도 제주시 연동1373-4,연동공원북동측,33.4821675,126.4917371,clean
1575,제주특별자치도 제주시 연동1373-4,연동공원북동측,33.4821675,126.4917371,clean
1576,제주특별자치도 제주시 아연로27,해역사북측,33.4794936,126.4982053,clean
1577,제주특별자치도 제주시 신대로139,관광협회동측,33.4848712,126.4969257,clean
1578,제주특별자치도 제주시 선덕로36,설문대동측,33.4852554,126.5007322,clean
1579,제주특별자치도 제주시 선덕로8길12,설문대서남측,33.4844207,126.5005949,clean
1580,제주특별자치도 제주시 삼동길34,해군아파트내,33.4784964,126.4944904,clean
1581,제주특별자치도 제주시 삼동길34,해군아파트내,33.4784964,126.4944904,clean
1582,제주특별자치도 제주시 비월길29,신제주초남측,33.4832705,126.4978539,clean
1583,제주특별자치도 제주시 연동547-2,연동종합복지회관,33.479353,126.4958334,clean
1584,제주특별자치도 제주시 연동1374-2,신시가지에이스아크호텔,33.4814569,126.4916421,clean
1585,제주특별자치도 제주시 과원북4길85,진숙빌딩동측,33.4811421,126.4905995,clean
1586,제주특별자치도 제주시 과원북4길85,진숙빌딩동측,33.4811421,126.4905995,clean
1587,제주특별자치도 제주시 연동1504,제70호오린이공원북측,33.479902,126.4914493,clean
1588,제주특별자치도 제주시 연동1373-4,연동공원북측,33.4821675,126.4917371,clean
1589,제주특별자치도 제주시 연동1499,공영주차장내,33.4786551,1264906383,clean
1590,제주특별자치도 제주시 연동1517,대림아파트동남측,33.4783529,126.4903961,clean
1591,제주특별자치도 제주시 연동1519-2,공영주차장내,33.4776441,126.4893486,clean
1592,제주특별자치도 제주시 연동1519-2,공영주차장내,33.4776441,126.4893486,clean
1593,제주특별자치도 제주시 연동1357-12,예치과남측,33.4754162,126.4880061,clean
1594,제주특별자치도 제주시 과원로60,LPG충전소서측,33.4760001,126.489757,clean
1595,제주특별자치도 제주시 문연로30,도청2청사후문앞,33.4890071,126.5006816,clean
1596,제주특별자치도 제주시 연동2446,제성마을회관앞,33.495338,126.4835739,clean
1597,제주특별자치도 제주시 연동1981,제성마을동측입구,33.4939216,126.4857873,clean
1598,제주특별자치도 제주시 연동2305-7,하나더마트동남측,33.4933571,126.4873208,clean
1599,제주특별자치도 제주시 연동2313-1,정한아파트남서측,33.49315,126.4880852,clean
1600,제주특별자치도 제주시 연동2307-8,삼성전자서비스센터북측,33.4933555,126.4894116,clean
1601,제주특별자치도 제주시 도령로11길30,신광초등학교동측,33.49309,126.4864184,clean
1602,제주특별자치도 제주시 연동2330-1,삼성전자서비스북측어린이공원,33.4926116,126.4889564,clean
1603,제주특별자치도 제주시 연동2319-1,신광초동측소망교회,33.4918326,126.486662,clean
1604,제주특별자치도 제주시 연동2319-1,신광초동측소망교회,33.4918326,126.486662,clean
1605,제주특별자치도 제주시 연동2427,신광초북측한도빌라,33.4930478,126.4840733,clean
1606,제주특별자치도 제주시 연동1958-1,해성빌라북측,33.4913796,126.4826487,clean
1607,제주특별자치도 제주시 남녕로54,지산13차위더스빌,33.492074,126.4796475,clean
1608,제주특별자치도 제주시 연동1958-1,남녕고체육관동측,33.4913796,126.4826497,clean
1609,제주특별자치도 제주시 연동1958-1,남녕고체육관동측,33.4913796,126.4826497,clean
1610,제주특별자치도 제주시 연동1965-2,신광초남측,33.4911241,126.4852711,clean
1611,제주특별자치도 제주시 삼무로19,그레이스호텔맞은편,33.4901554,126.4888593,clean
1612,제주특별자치도 제주시 제성1길20,산림조합동측,33.495133,126.4828135,clean
1613,제주특별자치도 제주시 신광로6길38,제원아파트서측,33.4882522,126.4860518,clean
1614,제주특별자치도 제주시 신광로4길44,제원아파트동측,33.4881705,126.4887387,clean
1615,제주특별자치도 제주시 신광로6길25,제원아파트서남측,33.4879217,126.4880438,clean
1616,제주특별자치도 제주시 신광로6길14,제원아파트북서측,33.4881705,126.4887387,clean
1617,제주특별자치도 제주시 연동1길40,이화주택서측,33.4865861,126.4864875,clean
1618,제주특별자치도 제주시 제원4길18-1,신라면세점북측,33.486647,126.4874902,clean
1619,제주특별자치도 제주시 연동437,연동sk주유소동남측,33.4812869,126.4981411,clean
1620,제주특별자치도 제주시 연동4길12-11,유자사우나서측,33.4845907,126.4869891,clean
1621,제주특별자치도 제주시 연동4길32,디지털한빛아파트서측,33.4831807,1264872880,clean
1622,제주특별자치도 제주시 연동268-6,도원아미스아파트서측,33.4832075,126.4894134,clean
1623,제주특별자치도 제주시 연동1369,연동공원서측,33.482323,126.4883734,clean
1624,제주특별자치도 제주시 연동1369,연동공원서측,33.482323,126.4883734,clean
1625,제주특별자치도 제주시 은수길85,수목원길,33.4687966,126.4876854,clean
1626,제주특별자치도 제주시 연동320-12,풀무원동측,33.4928845,126.501256,clean
1627,제주특별자치도 제주시 연동528-7,서울뚝베기동측,33.4809491,126.4970495,clean
1628,제주특별자치도 제주시 연오로140,도지사관사동측,33.480735,126.5202151,clean
1629,제주특별자치도 제주시 연동455-28,민오름사거립북측,33.4818743,126.501081,clean
1630,제주특별자치도 제주시 연동290-21,굿모닝빌옆,33.4928321,126.4946276,clean
1631,제주특별자치도 제주시 연동260-38,태흥누리안3차앞,33.4903933,126.4884861,clean
1632,제주특별자치도 제주시 신대로144,태흥누리안5차남측,33.4844492,126.495955,clean
1633,제주특별자치도 제주시 연동1662-2,연동복지화관,33.4811315,126.4951366,clean
1634,제주특별자치도 제주시 연동2317-17,신광초동측,33.4925538,126.4855508,clean
1635,제주특별자치도 제주시 성신로9,대림아파트북측,33.4908519,126.4854987,clean
1636,제주특별자치도 제주시 연동263-18,그랜드호텔나이트입구,33.484943,126.4894855,clean
1637,제주특별자치도 제주시 과원로70,부림랜드주차장내,33.4758336,126.4914112,clean
1638,제주특별자치도 제주시 은수길5,예치과남측,33.4758447,126.4864021,clean
1639,제주특별자치도 제주시 은수길33,신제주변전소입구,33.4739367,126.4877821,clean
1640,제주특별자치도 제주시 연동1301,웰빙빌리지앞,33.4676975,126.4879702,clean
1641,제주특별자치도 제주시 과원북4길70,쌍봉냉면동측,33.481477,126.488005,clean
1642,제주특별자치도 제주시 일주서로 7815,산림조합동측,33.494376,126.482094,clean
1643,제주특별자치도 제주시 연삼로61,마라나호텔건너편,33.493322,126.49757,clean
1644,제주특별자치도 제주시 노형동 906-5,노형동 906-5 반대편 한신오피스텔반대편흘천따라,33.488896,126.484985,clean
1645,제주특별자치도 제주시 노형동 916-1 반대편,노형동 916-1 반대편 신라면세점주차장 반대편 흘천따라,33.487053,126.485899,clean
1646,제주특별자치도 제주시 노형동 916-1 반대편,노형동 916-1 반대편 신라면세점주차장 반대편 흘천따라,33.487053,126.485899,clean
1647,제주특별자치도 제주시 노형동 910-7 앞,노형동 910-7 앞 노형동제10호어린이공원 앞,33.486684,126.484016,clean
1648,제주특별자치도 제주시 노형동 912-11 앞,노형동 912-11 앞 해안아모르빌 앞,33.486653,126.482107,clean
1649,제주특별자치도 제주시 노형동 924-3 앞,노형동 924-3 앞 스쿼시클럽,33.484179,126.482256,clean
1650,제주특별자치도 제주시 노형동 932-6 앞,노형동 932-6 앞 사쿠라호텔에서 동쪽으로 40m지점 주차장앞,33.484443,126.483878,clean
1651,제주특별자치도 제주시 노형동 938 앞,노형동 938 앞 행복나눔마트 뒤,33.484878,126.484336,clean
1652,제주특별자치도 제주시 노형동 941-3 옆,노형동 941-3 옆 전 한라골프장 반대편 흘천따라,33.485132,126.486097,clean
1653,제주특별자치도 제주시 노형동 941-3 옆,노형동 941-3 옆 전 한라골프장 반대편 흘천따라,33.485132,126.486097,clean
1654,제주특별자치도 제주시 노형동 722-3 옆,노형동 722-3 옆 메르헨하우스 동쪽반대편 흘천따라,33.482399,126.486607,clean
1655,제주특별자치도 제주시 노형동 945 옆,노형동 945 옆 유나이드아파트 앞,33.48345,126.48622,clean
1656,제주특별자치도 제주시 노형동 921 옆,노형동 921 옆 원노형마을회관 동측 롯데마트 반대편,33.48307,126.482805,clean
1657,제주특별자치도 제주시 노형동 921 옆,노형동 921 옆 원노형마을회관 서측 11호 어린이공원 커브,33.48307,126.482805,clean
1658,제주특별자치도 제주시 노형동 710-4,노형동 710-4 (KT&G 맞은편주차장,33.482517,126.484439,clean
1659,제주특별자치도 제주시 노형동 1293-2 앞,노형동 1293-2 앞 남녕마트 남측 주차장 앞,33.488721,126.482202,clean
1660,제주특별자치도 제주시 노형동 1274-8 앞,노형동 1274-8 앞 노형동제49호어린이공원앞,33.489087,126.481666,clean
1661,제주특별자치도 제주시 노형동 1290-3 내,노형동 1290-3 내 대림아파트 옆 주차장 남쪽커브,33.487027,126.479938,clean
1662,제주특별자치도 제주시 다랑곶길 1,노형동 1296-4 노형 새마을금고 반대편 주차장,33.48672,126.478877,clean
1663,제주특별자치도 제주시 노형동 1290-3 밖,노형동 1290-3 내 대림아파트 옆 주차장 남쪽커브,33.487027,126.479938,clean
1664,제주특별자치도 제주시 노형동 1066-1 옆,노형동 1066-1 옆 (양돈축협옆 50호어린이공원 동측),33.488586,126.477995,clean
1665,제주특별자치도 제주시 노형동 1066-1 옆,노형동 1066-1 옆 (양돈축협옆  50호어린이공원 서측),33.488358,126.477621,clean
1666,제주특별자치도 제주시 노형동 1171-4 앞,노형동 1171-4 앞 월랑초등학교 후문 커브,33.492453,126.477291,clean
1667,제주특별자치도 제주시 노형동 1043-1 조은참치 옆,노형동 1043-1 조은참치 옆 무료주차장,33.489498,126.476724,clean
1668,제주특별자치도 제주시 노형동 1224-1 앞,노형동 1224-1 앞 월마트 서측 10m지점,33.490938,126.475435,clean
1669,제주특별자치도 제주시 노형동 1041-10 앞,노형동 1041-10 앞 조은참치 뒤 48호어린이공원앞,33.489747,126.476399,clean
1670,제주특별자치도 제주시 노형동 1020-3 앞,노형동 1020-3 앞 월광로 길벗식당에서 서쪽으로 20m,33.492251,126.474295,clean
1671,제주특별자치도 제주시 노형동 4 앞,노형동 4 앞 주루레교옆,33.449652,126.480534,clean
1672,제주특별자치도 제주시 노형동 1282-1,노형동 1282-1 노형타워뒤 무료주차장,33.486318,126.478057,clean
1673,제주특별자치도 제주시 노형동 1282-1,노형동 1282-1 노형타워뒤 무료주차장,33.486318,126.478057,clean
1674,제주특별자치도 제주시 노형동 921 옆,노형동 921 옆 원노형마을회관 서측 11호 어린이공원 커브,33.482706,126.481888,clean
1675,제주특별자치도 제주시 노형동 1056-4 앞,노형동 1056-4 앞 노형동53호 공원 북쪽 커브,33.487416,126.475269,clean
1676,제주특별자치도 제주시 노형동 1285-2 앞,노형동 1285-2 앞 노형초 동측 52호어린이공원공원 서쪽,33.487416,126.475269,clean
1677,제주특별자치도 제주시 노형동 2612-2,노형동 2612-2 제주물류 옆주차장 남측,33.485431,126.475078,clean
1678,제주특별자치도 제주시 노형동 2612-2,노형동 2612-2 제주물류 옆주차장 남측,33.485489,126.474556,clean
1679,제주특별자치도 제주시 노형동 2531-5 앞,노형동 2531-5 앞 그린마트 앞 92호어린이공원 서쪽 커브,33.48479,126.472846,clean
1680,제주특별자치도 제주시 노형동 2532-1 앞,노형동 2532-1 앞 이화1차아파트동쪽벽커브,33.484829,126.474385,clean
1681,제주특별자치도 제주시 노형동 2529-7 앞,노형동 2529-7 앞 성환아파트 동쪽 주차장앞,33.48528,126.472228,clean
1682,제주특별자치도 제주시 노형동 2534-3,노형동 2534-3 푸른목장식당 북쪽 10m지점 주차장 남측,33.483413,126.474424,clean
1683,제주특별자치도 제주시 노형동 2534-3,노형동 2534-3 푸른목장식당 북쪽 10m지점 주차장 북측,33.483713,126.474097,clean
1684,제주특별자치도 제주시 노형동 2513-6 앞,노형동 2513-6 앞 정존마을회관앞,33.482805,126.471862,clean
1685,제주특별자치도 제주시 노형동 2512-2,노형동 2512-2 탐라빌 동쪽 주차장,33.48388,126.471478,clean
1686,제주특별자치도 제주시 노형동 1561-2 앞,노형동 1561-2 앞 시티주유소 서측 50지점 동산,33.47617,126.478359,clean
1687,제주특별자치도 제주시 노형동 1977-6 앞,노형동 1977-6 앞 해안분교 반대편,33.456692,126.455078,clean
1688,제주특별자치도 제주시 해안동 1829-1 앞,해안동 1829-1 앞 해안동 버스종점,33.454655,126.455036,clean
1689,제주특별자치도 제주시 노형동3403-3번지,노형동3403-3번지,33.470186,126.468416,clean
1690,제주특별자치도 제주시 해안동 2094-1 반대편,해안동 2094-1 반대편 해안마을 입구,33.462542,126.452551,clean
1691,제주특별자치도 제주시 노형동 751,노형동 751 태을갈비옆및65호어린이공원서측주차장,33.477732,126.479925,clean
1692,제주특별자치도 제주시 노형동3101-8,광평어린이집(노형동3101-8),33.477997,126.465268,clean
1693,제주특별자치도 제주시 노형동 1461-1 앞,노형동 1461-1 앞 탐라도서관 북측주차장 옆,33.477987,126.477467,clean
1694,제주특별자치도 제주시 노형동 740-2,노형동 740-2 양촌리마을삼계탕집반대편주차장,33.479214,126.481717,clean
1695,제주특별자치도 제주시 해안동 22-9 앞,해안동 22-9 앞 축산마을회관 입구,33.445892,126.480977,clean
1696,제주특별자치도 제주시 노형동 2580-1 앞,노형동 2580-1 앞 동마빌딩 뒤 주차장 앞,33.488878,126.474925,clean
1697,제주특별자치도 제주시 노형동 2575-1 앞,노형동 2575-1 앞 (옛골토성뒤 주차장 앞),33.490738,126.473281,clean
1698,제주특별자치도 제주시 노형동 2595-7 앞,노형동 2595-7 앞 노형지구대뒤 93호어린이공원뒤 주차장북쪽커브,33.481623,126.472155,clean
1699,제주특별자치도 제주시 노형동 2589-1 앞,노형동 2589-1 앞 조마루 식당뒤 주차장앞,33.483667,126.470106,clean
1700,제주특별자치도 제주시 노형동 707 반대편,노형동 707 반대편 우편집중국남측 일고북측 사이,33.481203,126.48029,clean
1701,제주특별자치도 제주시 노형동 2292-1 앞,노형동 2292-1 앞 현일주택 앞,33.477905,126.471913,clean
1702,제주특별자치도 제주시 노형동 1060-4 앞,노형동 1060-4 앞 동덕아파트 서쪽,33.48636,126.474817,clean
1703,제주특별자치도 제주시 노형동 1094-4 북측,월랑초등학교 북측,33.493204,126.478165,clean
1704,제주특별자치도 제주시 해안동 1862-1 앞,해안동 1862-1 앞,33.452452,126.4569,clean
1705,제주특별자치도 제주시 노형동 3085-3 앞,노형동 3085-3 앞 초록펜션 반대편,33.479081,126.463469,clean
1706,제주특별자치도 제주시 노형동 721-1 서측 인도,한샘사우나 서측,33.481318,126.483626,clean
1707,제주특별자치도 제주시 노형동 721-1 서측 인도,한샘사우나 서측,33.481318,126.483626,clean
1708,제주특별자치도 제주시 노형동 3773 인근,월산체육공원남측,33.46852,126.462318,clean
1709,제주특별자치도 제주시 노형동 3803-6,동사무소 서측 주차장,33.481418,126.475361,clean
1710,제주특별자치도 제주시 노형동 3800-6 주차장내,탐라도서관 북측(빽다방인근),33.480242,126.477246,clean
1711,제주특별자치도 제주시 정원로 50 서측,탐라도서관 서측,33.479037,126.476398,clean
1712,제주특별자치도 제주시 진군길 22 북측 도로변,제주일고 북측 도로변,33.481213,126.478614,clean
1713,제주특별자치도 제주시 노형9길 9-4,노형동사무소 주차장 북측,33.483565,126.47697,clean
1714,제주특별자치도 제주시 노형동 3782 주차장내,한빛아파트 남측 주차장내,33.484092,126.478323,clean
1715,제주특별자치도 제주시 노형동 3798-9 서측,누룽지 삼계탕 서측,33.479358,126.477967,clean
1716,제주특별자치도 제주시 노형동293-1,노형동293-1 몰이랑도새기랑남측,33.449495,126.486379,clean
1717,제주특별자치도 제주시 노형동571-4,노형동571-4(연동성당앞),33.469145,126.484305,clean
1718,제주특별자치도 제주시 노형동 2661번지앞,개성할머니보쌈 동측,33.48848,126.46954,clean
1719,제주특별자치도 제주시 노형동3561(월산북길),동산어린이집 인근,33.474667,126.46068,clean
1720,제주특별자치도 제주시 노형동 월산북길 48-24,월산마을 포도나무 교회 위편,33.475089,126.46033,clean
1721,제주특별자치도 제주시 노형동 541-1,해안경비단 뒤,33.468777,126.480197,clean
1722,제주특별자치도 제주시 노형동 925 앞,노형동 925 앞 이마트뒤 대유모텔앞,33.48455,126.481105,clean
1723,제주특별자치도 제주시 노형동 928-7 반대편,노형동 928-7 반대편 노형동곰해장국앞,33.485102,126.482313,clean
1724,제주특별자치도 제주시 노형동 1050-3 앞,노형동 1050-3 앞 본죽사거리에서 동쪽방면 260m지점도큐하우스 앞,33.490655,126.478345,clean
1725,제주특별자치도 제주시 노형동 1047-1 앞,노형동 1047-1 앞 본죽사거리에서 동쪽으로 400m지점런던세차장 앞,33.491491,126.479391,clean
1726,제주특별자치도 제주시 노형동 1050-4 앞,노형동 1050-4 앞 본죽사거리에서 동쪽으로 220m지점임소아과 앞,33.490378,126.478021,clean
1727,제주특별자치도 제주시 노형동 3806-8,노형동 3806-8  흑돈가동측 저류지남측,33.480457,126.473548,clean
1728,제주특별자치도 제주시 노형동 1064-1 앞,노형동 1064-1 앞 월랑복지회관 뒤,33.488033,126.476953,clean
1729,제주특별자치도 제주시 노형동 2614-5 앞,노형동 2614-5 앞 방송통신대 뒤,33.48591,126.473348,clean
1730,제주특별자치도 제주시 노형동 2202-1 앞,노형동 2202-1 앞 고사마루길동연어린이집뒷편,33.475298,126.472751,clean
1731,제주특별자치도 제주시 노형동 1433-6 앞,노형동 1433-6 앞 유공주유소 동측,33.482642,126.475559,clean
1732,제주특별자치도 제주시 노형동 677-2 앞,노형동 677-2 앞 시티주유소옆,33.476084,126.480107,clean
1733,제주특별자치도 제주시 노형동 2405 앞,노형동 2405 앞 광평 참사랑어린이집 입구,33.481952,126.468681,clean
1734,제주특별자치도 제주시 노형동 2375-6 앞,노형동 2375-6 앞 광평아토피아어린이집맞은편,33.479895,126.468018,clean
1735,제주특별자치도 제주시 노형동 2482-5 앞,노형동 2482-5 앞 광평마을회관앞,33.48146,126.469718,clean
1736,제주특별자치도 제주시 노형동 2962-1 앞,노형동 2962-1 앞 광평주택 북측으로 380m지점,33.483887,126.466565,clean
1737,제주특별자치도 제주시 노형동 3023-1 앞,노형동 3023-1 앞 광평빌라 서측,33.48091,126.467873,clean
1738,제주특별자치도 제주시 노형동 3702-2 앞,노형동 3702-2 앞 오광로경동렌트카앞,33.483844,126.462244,clean
1739,제주특별자치도 제주시 노형동 2359-3 앞,노형동 2359-3 앞 반석교회입구,33.479753,126.47046,clean
1740,제주특별자치도 제주시 노형동  3148-10 앞,노형동  3148-10 앞 오광로 리틀비젼어린입입구,33.478843,126.467013,clean
1741,제주특별자치도 제주시 노형동 2261-1,노형동 2261-1 월산정수장앞,33.476963,126.469452,clean
1742,제주특별자치도 제주시 노형동 3218 앞,노형동 3218 앞 ○교통안전공단 옆,33.474529,126.464775,clean
1743,제주특별자치도 제주시 해안동 2523 앞,해안동 2523 앞 해안어린이집입구,33.455184,126.451306,clean
1744,제주특별자치도 제주시 해안동 747-4 앞,해안동 747-4 앞 화랑마을안,33.460923,126.464601,clean
1745,제주특별자치도 제주시 해안동 2360 앞,해안동 2393 앞 청옥하우스앞,33.463046,126.450724,clean
1746,제주특별자치도 제주시 해안동 2482-2 앞,해안동 2482-2 앞 해군호텔서측,33.458774,126.44832,clean
1747,제주특별자치도 제주시 해안동 2338-6 앞,해안동 2338-6 앞 제일일출빌리지뒤,33.464805,126.450639,clean
1748,제주특별자치도 제주시 해안동 2107-3 앞,해안동 2107-3 앞 무수천 주유소 북쪽 100m지점 제일일출빌리지입구,33.464136,126.452746,clean
1749,제주특별자치도 제주시 노형동 289-14,노형동 289-14 도깨비○공중화장실 앞,33.45184,126.487627,clean
1750,제주특별자치도 제주시 노형동 568 앞,노형동 568 앞 공영버스차고지,33.468921,126.48322,clean
1751,제주특별자치도 제주시 노형동 71-2,노형동 71-2 삼화주택앞,33.473409,126.484262,clean
1752,제주특별자치도 제주시 노형동 725-4,노형동 725-4 농협 연북로점뒤 일방통행길,33.481381,126.486022,clean
1753,제주특별자치도 제주시 노형동 2592-2 앞,노형동 2592-2 앞 베스트마트맞은편 블록,33.483014,126.470528,clean
1754,제주특별자치도 제주시 노형동 904-10 앞,노형동 904-10 앞 노형파크랜드 옆 주차장,33.487374,126.482335,clean
1755,제주특별자치도 제주시 노형동 1440 앞,노형동 1440 앞 덕영빌라내,33.483963,126.476637,clean
1756,제주특별자치도 제주시 노형동 3220,도로교통공단 옆 골목길,33.474495,126.464782,clean
1757,제주특별자치도 제주시 노형동 2844-1,노형동 2844-1 월광로 라임빌 앞,33.486622,126.467105,clean
1758,제주특별자치도 제주시 노형동 2815,노형동 2815 펠리체 앞,33.485285,126.464612,clean
1759,제주특별자치도 제주시 해안동36-32,한라산휴양펜션 인근,33.441771,126.480142,clean
1760,제주특별자치도 제주시 해안동2446,해안동2446   에버그린하우스,33.458218,126.450384,clean
1761,제주특별자치도 제주시 노형동 1825,해비치스토리 앞,33.4652,126.476113,clean
1762,제주특별자치도 제주시 외도1동 442-5,우정로4길 공원 동쪽,33.491708,126.43006,clean
1763,제주특별자치도 제주시 월대4길 11,외도초등학교 동측 옆,33.493847,126.434984,clean
1764,제주특별자치도 제주시 월대5길,대원암 앞,33.495056,126.434185,clean
1765,제주특별자치도 제주시 외도1동 493-1,우정로 10길 주차장내,33.489331,126.428222,clean
1766,제주특별자치도 제주시 외도1동 493-1,우정로 10길 주차장내,33.489331,126.428222,clean
1767,제주특별자치도 제주시 월대6길,월대천 옆,33.493687,126.436072,clean
1768,제주특별자치도 제주시 외도1동 448-3,절물2길 주차장내,33.496139,126.431932,clean
1769,제주특별자치도 제주시 외도1동 448-3,절물2길 주차장내,33.496139,126.431932,clean
1770,제주특별자치도 제주시 외도1동 482-1,절물1길 주차장내,33.490445,126.432681,clean
1771,제주특별자치도 제주시 외도1동 482-1,절물1길 주차장내,33.490445,126.432681,clean
1772,제주특별자치도 제주시 외도1동 523-3,우령2길 공원(78호)남측,33.488945,126.432166,clean
1773,제주특별자치도 제주시 외도1동 559-1,우령2길 주차장,33.487722,126.431736,clean
1774,제주특별자치도 제주시 외도1동 559-1,우령2길 주차장,33.487722,126.431736,clean
1775,제주특별자치도 제주시 외도1동 634-6,우령4길 공원(72호) 동측,33.486312,126.430355,clean
1776,제주특별자치도 제주시 외도1동 634-6,우령4길 공원(72호) 동측,33.486312,126.430355,clean
1777,제주특별자치도 제주시 외도1동 632-7,우정로16길 주차장,33.486463,126.428457,clean
1778,제주특별자치도 제주시 외도1동 632-7,우정로16길 주차장,33.486463,126.428457,clean
1779,제주특별자치도 제주시 우정로12길 30 옆,71호 공원 동남측(외도1동 492-11),33.487741,126.42752,clean
1780,제주특별자치도 제주시 외도1동 496-17,우령안1길 주차장내,33.488608,126.429466,clean
1781,제주특별자치도 제주시 외도1동 455-1,우령8길 공원(75호)서측,33.490814,126.427605,clean
1782,제주특별자치도 제주시 외도1동 440-7,주차장내,33.491694,126.428637,clean
1783,제주특별자치도 제주시 외도1동 417-6,주차장내  (골드하우스 동쪽),33.492519,126.429931,clean
1784,제주특별자치도 제주시 외도1동 417-6,주차장내  (골드하우스 동쪽),33.492519,126.429931,clean
1785,제주특별자치도 제주시 계명길 6-1,영신교회 앞 계명동 저류조 옆,33.488341,126.426142,clean
1786,제주특별자치도 제주시 연대마을길 25 옆,구 연대복지회관 옆,33.494595,126.426201,clean
1787,제주특별자치도 제주시 외도2동 2005번지 앞,사또비치 옆,33.493947,126.424174,clean
1788,제주특별자치도 제주시 대통길 96 앞,매일조아라연립 옆,33.485687,126.445248,clean
1789,제주특별자치도 제주시 도평길 40 옆,장군천 진입로 옆,33.479481,126.448191,clean
1790,제주특별자치도 제주시 도평동 935-6,도평길 73 앞 삼거리,33.478613,126.450605,clean
1791,제주특별자치도 제주시 도평동 579-1,신산마을길 주차장,33.490261,126.450142,clean
1792,제주특별자치도 제주시 내도7길 3,내도 성진슈퍼 앞,33.494706,126.443911,clean
1793,제주특별자치도 제주시 외도1동 438-3,어린이공원(73호) 동측,33.492282,126.427711,clean
1794,제주특별자치도 제주시 외도1동 530-4,주차장내 (도남오거리식당 앞),33.489296,126.433472,clean
1795,제주특별자치도 제주시 외도2동 332-2,월대5길 씨엔텔 동측,33.495392,126.432693,clean
1796,제주특별자치도 제주시 외동1동 453-1,주차장내 (분수공원 북쪽),33.492151,126.4339,clean
1797,제주특별자치도 제주시 내도동 231,논셋길 도로변,33.491033,126.441313,clean
1798,제주특별자치도 제주시 외도1동 523-3,어린이공원(78호) 동측,33.489553,126.432166,clean
1799,제주특별자치도 제주시 도근내길 13-4,동주민센터 동측주차장,33.492983,126.432802,clean
1800,제주특별자치도 제주시 도평동 1191-1,제1사라교 하천 앞,33.471709,126.446007,clean
1801,제주특별자치도 제주시 외도1동 2252-1,조부천 변,33.485586,126.421015,clean
1802,제주특별자치도 제주시 우평로 71-59서측,대한건재 남측,33.479617,126.450508,clean
1803,제주특별자치도 제주시 내도동 292-1,내도동 삼미주택 앞,33.493796,126.443984,clean
1804,제주특별자치도 제주시 내도동 351-8,내도 성진슈퍼 앞,33.494411,126.442153,clean
1805,제주특별자치도 제주시 내도3길 4,내도복지회관 앞,33.494999,126.439681,clean
1806,제주특별자치도 제주시 테우해안로 60,내도동 운동장 앞,33.496482,126.441444,clean
1807,제주특별자치도 제주시 내도동 534,내도포구옆 임당수횟집,33.496699,126.437411,clean
1808,제주특별자치도 제주시 계명3길 27-6,극락암 앞,33.485908,126.424888,clean
1809,제주특별자치도 제주시 우평로 311,송호빌라 앞,33.484903,126.433726,clean
1810,제주특별자치도 제주시 통물길 122,성지요양원 옆,33.483459,126.43788,clean
1811,제주특별자치도 제주시 도평동 1257-4,창오길(옹기장이어린이집 입구),33.478613,126.444112,clean
1812,제주특별자치도 제주시 장군내길 68-1,제주요양원,33.474925,126.448093,clean
1813,제주특별자치도 제주시 도평동 426-1,신산마을길 (중),33.482409,126.455853,clean
1814,제주특별자치도 제주시 도평동 1354,도평 다정빌라 옆,33.483006,126.446207,clean
1815,제주특별자치도 제주시 외도1동 609,조공포길 (부영동쪽도로상),33.488164,126.43482,clean
1816,제주특별자치도 제주시 도평동 956-2,혼디사랑요양원,33.475859,126.450977,clean
1817,제주특별자치도 제주시 도평동 523-1,나눔요양원,33.487233,126.452456,clean
1818,제주특별자치도 제주시 백포동길 (이호1동 613-7번지),동마을 입구 (도로),33.500483,126.461245,clean
1819,제주특별자치도 제주시 서해안로 (이호1동 346-1번지),동마을포구 옆 (도로),33.503222,126.46135,clean
1820,제주특별자치도 제주시 백포중길 (이호1동 554-2번지),장미어린이집 앞(도로),33.501993,126.458957,clean
1821,제주특별자치도 제주시 백포북길 (이호1동 361-2번지),서마을 무료주차장(도로),33.502602,126.457825,clean
1822,제주특별자치도 제주시 서해안로 (이호1동 375-27번지),불짜장 옆 (도로),33.501896,126.456219,clean
1823,제주특별자치도 제주시 백포서길9 (이호1동 455-4번지),이호동 주민센터 옆 (도유지),33.499786,126.458318,clean
1824,제주특별자치도 제주시 도리로 (이호1동 451-3번지),이호동 주민센터 버스승차대 옆(도로),33.498784,126.458266,clean
1825,제주특별자치도 제주시 항공남길 (이호1동 748-3번지),군산상회선과장 옆(도로),33.497328,126.45936,clean
1826,제주특별자치도 제주시 도리로 (이호1동1652-3),해수욕장 입구 (도로),33.496426,126.455259,clean
1827,제주특별자치도 제주시 테우해안로 (이호1동 1962번지),현사마을 동측입구(도로),33.49588,126.452292,clean
1828,제주특별자치도 제주시 테우해안로 (이호1동 1781-5번지),고향민박 앞(도로),33.497031,126.450089,clean
1829,제주특별자치도 제주시 일주서로 (이호1동 1923-3번지),현사마을 행운마트 옆(도로),33.495071,126.450617,clean
1830,제주특별자치도 제주시 현사길(이호1동 1788-10번지),현사마을 원장천 앞(국유지),33.497892,126.447244,clean
1831,제주특별자치도 제주시 덕지4길 (이호2동 1536-2번지),덕지답 북측(골왓)(도로),33.492844,126.454989,clean
1832,제주특별자치도 제주시 일주서로(이호1동 734-10번지),거룡낚시 옆 (도로),33.495386,126.460776,clean
1833,제주특별자치도 제주시 대동길 (이호2동 113-1번지),해락원 옆 (도로),33.493929,126.463334,clean
1834,제주특별자치도 제주시 대동길 (이호2동 1963-2번지),대일아파트 앞(도로),33.493279,126.463271,clean
1835,제주특별자치도 제주시 일주서로 (이호2동 802-7번지),해양호식당 옆(도로),33.494958,126.461057,clean
1836,제주특별자치도 제주시 오도길 (이호2동 845-9번지),풍경채 옆(도로),33.494,126.459992,clean
1837,제주특별자치도 제주시 오도길 (이호2동927-6번지),상원빌라 앞(도로),33.49312,126.460052,clean
1838,제주특별자치도 제주시 오도9길 (이호2동 1003-2번지),천지빌라 앞(도로),33.491386,126.459883,clean
1839,제주특별자치도 제주시 오도8길 31-1(이호2동 1962-1번지),송림빌라 앞(도로),33.493152,126.457373,clean
1840,제주특별자치도 제주시 오도길 (이호2동 1006-3번지),테아연립 동측(도로),33.491068,126.458407,clean
1841,제주특별자치도 제주시 이호2동 1396-5,민주빌라 서측 옆도로,33.490988,126.457519,clean
1842,제주특별자치도 제주시 테우해안로 (이호1동 1788-10),유진식당 앞 (국유지),33.497637,126.449118,clean
1843,제주특별자치도 제주시 일주서로(이호이동 1905-6),연도로 원장교 앞(도로),33.494419,126.448976,clean
1844,제주특별자치도 제주시 서해안로(이호일동 431-2),비취해수욕장 앞(이호렌드),33.500232,126.454989,clean
1845,제주특별자치도 제주시 서해안로(이호일동 1961-12),해녀탈의장 앞(도로),33.500856,126.455472,clean
1846,제주특별자치도 제주시 이호2동 861-3 체육공원 (입구),체육공원 (입구),33.49538,126.459161,clean
1847,제주특별자치도 제주시 도두1동 1876, 도두1동 1876,33.504326,126.471174,clean
1848,제주특별자치도 제주시 도두1동 1980-1, 도두1동 1980-1,33.503034,126.46872,clean
1849,제주특별자치도 제주시 도두1동 2461-1, 도두1동 2461-1,33.50215,126.467034,clean
1850,제주특별자치도 제주시 도두1동 2627, 도두1동 2627,33.504119,126.465766,clean
1851,제주특별자치도 제주시 도두1동 2620, 도두1동 2620,33.503997,126.465125,clean
1852,제주특별자치도 제주시 도두1동 2619-1, 도두1동 2619-1,33.504386,126.464715,clean
1853,제주특별자치도 제주시 도두1동 2630, 도두1동 2630,33.505886,126.465423,clean
1854,제주특별자치도 제주시 도두1동 2605-2, 도두1동 2605-2,33.506189,126.466984,clean
1855,제주특별자치도 제주시 도두1동 1201-2, 도두1동 1201-2,33.495651,126.474387,clean
1856,제주특별자치도 제주시 도두2동 177-2, 도두2동 177-2,33.495238,126.488545,clean
1857,제주특별자치도 제주시 도두2동 90-8, 도두2동 90-8,33.501113,126.490812,clean
1858,제주특별자치도 제주시 도두1동 2605-6, 도두1동 2605-6,33.504141,126.467303,clean
1859,제주특별자치도 제주시 도두1동 2605-5, 도두1동 2605-5,33.505073,126.467195,clean
1860,제주특별자치도 제주시 도두1동 1741-4, 도두1동 1741-4,33.508068,126.470163,clean
1861,제주특별자치도 제주시 도두2동 711, 도두2동 711,33.509967,126.481849,clean
1862,제주특별자치도 제주시 도두1동 2635-1, 도두1동 2635-1,33.506294,126.464798,clean
1863,제주특별자치도 제주시 도두1동 2632, 도두1동 2632,33.504996,126.463524,clean
1864,제주특별자치도 제주시 도두1동 1732-9, 도두1동 1732-9,33.509098,126.472084,clean
1865,제주특별자치도 제주시 도두2동 836-7, 도두2동 836-7,33.50975,126.47947,clean
1866,제주특별자치도 제주시 도두2동 1659-6, 도두2동 1659-6,33.50867,126.476202,clean
1867,제주특별자치도 제주시 도두2동 1621, 도두2동 1621,33.507401,126.475629,clean
1868,제주특별자치도 제주시 도두1동 1806-1, 도두1동 1806-1,33.504039,126.469161,clean
1869,제주특별자치도 제주시 도두1동 2332-11, 도두1동 2332-11,33.495862,126.468115,clean
1870,제주특별자치도 제주시 도두2동 1675-3, 도두2동 1675-3,33.509623,126.477784,clean
1871,제주특별자치도 제주시 도두2동 190, 도두2동 190,33.495168,126.486067,clean
1872,제주특별자치도 제주시 도두1동 2275, 도두1동 2275,33.493843,126.472795,clean
1873,제주특별자치도 제주시 도두1동 2430-1, 도두1동 2430-1,33.501528,126.465663,clean
1874,제주특별자치도 제주시 도두2동 1154, 도두2동 1154,33.495807,126.483463,clean
1875,제주특별자치도 제주시 도두1동 1654-8, 도두1동 1654-8,33.509184,126.475082,clean
1876,제주특별자치도 제주시 도두1동 2317, 도두1동 2317,33.494415,126.471113,clean
1877,제주특별자치도 서귀포시 대정읍 하모리 814-2,매일시장 뒤,33.2214203,126.2536304,clean
1878,제주특별자치도 서귀포시 대정읍 상모리 132-1,송악산대합실,33.2080393,126.2883118,clean
1879,제주특별자치도 서귀포시 대정읍 하모리 634-11,운진항 앞,33.2115487,126.2572048,clean
1880,제주특별자치도 서귀포시 대정읍 하모리 977-2,안나식당 동쪽,33.2233791,126.2491164,clean
1881,제주특별자치도 서귀포시 대정읍 상모리 2650-3,상모1리사무소 북쪽,33.2265457,126.2668667,clean
1882,제주특별자치도 서귀포시 대정읍 보성리 1577-1,마을회관 북쪽삼거리,33.2525967,126.2703351,clean
1883,제주특별자치도 서귀포시 대정읍 신평리 102,신장동,33.2641661,126.260113,clean
1884,제주특별자치도 서귀포시 대정읍 무릉리 132-1,인향동 노인회관앞,33.27839219,126.2460946,clean
1885,제주특별자치도 서귀포시 대정읍 무릉리 568-7,죄기동놀이터,33.273852,126.233692,clean
1886,제주특별자치도 서귀포시 대정읍 무릉리 973-1,평지동 마을회관,33.2812017,126.2238461,clean
1887,제주특별자치도 서귀포시 대정읍 동일리 274,동일2리사무소,33.257789,126.237018,clean
1888,제주특별자치도 서귀포시 대정읍 일과리 1509-2,어민회관,33.2467068,126.2229603,clean
1889,제주특별자치도 서귀포시 대정읍 일과리 1538-6,어민회관 서쪽,33.24778532,126.2239613,clean
1890,제주특별자치도 서귀포시 대정읍 영락리 1282-2,영락리사무소 뒤,33.25855534,126.2109754,clean
1891,제주특별자치도 서귀포시 대정읍 신도리 1408-1,신도1리사무소,33.27815516,126.191727,clean
1892,제주특별자치도 서귀포시 대정읍 신도리 2072-13,바자동삼거리,33.2843304,126.1824748,clean
1893,제주특별자치도 서귀포시 대정읍 신도리 2067-24,신도3리사무소,33.28669847,126.1845117,clean
1894,제주특별자치도 서귀포시 대정읍 신도리 1920-3,신도3리사무소 북쪽,33.2875297,126.184068,clean
1895,제주특별자치도 서귀포시 대정읍 신도리 3076-2,해녀탈의장 옆,33.2762978,126.1689502,clean
1896,제주특별자치도 서귀포시 대정읍 신도리 2633-4,방앗동네,33.2800877,126.1729316,clean
1897,제주특별자치도 서귀포시 대정읍 신도리 3094-1,어촌계창고,33.27680396,126.1732646,clean
1898,제주특별자치도 서귀포시 대정읍 무릉리 630-2,무릉2리사무소 맞은편,33.274715,126.234713,clean
1899,제주특별자치도 서귀포시 대정읍 영락리 279,독고동,33.262808,126.219175,clean
1900,제주특별자치도 서귀포시 대정읍 영락리 1747-4,하동삼거리,33.25301,126.203528,clean
1901,제주특별자치도 서귀포시 대정읍 영락리 1242-2,대합실 북쪽,33.261089,126.208721,clean
1902,제주특별자치도 서귀포시 대정읍 신평리 603-1,상동삼거리,33.2680094,126.2608707,clean
1903,제주특별자치도 서귀포시 대정읍 신평리 370-4,보건진료소 앞,33.2657306,126.2574763,clean
1904,제주특별자치도 서귀포시 대정읍 일과리 1467-1,서림슈퍼 맞은편,33.2428272,126.2257253,clean
1905,제주특별자치도 서귀포시 대정읍 안성리 1478-2,안성리사무소,33.2498172,126.2797699,clean
1906,제주특별자치도 서귀포시 대정읍 일과리 산1-8,농공단지 제주팩,33.2558601,126.2233987,clean
1907,제주특별자치도 서귀포시 대정읍 하모리 2121-28,신호등식당 북쪽,33.2267353,126.2478171,clean
1908,제주특별자치도 서귀포시 대정읍 상모리 3675-6,힐링타운 입구,33.2304382,126.2567619,clean
1909,제주특별자치도 서귀포시 대정읍 하모리 566-2,하모1리사무소 남쪽,33.2155073,126.2552011,clean
1910,제주특별자치도 서귀포시 대정읍 상모리 4083-1 ,진동산슈퍼 사거리,33.2211342,126.2582452,clean
1911,제주특별자치도 서귀포시 대정읍 가파리 70-6,가파리사무소,33.16601738,126.2737858,clean
1912,제주특별자치도 서귀포시 대정읍 가파리 210,상동항서쪽,33.174189,126.269952,clean
1913,제주특별자치도 서귀포시 대정읍 보성리 1587-1,보성리사무소내,33.25104042,126.2726369,clean
1914,제주특별자치도 서귀포시 대정읍 무릉리 943-15,평지동정류장,33.282145,126.223673,clean
1915,제주특별자치도 서귀포시 대정읍 하모리 1077-1,하모3리 사무소 주차장,33.2216472,126.2474475,clean
1916,제주특별자치도 서귀포시 대정읍 무릉리 2865-3,무릉1리사무소 동쪽,33.27051,126.203652,clean
1917,제주특별자치도 서귀포시 대정읍 무릉리 3314-8,무릉문화의집 앞,33.272613,126.198914,clean
1918,제주특별자치도 서귀포시 대정읍 무릉리 3473-3,전지동하우스,33.271775,126.1956,clean
1919,제주특별자치도 서귀포시 대정읍 무릉리 3097-1,전지동 마을안,33.26703581,126.1977281,clean
1920,제주특별자치도 서귀포시 대정읍 일과리 1516-3,일과2리사무소,33.2460174,126.2212179,clean
1921,제주특별자치도 서귀포시 대정읍 상모리 3872-3,상모대동경로당 앞 삼거리,33.22492908,126.2566674,clean
1922,제주특별자치도 서귀포시 대정읍 하모리 2128-6,토요시장 공중화장실,33.21795105,126.2507324,clean
1923,제주특별자치도 서귀포시 대정읍 구억리 788-3,상동입구 삼거리,33.27898594,126.2830577,clean
1924,제주특별자치도 서귀포시 대정읍 상모리 3970-2,상모아파트 동측공용주차장,33.2225613,126.2551503,clean
1925,제주특별자치도 서귀포시 대정읍 일과리 1303-9,일과1리 대수동 경로당 앞,33.2390056,126.2282013,clean
1926,제주특별자치도 서귀포시 대정읍 영락리 1173-1,영락리4통배수지앞 삼거리,33.264815,126.209829,clean
1927,제주특별자치도 서귀포시 대정읍 하모리 1403-2,한창기계,33.2267691,126.2527251,clean
1928,제주특별자치도 서귀포시 대정읍 보성리 2403 ,영어교육도시내A-20블럭,33.291012,126.282573,clean
1929,제주특별자치도 서귀포시 대정읍 구억리 1101,NLC스쿨 축구장 앞,33.295742,126.290595,clean
1930,제주특별자치도 서귀포시 대정읍 보성리 2424,영어교육도시내 삼정A,33.28408845,126.2742565,clean
1931,제주특별자치도 서귀포시 대정읍 하모리 765-6 ,서부보건소,33.2178503,126.2506219,clean
1932,제주특별자치도 서귀포시 대정읍 무릉리 3734-4,사장동 동쪽 입구 삼거리,33.262706,126.199916,clean
1933,제주특별자치도 서귀포시 대정읍 상모리 2669-3,구연청사무실 옆,33.22465075,126.2681181,clean
1934,제주특별자치도 서귀포시 대정읍 무릉리 1139-3,한길밭 사거리,33.276941,126.231927,clean
1935,제주특별자치도 서귀포시 대정읍 하모리 1191-1,서부 복지관 주차장,33.22390252,126.2478797,clean
1936,제주특별자치도 서귀포시 대정읍 상모리 3732-6,삼원자동차,33.2276168,126.2582134,clean
1937,제주특별자치도 서귀포시 대정읍 일과리 226 ,다솜어린이집 위쪽,33.2349363,126.2406848,clean
1938,제주특별자치도 서귀포시 대정읍 일과리 930,아일랜드 힐,33.2438356,126.2331552,clean
1939,제주특별자치도 서귀포시 대정읍 인성리 122-5,영오종합상사 아래 사거리,33.24736483,126.2849685,clean
1940,제주특별자치도 서귀포시 대정읍 구억리 293-1,그린빌 맞은편,33.2797067,126.2923557,clean
1941,제주특별자치도 서귀포시 대정읍 하모리 1331-2,남제주요양원,33.2302753,126.2510549,clean
1942,제주특별자치도 서귀포시 대정읍 하모리 908,일번지가든,33.2223248,126.2506917,clean
1943,제주특별자치도 서귀포시 대정읍 인성리 373-1,대정모텔 옆,33.2463156,126.2752816,clean
1944,제주특별자치도 서귀포시 대정읍 인성리 368-5 ,고을식당 맞은편,33.2474353,126.2754066,clean
1945,제주특별자치도 서귀포시 남원읍 남원리 1310-3,남원우체국 북쪽 100m,33.278714,126.7114169,clean
1946,제주특별자치도 서귀포시 남원읍 위미리 2885-5,흥진공업사 북쪽,33.274867,126.657318,clean
1947,제주특별자치도 서귀포시 남원읍 태흥리 553-8,태흥2리사무소 맞은편,33.287409,126.744811,clean
1948,제주특별자치도 서귀포시 남원읍 하례리 36-5,망장포 불광사 옆,33.262028,126.637806,clean
1949,제주특별자치도 서귀포시 남원읍 하례리 349-1,두레빌라 입구,33.26380496,126.6253176,clean
1950,제주특별자치도 서귀포시 남원읍 하례리 605-3,하례1리 노인회관 인근,33.269058,126.629101,clean
1951,제주특별자치도 서귀포시 남원읍 하례리 1713,학림동 버스정류장 옆,33.29333883,126.6078204,clean
1952,제주특별자치도 서귀포시 남원읍 신례리 855-2,중산간도로 휴애리 입구,33.285494,126.634263,clean
1953,제주특별자치도 서귀포시 남원읍 수망리 313-1,수망리 마을회관 옆,33.328019,126.713549,clean
1954,제주특별자치도 서귀포시 남원읍 남원리 1352-1,남원1리사무소 앞,33.277489,126.7133681,clean
1955,제주특별자치도 서귀포시 남원읍 남원리 207-10,남원읍사무소 북쪽 버스정류장,33.2806524,126.7186579,clean
1956,제주특별자치도 서귀포시 남원읍 남원리 205-18,남원읍사무소 주차장,33.2799398,126.7182775,clean
1957,제주특별자치도 서귀포시 남원읍 남원리 1147,남원 반석아파트 앞,33.28340407,126.7078155,clean
1958,제주특별자치도 서귀포시 남원읍 남원리 2419-9,신성동 3거리,33.2746036,126.6931707,clean
1959,제주특별자치도 서귀포시 남원읍 남원리 70-3,씨사이드홈,33.28039329,126.7238844,clean
1960,제주특별자치도 서귀포시 남원읍 위미리 4140-5,위미초등학교 뒤,33.274285,126.651893,clean
1961,제주특별자치도 서귀포시 남원읍 신례리 26-7,공천포식당 동쪽,33.267016,126.643805,clean
1962,제주특별자치도 서귀포시 남원읍 신례리 74,맹사리체육공원 내,33.263328,126.6393,clean
1963,제주특별자치도 서귀포시 남원읍 신례리 72-19,공천포구,33.26265,126.641455,clean
1964,제주특별자치도 서귀포시 남원읍 태흥리 950-3,금성동교차로 남쪽 200m,33.28597222,126.740455,clean
1965,제주특별자치도 서귀포시 남원읍 신례리 730-1,신례초등학교 서쪽 100m,33.28308318,126.6293875,clean
1966,제주특별자치도 서귀포시 남원읍 한남리 672-3,한남리사무소 서쪽 500m,33.311235,126.691404,clean
1967,제주특별자치도 서귀포시 남원읍 위미리 491-1,대성동사거리 북쪽,33.291851,126.679378,clean
1968,제주특별자치도 서귀포시 남원읍 위미리 2937-2,위미1리 어촌계 북쪽,33.27102034,126.6586934,clean
1969,제주특별자치도 서귀포시 남원읍 위미리 2061-2,위미중학교 인근,126.664417,33.279801,clean
1970,제주특별자치도 서귀포시 남원읍 위미리 1664-3,신제가든 옆,33.27496941,126.6679908,clean
1971,제주특별자치도 서귀포시 남원읍 남원리 84-2,장터가든 맞은편 주차장,33.2788229,126.7192599,clean
1972,제주특별자치도 서귀포시 남원읍 남원리 1500,청소년문화의집 인근,33.28096544,126.7090903,clean
1973,제주특별자치도 서귀포시 남원읍 남원리 1226-2,동부노인복지회관 게이트볼장 앞,33.2840978,126.713092,clean
1974,제주특별자치도 서귀포시 남원읍 남원리 1451-4,남원생활체육관 진입로,33.2757734,126.7040761,clean
1975,제주특별자치도 서귀포시 남원읍 남원리 19-6,남원LH 아파트 북쪽,33.2820123,126.720172,clean
1976,제주특별자치도 서귀포시 남원읍 태흥리 974-3,태흥초등학교 서쪽,33.285651,126.742474,clean
1977,제주특별자치도 서귀포시 남원읍 의귀리 1434 ,수림식당 서쪽 150m 다리,33.3094018,126.7104725,clean
1978,제주특별자치도 서귀포시 남원읍 한남리 58,리사무소 동쪽 500m 인근,33.313225,126.70066,clean
1979,제주특별자치도 서귀포시 남원읍 한남리 1656-2,한남리 노인회관 북쪽,33.31253219,126.6950942,clean
1980,제주특별자치도 서귀포시 남원읍 태흥리 1804-1,태흥1리 표지석 옆,33.282441,126.730467,clean
1981,제주특별자치도 서귀포시 남원읍 태흥리 1264-2,태흥1리 교차로 입구 남쪽,33.28580288,126.7337095,clean
1982,제주특별자치도 서귀포시 남원읍 태흥리 1337,태흥전기 옆,33.28333489,126.734872,clean
1983,제주특별자치도 서귀포시 남원읍 남원리 381,남원2리 의례회관,33.29418883,126.7114427,clean
1984,제주특별자치도 서귀포시 남원읍 태흥리 63-6,태흥3리 마을운동장 서쪽,33.289915,126.757621,clean
1985,제주특별자치도 서귀포시 남원읍 남원리 314-1,남원2리 리사무소 남쪽,33.29012615,126.7122463,clean
1986,제주특별자치도 서귀포시 남원읍 신례리 1223,신례교,33.29311511,126.6253169,clean
1987,제주특별자치도 서귀포시 남원읍 의귀리 1628-2,의귀리 돗물교,33.3151638,126.7133162,clean
1988,제주특별자치도 서귀포시 남원읍 신례리 1641-5,신례리 한라산 풍경 대각선,33.294973,126.622999,clean
1989,제주특별자치도 서귀포시 남원읍 의귀리 964-1,토지식당 옆,33.3020596,126.7173362,clean
1990,제주특별자치도 서귀포시 남원읍 의귀리 1482-5,의귀리사무소 주차장,33.31033951,126.7133052,clean
1991,제주특별자치도 서귀포시 남원읍 신흥리 1263-2,동백가든,33.320922,126.749307,clean
1992,제주특별자치도 서귀포시 성산읍 고성리 1085,태성주택 앞,33.44950523,126.909775,clean
1993,제주특별자치도 서귀포시 성산읍 고성리 1090-22,창명빌라 앞,33.448064,126.911441,clean
1994,제주특별자치도 서귀포시 성산읍 신천리 439,신천리 마을안,33.34216207,126.8500949,clean
1995,제주특별자치도 서귀포시 성산읍 신천리 352-7 ,신천리어촌계 앞,33.3397587,126.8530361,clean
1996,제주특별자치도 서귀포시 성산읍 신풍리 505-2 ,어멍아방잔치마을 안,33.3626601,126.8384553,clean
1997,제주특별자치도 서귀포시 성산읍 삼달리 684-4,삼달리 마을 안,33.37261163,126.8470682,clean
1998,제주특별자치도 서귀포시 성산읍 삼달리 1220-5,삼달리 새마을 창고 앞,33.37090736,126.8425795,clean
1999,제주특별자치도 서귀포시 성산읍 난산리 2971,모구리야영장,33.40585335,126.8207369,clean
2000,제주특별자치도 서귀포시 성산읍 수산리 2790,양수도마을 안,33.43485506,126.8555792,clean
2001,제주특별자치도 서귀포시 성산읍 고성리 1618-1,고성 진우파크빌 앞,33.44541927,126.9051288,clean
2002,제주특별자치도 서귀포시 성산읍 삼달리 29-2,삼달2리 마을회관 안,33.36940861,126.8687196,clean
2003,제주특별자치도 서귀포시 성산읍 시흥리 763-3,시흥리 (구)마을회관 뒤,33.47394172,126.8994474,clean
2004,제주특별자치도 서귀포시 성산읍 시흥리 109-3,시흥리 경로당 맞은편,33.47392745,126.9041941,clean
2005,제주특별자치도 서귀포시 성산읍 시흥리 980-36 ,시흥리 펌프장 앞,33.4754902,126.8982141,clean
2006,제주특별자치도 서귀포시 성산읍 시흥리 575-4,시흥리 마을 안(상동),33.4731339,126.8937113,clean
2007,제주특별자치도 서귀포시 성산읍 시흥리 700-1,시흥 반석주택,33.47210998,126.8998541,clean
2008,제주특별자치도 서귀포시 성산읍 신천리 556-2,신천리 취락구조,33.3465987,126.8521838,clean
2009,제주특별자치도 서귀포시 성산읍 오조리 61-26,성산(오조)성당 앞,33.4534484,126.9122516,clean
2010,제주특별자치도 서귀포시 성산읍 난산리 1108,난산리 복지회관 안,33.40077333,126.8713598,clean
2011,제주특별자치도 서귀포시 성산읍 난산리 1122,난산리 마을 안,33.3985315,126.8686693,clean
2012,제주특별자치도 서귀포시 성산읍 난산리 1029-4,난산 장수마을 사업장,33.39977833,126.8682913,clean
2013,제주특별자치도 서귀포시 성산읍 고성리 1040-1,고성리마을회관,33.4448401,126.9120212,clean
2014,제주특별자치도 서귀포시 성산읍 신천리 7-14,신천리 해녀탈의장 앞,33.349229,126.863081,clean
2015,제주특별자치도 서귀포시 성산읍 신천리 302-4,신천리 마을 앞,33.3431785,126.8514627,clean
2016,제주특별자치도 서귀포시 성산읍 삼달리 766-1,삼달1리사무소 앞,33.375743,126.846611,clean
2017,제주특별자치도 서귀포시 성산읍 삼달리 1240-3,신풍삼달로 중간,33.372849,126.843442,clean
2018,제주특별자치도 서귀포시 성산읍 삼달리 453-2,삼달1리 마을안(삼거리),33.37238829,126.8502408,clean
2019,제주특별자치도 서귀포시 성산읍 오조리 870,오조마을안(정자 옆),33.4586406,126.9119093,clean
2020,제주특별자치도 서귀포시 성산읍 오조리 90-23,오조펌프장,33.4603525,126.9148763,clean
2021,제주특별자치도 서귀포시 성산읍 오조리 709,오조 공중화장실 앞,33.4629411,126.9126023,clean
2022,제주특별자치도 서귀포시 성산읍 신풍리 17-3,신풍어촌계 탈의장 ,33.36232031,126.8672733,clean
2023,제주특별자치도 서귀포시 성산읍 오조리 1252-1 ,오조리 성산중기 옆,126.9059971,33.4638208,clean
2024,제주특별자치도 서귀포시 성산읍 고성리 298-68,고성 수협,33.449583,126.915748,clean
2025,제주특별자치도 서귀포시 성산읍 고성리 1389-3,고성sk1빌라 옆,33.45134794,126.9095279,clean
2026,제주특별자치도 서귀포시 성산읍 수산리 1199,수산1리 노인회관,33.4467694,126.8804078,clean
2027,제주특별자치도 서귀포시 성산읍 시흥리 12-72,시흥하동,33.4757824,126.9060751,clean
2028,제주특별자치도 서귀포시 성산읍 온평리 872-2,온평리사무소,33.407491,126.900065,clean
2029,제주특별자치도 서귀포시 성산읍 성산리 347-15,성산수협 건너편,33.47073189,126.9309076,clean
2030,제주특별자치도 서귀포시 성산읍 오조리 3-9,오조어촌계,33.4700058,126.9227795,clean
2031,제주특별자치도 서귀포시 성산읍 성산리 234-29,성산헤라호텔 건너편,33.46480731,126.9323452,clean
2032,제주특별자치도 서귀포시 성산읍 수산리 2433-1,수산2리사무소 옆,33.4419289,126.8607094,clean
2033,제주특별자치도 서귀포시 성산읍 신산리 1130-12,신산해안도로 입구,33.3758518,126.8740284,clean
2034,제주특별자치도 서귀포시 성산읍 신풍리 1384,신풍 윗동네,33.3638072,126.8255118,clean
2035,제주특별자치도 서귀포시 성산읍 시흥리 11-13,127전투경찰대,33.47872066,126.9093402,clean
2036,제주특별자치도 서귀포시 성산읍 고성리 1065-4,아로마찜질방 입구,33.44783,126.911478,clean
2037,제주특별자치도 서귀포시 성산읍 성산리 347-9,성산포항 여객터미널,33.4719124,126.9331057,clean
2038,제주특별자치도 서귀포시 성산읍 오조리 675-1,오조리 교차로(백문이동산),33.4628575,126.9087253,clean
2039,제주특별자치도 서귀포시 성산읍 고성리 1187-2,고성오일장,33.452245,126.913456,clean
2040,제주특별자치도 서귀포시 성산읍 고성리 302-4,하수종말처리장 입구,33.450884,126.916233,clean
2041,제주특별자치도 서귀포시 성산읍 고성리 224-16,신양리 마돈식당 앞,33.43752938,126.9221415,clean
2042,제주특별자치도 서귀포시 성산읍 고성리 224-12,대흥작목반,33.43892,126.921088,clean
2043,제주특별자치도 서귀포시 성산읍 고성리 588-7,신양포구 부근,33.434428,126.915798,clean
2044,제주특별자치도 서귀포시 성산읍 신산리 582-2 ,신산포구,33.383584,126.8796939,clean
2045,제주특별자치도 서귀포시 성산읍 신풍리 681,신풍리 게이트볼장,33.36552903,126.8361851,clean
2046,제주특별자치도 서귀포시 성산읍 고성리 1152-8,구미식당 맞은편,33.452473,126.911738,clean
2047,제주특별자치도 서귀포시 성산읍 고성리 612,신양 큰포구 맞은편,33.428749,126.91611,clean
2048,제주특별자치도 서귀포시 성산읍 오조리 9-4,오조리 삼거리,33.4691716,126.9186277,clean
2049,제주특별자치도 서귀포시 성산읍 시흥리 980-99,두산해운물류창고 옆,33.47583445,126.8986491,clean
2050,제주특별자치도 서귀포시 성산읍 고성리 2470-2,정성 자동차 공업사,33.445158,126.8965,clean
2051,제주특별자치도 서귀포시 성산읍 수산리 1080,수산 진빌레,33.4423814,126.8777324,clean
2052,제주특별자치도 서귀포시 안덕면 화순리 776-8,화순항,33.2395967,126.3335802,clean
2053,제주특별자치도 서귀포시 안덕면 사계리 2294-28,제주해안펜션 앞,33.22692092,126.3003855,clean
2054,제주특별자치도 서귀포시 안덕면 화순리 2107,문화마을 내,33.2531968,126.3257123,clean
2055,제주특별자치도 서귀포시 안덕면 화순리 318-16,에쿠스모텔 옆 주차장,33.2472061,126.3333887,clean
2056,제주특별자치도 서귀포시 안덕면 화순리 1069-5,안덕우체국 옆,33.24631331,126.3346405,clean
2057,제주특별자치도 서귀포시 안덕면 화순리 363-3,씨플러스민박,33.2437114,126.3339743,clean
2058,제주특별자치도 서귀포시 안덕면 화순리 833-2,해수욕장 공공화장실 옆,33.24085663,126.3339479,clean
2059,제주특별자치도 서귀포시 안덕면 화순리 1999,안덕지역아동센터 옆(장원동),33.2516673,126.324132,clean
2060,제주특별자치도 서귀포시 안덕면 화순리 763-5,소라민박 옆,33.24032306,126.3380377,clean
2061,제주특별자치도 서귀포시 안덕면 사계리 129-6,용머리 공영주차장 입구,33.2326638,126.3071171,clean
2062,제주특별자치도 서귀포시 안덕면 사계리 2147-32,사계포구,33.2280634,126.305397,clean
2063,제주특별자치도 서귀포시 안덕면 동광리 958-3,농협창고(체력단련실),33.30838055,126.3360335,clean
2064,제주특별자치도 서귀포시 안덕면 동광리 1590,정보사랑방 옆(도서관),33.3049313,126.3359959,clean
2065,제주특별자치도 서귀포시 안덕면 동광리 491-1,동광마을 동쪽(석교동),33.30999437,126.3493149,clean
2066,제주특별자치도 서귀포시 안덕면 동광리 5-157,동광단지경로당,33.31342698,126.3595897,clean
2067,제주특별자치도 서귀포시 안덕면 서광리 366-9,서광주유소 옆 취락구조,33.2894171,126.3233589,clean
2068,제주특별자치도 서귀포시 안덕면 서광리 324-7,서광동리 경로당,33.2879316,126.3272657,clean
2069,제주특별자치도 서귀포시 안덕면 서광리 340-1,서광초 앞,33.287221,126.3265407,clean
2070,제주특별자치도 서귀포시 안덕면 상천리 470-2,상천2교 남쪽(구분교 옆),33.30751957,126.3816494,clean
2071,제주특별자치도 서귀포시 안덕면 창천리 914-5,대평포구,33.2364823,126.359897,clean
2072,제주특별자치도 서귀포시 안덕면 창천리 930-4,대평리사무소 앞,33.23833674,126.3658885,clean
2073,제주특별자치도 서귀포시 안덕면 창천리 160,춘심이네 뒷(농협창고),33.26454931,126.3702884,clean
2074,제주특별자치도 서귀포시 안덕면 창천리 106-4,건강관리실,33.26736044,126.3691992,clean
2075,제주특별자치도 서귀포시 안덕면 창천리 252-1,감산방향,33.2648232,126.3631157,clean
2076,제주특별자치도 서귀포시 안덕면 창천리 380,서부락,33.2626278,126.3645485,clean
2077,제주특별자치도 서귀포시 안덕면 화순리 1202-1,에너지움 아파트,33.25259404,126.3289484,clean
2078,제주특별자치도 서귀포시 안덕면 덕수리 2339-1,덕수리사무소 옆,33.2545388,126.304891,clean
2079,제주특별자치도 서귀포시 안덕면 서광리 2055-8,서광-구억 경계 (서광기계 북쪽),33.2830413,126.2960885,clean
2080,제주특별자치도 서귀포시 안덕면 서광리 1803-3,서광 상동,33.2883891,126.3025339,clean
2081,제주특별자치도 서귀포시 안덕면 서광리 1856-2,서광서리교차로에서 오설록방면,33.28839254,126.3028926,clean
2082,제주특별자치도 서귀포시 안덕면 서광리 2071-1,서광서리교차로에서 덕수방면 150m,33.2846207,126.2989078,clean
2083,제주특별자치도 서귀포시 안덕면 상창리 650-6,상창리사무소 입구,33.2719978,126.363377,clean
2084,제주특별자치도 서귀포시 안덕면 상창리 621,상창리보건진료소 남쪽,33.2740031,126.3607251,clean
2085,제주특별자치도 서귀포시 안덕면 상창리 594-16,상창휴게소 맞은편 마을안길(복지회관 위),33.2734869,126.3623962,clean
2086,제주특별자치도 서귀포시 안덕면 덕수리 792-3,동부락,33.2542837,126.3091344,clean
2087,제주특별자치도 서귀포시 안덕면 덕수리 1474,신신펜션,33.2782317,126.3117754,clean
2088,제주특별자치도 서귀포시 안덕면 감산리 126-2,감산주유소 맞은편,33.260362,126.354412,clean
2089,제주특별자치도 서귀포시 안덕면 창천리 777-5,대평버스 정류장,33.2349726,126.3649353,clean
2090,제주특별자치도 서귀포시 안덕면 상창리 2449-2,상창 신남밭,33.2644186,126.3449907,clean
2091,제주특별자치도 서귀포시 안덕면 감산리 1509-1,우리가든 옆,33.25712365,126.3492864,clean
2092,제주특별자치도 서귀포시 안덕면 감산리 439-3,조인빌리지 맞은편마을안길 100m(계곡서쪽),33.2559701,126.3496203,clean
2093,제주특별자치도 서귀포시 안덕면 서광리 74-1,구방앗간,33.28527194,126.3302528,clean
2094,제주특별자치도 서귀포시 안덕면 서광리 212-6,서동보건소 남쪽,33.2852789,126.3257695,clean
2095,제주특별자치도 서귀포시 안덕면 창천리 772-1,대평 소기왓로,33.235763,126.3661533,clean
2096,제주특별자치도 서귀포시 안덕면 서광리 2470,산방공업,33.2816139,126.2979774,clean
2097,제주특별자치도 서귀포시 안덕면 화순리 353-6,7번클린하우스 인근(씨플러스민박),33.2442939,126.334519,clean
2098,제주특별자치도 서귀포시 안덕면 감산리 105-1,남당사 동쪽,33.25858827,126.3576849,clean
2099,제주특별자치도 서귀포시 안덕면 사계리 1838-2,산방복지회관,33.2329929,126.2994435,clean
2100,제주특별자치도 서귀포시 안덕면 상창리 1560,통물,33.261598,126.351654,clean
2101,제주특별자치도 서귀포시 안덕면 사계리 3596-3,조각공원 맞은편 (신항동),33.250421,126.3210311,clean
2102,제주특별자치도 서귀포시 안덕면 사계리 2449,하상못,33.22936543,126.2932469,clean
2103,제주특별자치도 서귀포시 안덕면 서광리 2165-5,서광서리 복지회관,33.28516607,126.3024803,clean
2104,제주특별자치도 서귀포시 표선면 표선리 699-7,(구)표선면 사무소 앞(표선리 공영주차장),33.326122,126.832131,clean
2105,제주특별자치도 서귀포시 표선면 표선리 882-1,막상올레(천혜가든 앞),33.325584,126.8366,clean
2106,제주특별자치도 서귀포시 표선면 표선리 775,표선 파출소 뒤,33.323258,126.83123,clean
2107,제주특별자치도 서귀포시 표선면 표선리 515-4,제일주택 앞,33.32859,126.833166,clean
2108,제주특별자치도 서귀포시 표선면 성읍리 987-1,고려삼계탕 앞,33.38413899,126.8018963,clean
2109,제주특별자치도 서귀포시 표선면 표선리 2078,표선장례식장(표선리마을회),33.32775185,126.823681,clean
2110,제주특별자치도 서귀포시 표선면 성읍리 2901,성읍 2리사무소(성읍2리마을회),33.41327837,126.7719813,clean
2111,제주특별자치도 서귀포시 표선면 성읍리 2891,구룡밭식당 앞,33.411361,126.774122,clean
2112,제주특별자치도 서귀포시 표선면 표선리 1005-6,표선 농협창고,33.32136544,126.8293686,clean
2113,제주특별자치도 서귀포시 표선면 표선리 763-1,서상동 원룸,33.323491,126.829031,clean
2114,제주특별자치도 서귀포시 표선면 세화리 1080,세화1리 청소년공부방,33.331014,126.798357,clean
2115,제주특별자치도 서귀포시 표선면 세화리 1768-7,즐겨찾기 게스트하우스 앞,33.323396,126.792255,clean
2116,제주특별자치도 서귀포시 표선면 세화리 2410-4,세화3리 영농폐기물 집하장 남쪽,33.320509,126.790481,clean
2117,제주특별자치도 서귀포시 표선면 토산리 154-4,세화3리 마을회관 남쪽,33.3183229,126.7872835,clean
2118,제주특별자치도 서귀포시 표선면 토산리 332-12,알토산 복지회관 앞 삼거리,33.30943,126.7809109,clean
2119,제주특별자치도 서귀포시 표선면 세화리 669-5,동산식당,33.33307091,126.8040657,clean
2120,제주특별자치도 서귀포시 표선면 토산리 521-1,토산2리,33.3095362,126.7750066,clean
2121,제주특별자치도 서귀포시 표선면 세화리 209-3,해녀탈의장 부근,33.303939,126.803173,clean
2122,제주특별자치도 서귀포시 표선면 세화리 200-1,나무이야기하우스(민박) 인근,33.30440591,126.8060969,clean
2123,제주특별자치도 서귀포시 표선면 세화리 1521-4,가마어린이집 옆,33.307158,126.800519,clean
2124,제주특별자치도 서귀포시 표선면 표선리 40-10,표선 당케포구,33.32463558,126.8451501,clean
2125,제주특별자치도 서귀포시 표선면 표선리 40-66,표선도서관,33.32338268,126.8383561,clean
2126,제주특별자치도 서귀포시 표선면 가시리 1311-1,가시천 주챙이교,33.356869,126.776544,clean
2127,제주특별자치도 서귀포시 표선면 하천리 134-1,하천리 가스충전소 옆,33.33732759,126.8428332,clean
2128,제주특별자치도 서귀포시 표선면 성읍리 1009,성읍리 법성사,33.384451,126.796613,clean
2129,제주특별자치도 서귀포시 표선면 성읍리 1468-1,성읍1리 성아시,33.38930159,126.7962828,clean
2130,제주특별자치도 서귀포시 표선면 세화리 168-2,돈오름 식당 옆,33.304962,126.808958,clean
2131,제주특별자치도 서귀포시 표선면 토산리 1377-1,토산 1리 사무소,33.3256306,126.7632824,clean
2132,제주특별자치도 서귀포시 표선면 토산리 425-4,남쪽나라 옆,33.30654701,126.7835428,clean
2133,제주특별자치도 서귀포시 표선면 토산리 456-2,송천교 옆,33.3073955,126.7744362,clean
2134,제주특별자치도 서귀포시 표선면 가시리 2105-2,향촌마을식당 인근 (다리 건너편),33.349073,126.773885,clean
2135,제주특별자치도 서귀포시 표선면 가시리 2528-3,녹산로 입구 (오뚜기편의점 맞은 편),33.361406,126.766033,clean
2136,제주특별자치도 서귀포시 표선면 표선리 2919-2,표선리 한지동 마을 내 (민속해안로119번길 22 앞),33.307955,126.812771,clean
2137,제주특별자치도 서귀포시 표선면 가시리 2318-2,가시리 두리동 창고 앞 (선과장 앞),33.351817,126.765572,clean
2138,제주특별자치도 서귀포시 표선면 토산리 933,노인복지회관 옆,33.3302087,126.7680608,clean
2139,제주특별자치도 서귀포시 표선면 하천리 668-3,하천리 흰동산 옆,33.3517581,126.8349374,clean
2140,제주특별자치도 서귀포시 표선면 토산리 856-4,토산세화로 21 옆 (토산감귤영농조합법인 선과장 인근),33.3307368,126.7694003,clean
2141,제주특별자치도 서귀포시 표선면 하천리 2176-1,표선면 양묘장 앞,33.3532661,126.8080594,clean
2142,제주특별자치도 서귀포시 표선면 하천리 329-5,하천리 마을 입구,33.34182735,126.8447759,clean
2143,제주특별자치도 서귀포시 표선면 가시리 2168-2,폭남동 버스정류소,33.345325,126.773483,clean
2144,제주특별자치도 서귀포시 표선면 표선리 2074-2,표선라이온스클럽 옆,33.328229,126.822083,clean
2145,제주특별자치도 서귀포시 표선면 표선리 959-1,무지개마을 입구,33.321784,126.833775,clean
2146,제주특별자치도 서귀포시 표선면 성읍리 468-5,성읍1리 복지타운 안,33.39773944,126.8044452,clean
2147,제주특별자치도 서귀포시 표선면 표선리 463-1,표선초등학교 맞은편,33.3288785,126.8352269,clean
2148,제주특별자치도 서귀포시 표선면 표선리 317-1,표선중학교,33.33066884,126.8309831,clean
2149,제주특별자치도 서귀포시 표선면 표선리 1311-6,해양수산연구원,33.30766086,126.829507,clean
2150,제주특별자치도 서귀포시 표선면 토산리 537-3,토산2리 마을회관,33.30876899,126.7796501,clean
2151,제주특별자치도 서귀포시 표선면 표선리 40-77,표선 제주민속촌,33.3223496,126.8392987,clean
2152,제주특별자치도 서귀포시 표선면 가시리 산 158,붉은오름 휴양림,33.40142958,126.6756716,clean
2153,제주특별자치도 서귀포시 서귀동 634-2,우성모텔,33.2432891,126.5628451,clean
2154,제주특별자치도 서귀포시 서귀동 673-5,동남냉동,33.23996412,126.5618874,clean
2155,제주특별자치도 서귀포시 서귀동 558-15,자치경찰대(YWCA 앞),33.2445571,126.5634134,clean
2156,제주특별자치도 서귀포시 서귀동 29-1,송화촌,33.24314147,126.5670391,clean
2157,제주특별자치도 서귀포시 보목동 566,해녀횟집,33.23940851,126.6060356,clean
2158,제주특별자치도 서귀포시 보목동 420,혜관정사,33.2426231,126.6023979,clean
2159,제주특별자치도 서귀포시 보목동 660,보목농협,33.24253746,126.5987896,clean
2160,제주특별자치도 서귀포시 보목동 869-1,KAL숙소,33.2440216,126.5987962,clean
2161,제주특별자치도 서귀포시 서귀동 778-3,CU앞(BK호텔),33.24072947,126.5641583,clean
2162,제주특별자치도 서귀포시 서귀동 652-7,어촌계 복지회관 앞,33.2415193,126.5591798,clean
2163,제주특별자치도 서귀포시 서귀동 738-2,해군아파트 입구,33.24232279,126.5660045,clean
2164,제주특별자치도 서귀포시 보목동 1308-13,보목동 입구,33.24323876,126.5970653,clean
2165,제주특별자치도 서귀포시 보목동 695-3,삼다제가복지센터,33.2406746,126.5975792,clean
2166,제주특별자치도 서귀포시 보목동 613-1,보목교회,33.23902826,126.5987756,clean
2167,제주특별자치도 서귀포시 서귀동 412-14,정방동사무소 정문 앞,33.24677729,126.5650983,clean
2168,제주특별자치도 서귀포시 서귀동 422-2,쌍둥이 횟집 앞,33.2464699,126.5611943,clean
2169,제주특별자치도 서귀포시 서귀동 463-1,신세계호텔 옆(평양면옥 맞은편),33.2450442,126.5601586,clean
2170,제주특별자치도 서귀포시 서귀동 449,엄마손맛 옆,33.24557778,126.5614044,clean
2171,제주특별자치도 서귀포시 서귀동 172,대건아파트 옆,33.2468267,126.5653904,clean
2172,제주특별자치도 서귀포시 서귀동 961-31,명지아파트 입구,33.2459499,126.5675485,clean
2173,제주특별자치도 서귀포시 서귀동 485-10,작은 프랑스 옆,33.2457077,126.5612443,clean
2174,제주특별자치도 서귀포시 서귀동 127-4,가야밀면 남쪽,33.2465889,126.5663492,clean
2175,제주특별자치도 서귀포시 서귀동 403-3,정방동 공영주차장 옆,33.247828,126.5631657,clean
2176,제주특별자치도 서귀포시 서귀동 261-5,장수흑염소앞,33.25320969,126.5656631,clean
2177,제주특별자치도 서귀포시 동홍동 453-1,시민회관,33.25102581,126.5671762,clean
2178,제주특별자치도 서귀포시 중앙동 250-6,한로물산,33.2492489,126.5674712,clean
2179,제주특별자치도 서귀포시 서귀동 294-7,윤성현 내과앞,33.24841853,126.5610683,clean
2180,제주특별자치도 서귀포시 서귀동 330-10,탐나마트 옆(태영전자 맞은편),33.25220754,126.5576069,clean
2181,제주특별자치도 서귀포시 서귀동 332-12,골드슈퍼 앞,33.25081389,126.5571761,clean
2182,제주특별자치도 서귀포시 서귀동 321-10,평생학습센터 뒤,33.24930401,126.5585443,clean
2183,제주특별자치도 서귀포시 서홍동 477-4,한성전기 앞,33.24919583,126.5545015,clean
2184,제주특별자치도 서귀포시 서홍동 581-3,지체 장애인 앞,33.24427865,126.555093,clean
2185,제주특별자치도 서귀포시 서홍동 744-59,SGI 연수원 앞,33.241942,126.554497,clean
2186,제주특별자치도 서귀포시 서귀동 304-4,어린이놀이터앞,33.2511829,126.5585134,clean
2187,제주특별자치도 서귀포시 신효동 125-3,효돈농협 맞은편,33.263894,126.614667,clean
2188,제주특별자치도 서귀포시 신효동 820-4,안골목클린하우스,33.2638999,126.6102623,clean
2189,제주특별자치도 서귀포시 신효동 798,신효알동네클린하우스,33.2619724,126.6091434,clean
2190,제주특별자치도 서귀포시 신효동 690-9,신효중앙클린하우스,33.26608533,126.613871,clean
2191,제주특별자치도 서귀포시 하효동 11-1,효돈중학교 후문,33.2661912,126.6187145,clean
2192,제주특별자치도 서귀포시 하효동 646-3,효돈동 농협하나로마트,33.2611299,126.6153448,clean
2193,제주특별자치도 서귀포시 하효동 255,셋가름클린하우스,33.2615564,126.6186693,clean
2194,제주특별자치도 서귀포시 하효동 537-3,성수동 클린하우스,33.2586771,126.6200142,clean
2195,제주특별자치도 서귀포시 하효동 996-1,효돈빌라 윗길,33.25167869,126.6225621,clean
2196,제주특별자치도 서귀포시 하효동 429,용운사옆 클린하우스,33.25992212,126.6233895,clean
2197,제주특별자치도 서귀포시 하효동 1068,알뜨르클린하우스,33.25248453,126.6171802,clean
2198,제주특별자치도 서귀포시 하효동 910,칠십리클린하우스,33.257619,126.6155836,clean
2199,제주특별자치도 서귀포시 하효동 625-2,앞밭듸클린하우스,33.2595198,126.6156846,clean
2200,제주특별자치도 서귀포시 신효동 189-3,효돈빌라 북쪽,33.2669284,126.6151987,clean
2201,제주특별자치도 서귀포시 신효동 774,신효섯동네(국수의전설),33.2634414,126.6078806,clean
2202,제주특별자치도 서귀포시 하효동 137,효돈 파출소 후문,33.26375033,126.6168606,clean
2203,제주특별자치도 서귀포시 토평동 1046-1,삼성여고,33.257827,126.586078,clean
2204,제주특별자치도 서귀포시 토평동 1615-10,삼원주택,33.274548,126.590501,clean
2205,제주특별자치도 서귀포시 토평동 2087-8,한라빌라,33.27264,126.586856,clean
2206,제주특별자치도 서귀포시 상효동 941-7,서상효 마을회관 ,33.273069,126.596951,clean
2207,제주특별자치도 서귀포시 상효동 453-2,동상효농협,33.279904,126.607512,clean
2208,제주특별자치도 서귀포시 토평동 1342-4,토평신협,33.27050285,126.5900709,clean
2209,제주특별자치도 서귀포시 토평동 1541-3,뒷빌레식당,33.2731265,126.5894962,clean
2210,제주특별자치도 서귀포시 토평동 2069,박씨선과장,33.27425745,126.5868675,clean
2211,제주특별자치도 서귀포시 상효동 1290-10,법호촌,33.292274,126.594621,clean
2212,제주특별자치도 서귀포시 상효동 2295-4,돈내코마을회관,33.302493,126.575905,clean
2213,제주특별자치도 서귀포시 토평동 3273-1,공업단지,33.292543,126.581076,clean
2214,제주특별자치도 서귀포시 상효동 654-19,고장낭밭,33.274183,126.599219,clean
2215,제주특별자치도 서귀포시 토평동 1702-1,평안요양원,33.28127841,126.5887667,clean
2216,제주특별자치도 서귀포시 상효동 1460,돈내코 관리사무실,33.30012963,126.5844393,clean
2217,제주특별자치도 서귀포시 상효동 1127-2,양마단지,33.300327,126.600828,clean
2218,제주특별자치도 서귀포시 상효동 828-8,월라봉로,33.267689,126.598021,clean
2219,제주특별자치도 서귀포시 토평동 2336,YWCA어린이집 인근,33.26213529,126.5812794,clean
2220,제주특별자치도 서귀포시 토평동 2235-3,동사무소 인근,33.268585,126.587045,clean
2221,제주특별자치도 서귀포시 토평동 3245,동네거리상회,33.27199379,126.5872388,clean
2222,제주특별자치도 서귀포시 토평동 2895,정혜재활원,33.28467665,126.5814767,clean
2223,제주특별자치도 서귀포시 상효동 1459,돈내코야영장,33.30024253,126.5847695,clean
2224,제주특별자치도 서귀포시 동홍동 1687-1,산지물(5단지 옆),33.264998,126.563634,clean
2225,제주특별자치도 서귀포시 동홍동 1041-8,청소년문화의집(구.동사무소),33.26628454,126.5670494,clean
2226,제주특별자치도 서귀포시 동홍동 1209-1,동홍반석아르미 입구,33.26404033,126.5698896,clean
2227,제주특별자치도 서귀포시 동홍동 1242-5,보리고개,33.262197,126.566855,clean
2228,제주특별자치도 서귀포시 동홍동 1380-8,명물천사우나,33.258958,126.56119,clean
2229,제주특별자치도 서귀포시 동홍동 1504-3,동방아파트 앞(서귀포의료원),33.254275,126.563761,clean
2230,제주특별자치도 서귀포시 동홍동 529-8,우성빌라 건너편,33.256298,126.566286,clean
2231,제주특별자치도 서귀포시 동홍동 426-7,새동산교회(구.충일교회),33.251384,126.56994,clean
2232,제주특별자치도 서귀포시 동홍동 646-1,노인복지회관,33.25398814,126.5706943,clean
2233,제주특별자치도 서귀포시 동홍동 151,덕산캐슬,33.252672,126.574181,clean
2234,제주특별자치도 서귀포시 동홍동 823,서귀포 제일교회(구.오멍가멍),33.269826,126.572288,clean
2235,제주특별자치도 서귀포시 동홍동 577-7,동홍주민센터 옆,33.257881,126.569257,clean
2236,제주특별자치도 서귀포시 동홍동 651,충암5차,33.259004,126.574623,clean
2237,제주특별자치도 서귀포시 동홍동 663,유정빌라,33.25885838,126.5763713,clean
2238,제주특별자치도 서귀포시 동홍동 470-1,엔젤하우스 서쪽(작은도서관),33.25544697,126.5722626,clean
2239,제주특별자치도 서귀포시 동홍동 205-2,예그린 하우스,33.25097008,126.576126,clean
2240,제주특별자치도 서귀포시 토평동 3265-8,아이진  3차아파트,33.2576742,126.5763365,clean
2241,제주특별자치도 서귀포시 동홍동 420-1,현대탕 뒤쪽(대경빌라),33.256408,126.575787,clean
2242,제주특별자치도 서귀포시 동홍동 1385-8,협심빌라 남쪽(언덕밑),33.260652,126.56227,clean
2243,제주특별자치도 서귀포시 동홍동 130,캐슬휘닉스 1차,33.25418841,126.5754537,clean
2244,제주특별자치도 서귀포시 동홍동 392-1,제주상회(자기주도학습 입구),33.24987247,126.5705127,clean
2245,제주특별자치도 서귀포시 동홍동 779-1,서귀포향토오일시장,33.26698899,126.5736531,clean
2246,제주특별자치도 서귀포시 서홍동 1966-1,홍로그린빌라 옆,33.26499193,126.5533739,clean
2247,제주특별자치도 서귀포시 서홍동 238,서홍맨션 앞(명성어린이집),33.26581249,126.558955,clean
2248,제주특별자치도 서귀포시 서홍동 276-8,형남3차 아파트 북쪽 ,33.263319,126.555952,clean
2249,제주특별자치도 서귀포시 서홍동 299-1,태봉그린피아아파트,33.2607091,126.555864,clean
2250,제주특별자치도 서귀포시 서홍동 305-4,태양아파트 앞,33.260521,126.558046,clean
2251,제주특별자치도 서귀포시 서홍동 382-2,일호지오빌A 앞,33.257398,126.558127,clean
2252,제주특별자치도 서귀포시 서홍동 447-3,서귀포 보건소 옆,33.25347982,126.5553555,clean
2253,제주특별자치도 서귀포시 서홍동 451,예일학원 앞,33.253559,126.560474,clean
2254,제주특별자치도 서귀포시 서홍동 397-24,서홍동 주민센터,33.25570748,126.5600961,clean
2255,제주특별자치도 서귀포시 서홍동 345-1,건강나라 앞,33.258979,126.556109,clean
2256,제주특별자치도 서귀포시 서홍동 216-3,서홍교회 북쪽,33.2655284,126.5561445,clean
2257,제주특별자치도 서귀포시 강정동 475-2,법환 초등학교 옆,33.236456,126.507207,clean
2258,제주특별자치도 서귀포시 법환동 451-2,법환 마을회관 동쪽,33.24062,126.514625,clean
2259,제주특별자치도 서귀포시 호근동 1528,속골로 입구 북쪽,33.24523682,126.5302542,clean
2260,제주특별자치도 서귀포시 호근동 1619,돔베낭골주차장,33.24016844,126.5318436,clean
2261,제주특별자치도 서귀포시 법환동 745-4,한국전력공사,33.2515683,126.508448,clean
2262,제주특별자치도 서귀포시 법환동 737,서부파출소 앞,33.2539704,126.5074179,clean
2263,제주특별자치도 서귀포시 서호동 1528,해양경찰서,33.25131569,126.5138549,clean
2264,제주특별자치도 서귀포시 서호동 1453,미래공원2(진미식당동쪽),33.2572752,126.5094909,clean
2265,제주특별자치도 서귀포시 서호동 1149-7,미래공원,33.25964263,126.5128086,clean
2266,제주특별자치도 서귀포시 서호동 1423,고근산배수지 인근,33.26353826,126.5083824,clean
2267,제주특별자치도 서귀포시 호근동 1141-5,용천사입구,33.26177655,126.5303246,clean
2268,제주특별자치도 서귀포시 서호동 794-4,서문(2청사 방향 사거리),33.2572261,126.519123,clean
2269,제주특별자치도 서귀포시 호근동 1786-2,호근썬마트 맞은편,33.2574854,126.5247956,clean
2270,제주특별자치도 서귀포시 호근동 1371-3,서강네스빌 옆,33.2571773,126.5296159,clean
2271,제주특별자치도 서귀포시 서호동 1209-1,군족옆,33.2567091,126.5155379,clean
2272,제주특별자치도 서귀포시 서호동 925-5,공무원 연금공단,33.2528569,126.5176063,clean
2273,제주특별자치도 서귀포시 호근동 1772,서호서부농협 동쪽,33.25574799,126.5259741,clean
2274,제주특별자치도 서귀포시 호근동 1838-7,서호교회 옆,33.2568657,126.522107,clean
2275,제주특별자치도 서귀포시 법환동 1641,상지 에코빌,33.2447473,126.5072043,clean
2276,제주특별자치도 서귀포시 서호동 645-1,서호 블루오션,33.2598005,126.520068,clean
2277,제주특별자치도 서귀포시 법환동 284-1,막숙(법환포구),33.2375053,126.5133686,clean
2278,제주특별자치도 서귀포시 법환동 398,기영연립,33.23921343,126.5141623,clean
2279,제주특별자치도 서귀포시 호근동 1883-1,호근로 112번길 입구,33.2603108,126.5251506,clean
2280,제주특별자치도 서귀포시 호근동 850-10,희망주유소 맞은편,33.2623028,126.5378002,clean
2281,제주특별자치도 서귀포시 서호동 271-1,구 부영함바식당 앞,33.2514183,126.52219,clean
2282,제주특별자치도 서귀포시 호근동 1570-1,속골로 입구,33.24418557,126.529792,clean
2283,제주특별자치도 서귀포시 강정동 2940-1,강정의례회관,33.237551,126.482364,clean
2284,제주특별자치도 서귀포시 강정동 2857-4,강정천 주유소 서쪽,33.234956,126.48208,clean
2285,제주특별자치도 서귀포시 강정동 4590,강정아왜낭목,33.233416,126.475319,clean
2286,제주특별자치도 서귀포시 강정동 2095,염돈어린이집,33.250341,126.494899,clean
2287,제주특별자치도 서귀포시 강정동 1926-1,월산 삼거리,33.25962734,126.4918686,clean
2288,제주특별자치도 서귀포시 월평동 419,월평마을회관,33.24611993,126.4607818,clean
2289,제주특별자치도 서귀포시 월평동 471-1,월평무료주차장,33.24480787,126.4592833,clean
2290,제주특별자치도 서귀포시 월평동 513-1,월평체육공원(정도),33.2433304,126.4570913,clean
2291,제주특별자치도 서귀포시 도순동 313-1,도순 무료주차장,33.24956848,126.4761441,clean
2292,제주특별자치도 서귀포시 도순동 279-6,도순 마을회관,33.25085315,126.4754668,clean
2293,제주특별자치도 서귀포시 도순동 903,도순코사마트 맞은편,33.25300695,126.4739301,clean
2294,제주특별자치도 서귀포시 도순동 758-3,이비가 짬뽕,33.25321898,126.4695076,clean
2295,제주특별자치도 서귀포시 도순동 243-1,도순 진양빌라 입구,33.25229769,126.4750719,clean
2296,제주특별자치도 서귀포시 강정동 174-1,신시가지대신화물,33.25248,126.508293,clean
2297,제주특별자치도 서귀포시 강정동 129-7,한경식당 서쪽,33.25873843,126.5084908,clean
2298,제주특별자치도 서귀포시 강정동 134-18,대신중학교 입구,33.25801692,126.5075247,clean
2299,제주특별자치도 서귀포시 강정동 125-2,미래공원(문화어린이공원),33.25937086,126.5088178,clean
2300,제주특별자치도 서귀포시 도순동 820-4,도순코사마트 옆 주차장,33.25247942,126.4736972,clean
2301,제주특별자치도 서귀포시 강정동 146,S&P어린이집,33.256108,126.505822,clean
2302,제주특별자치도 서귀포시 강정동 4047-3,용흥 노인복지회관,33.25051346,126.4830577,clean
2303,제주특별자치도 서귀포시 강정동 4692,숨비소리입구,33.229111,126.476405,clean
2304,제주특별자치도 서귀포시 중문동 1452,솔빛바다빌라 앞,33.25763,126.425214,clean
2305,제주특별자치도 서귀포시 중문동 1543,하우스 더 부자,33.257133,126.423938,clean
2306,제주특별자치도 서귀포시 중문동 1551-1,희망빌,33.25534051,126.4243029,clean
2307,제주특별자치도 서귀포시 중문동 1349-2,이화빌라,33.25708614,126.4274466,clean
2308,제주특별자치도 서귀포시 중문동 1684-2,슬기샘어린이집 입구,33.254778,126.426995,clean
2309,제주특별자치도 서귀포시 중문동 1675-1,남주아파트 입구,33.2540367,126.4278056,clean
2310,제주특별자치도 서귀포시 중문동 2116-4,우체국사거리 앞,33.251546,126.423045,clean
2311,제주특별자치도 서귀포시 중문동 2036-2,타운하우스 앞,33.24997696,126.4264928,clean
2312,제주특별자치도 서귀포시 중문동 2439-1,중문청년회의소 옆,33.25011461,126.4305481,clean
2313,제주특별자치도 서귀포시 대포동 778,동산낚시 앞,33.246892,126.432778,clean
2314,제주특별자치도 서귀포시 대포동 1598-4,대포마을회관 앞,33.242827,126.432073,clean
2315,제주특별자치도 서귀포시 대포동 1900-3,보우힐(소공원),33.240715,126.43145,clean
2316,제주특별자치도 서귀포시 대포동 2026-1,미덕하이츠빌라 앞,33.2422892,126.4346504,clean
2317,제주특별자치도 서귀포시 회수동 845-4,회수로터리서쪽,33.2632478,126.4381755,clean
2318,제주특별자치도 서귀포시 회수동 355-5,회수다리 옆,33.2627497,126.4449862,clean
2319,제주특별자치도 서귀포시 하원동 1202-1,마을서쪽자비사가는길,33.258988,126.455829,clean
2320,제주특별자치도 서귀포시 하원동 1276,하원동 예가,33.257376,126.457952,clean
2321,제주특별자치도 서귀포시 하원동 1332-2,마을회관입구 앞(AN빌라 남),33.25506922,126.4586535,clean
2322,제주특별자치도 서귀포시 하원동 493,하원마을회관 뒤쪽,33.257348,126.460182,clean
2323,제주특별자치도 서귀포시 대포동 829,풍림빌리지,33.24736373,126.433901,clean
2324,제주특별자치도 서귀포시 회수동 658-1,DM하우스,33.2543906,126.4373832,clean
2325,제주특별자치도 서귀포시 중문동 1767-3,누리빌주차장,33.25481605,126.431814,clean
2326,제주특별자치도 서귀포시 중문동 2367-1,상지타운,33.24934041,126.4245397,clean
2327,제주특별자치도 서귀포시 회수동 656,노인복지타운,33.2548042,126.4364326,clean
2328,제주특별자치도 서귀포시 하원동 1710-1,약천사입구,33.243362,126.453571,clean
2329,제주특별자치도 서귀포시 상예동 4625,상예 2 (3통),33.2657514,126.3763718,clean
2330,제주특별자치도 서귀포시 상예동 1718,우남동,33.2644643,126.3895852,clean
2331,제주특별자치도 서귀포시 상예동 1442-2,정문동 (2통),33.2502378,126.391847,clean
2332,제주특별자치도 서귀포시 하예동 999-1,중동 (4통),33.2417955,126.3798882,clean
2333,제주특별자치도 서귀포시 하예동 1774-1,포구 (5통),33.2329914,126.3705453,clean
2334,제주특별자치도 서귀포시 색달동 1892-7,색달마을회관,33.26141194,126.4130974,clean
2335,제주특별자치도 서귀포시 상예동 4563,가가동,33.2713238,126.3720723,clean
2336,제주특별자치도 서귀포시 상예동 1526-1,상예복지센터 밑,33.25337748,126.3892938,clean
2337,제주특별자치도 서귀포시 상예동 1279,상예마을회관 옆,33.2486338,126.3880747,clean
2338,제주특별자치도 서귀포시 하예동 266,하예동무료주차장,33.2452664,126.3859862,clean
2339,제주특별자치도 서귀포시 하예동 997,논지물 입구,33.2411503,126.3803282,clean
2340,제주특별자치도 서귀포시 하예동 293-2,돈뱅이 입구,33.2437466,126.3863532,clean
2341,제주특별자치도 서귀포시 상예동 531,주민센터 밑,33.2535813,126.3963528,clean
2342,제주특별자치도 서귀포시 색달동 산8,색달동매립장,33.308716,126.4184875,clean
2343,제주특별자치도 서귀포시 상예동 1152-3,예래초등학교,33.24574644,126.3915573,clean
2344,제주특별자치도 서귀포시 상예동 3172-1,새마을금고서쪽,33.2469712,126.3858412,clean
2345,제주특별자치도 서귀포시 하예동 1560,하예하동마을회관,33.2363026,126.371074,clean
2346,제주특별자치도 서귀포시 하예동 1831-3,대평입구,33.2351148,126.3682831,clean
2347,제주시 한림읍 한림남길 12,한림2리,126.268657,33.4094371,recycle
2348,제주시 애월읍 고내로 14,고내리,126.339179,33.4630722,recycle
2349,제주시 애월읍 하귀동남3길 16,하귀1리,126.414218,33.483718,recycle
2350,제주시 애월읍 애월해안로 7,애월리,126.316562,33.4651491,recycle
2351,제주시 애월읍 곽지3길 13,곽지리,126.305693,33.4482111,recycle
2352,제주시 애월읍 중엄3길 17,신엄리,126.373051,33.4750503,recycle
2353,제주시 애월읍 고하상로 144,하가리,126.349811,33.4537791,recycle
2354,제주시 구좌읍 종달논길 31-10,종달리,126.901763,33.492697,recycle
2355,제주시 구좌읍 문주란로 68,하도리,126.875076,33.5082252,recycle
2356,제주시 조천읍 조천18길 5-5,조천리,126.643669,33.5397793,recycle
2357,제주시 조천읍 중산간동로 924,와산리,126.680367,33.4915636,recycle
2358,제주시 조천읍 와흘4길 33-1,와흘리,126.633478,33.5055702,recycle
2359,제주시 조천읍 조함해안로 532-3,함덕리,126.670028,33.5417911,recycle
2360,제주시 조천읍 신흥리 530-13,신흥리,126.650685,33.548662,recycle
2361,제주시 우도면 조일길 123-5,우도면,126.960939,33.5107444,recycle
2362,제주시 도남로5길 25 (도남동),이도2동,126.528667,33.4973707,recycle
2363,제주시 광양9길 65 (이도이동),이도2동,126.535905,33.5022397,recycle
2364,제주시 독짓골8길 34 (도남동),이도2동,126.532574,33.4912007,recycle
2365,제주시 신설동길 40-10 (이도이동),이도2동,126.549697,33.4948616,recycle
2366,제주시 서광로25길 16 (삼도일동),삼도1동,126.522243,33.5032064,recycle
2367,제주시 서광로5길 26 (용담일동),용담1동,126.514565,33.5020855,recycle
2368,제주시 용해로 16 (용담삼동),용담2동,126.50224,33.5157946,recycle
2369,제주시 선반로10길 14 (화북일동),화북동,126.566419,33.5142425,recycle
2370,제주시 지석10길 18 (삼양이동),삼양동,126.582666,33.5197351,recycle
2371,제주시 화삼로 47 (도련일동),삼양동,126.578541,33.5158713,recycle
2372,제주시 산천단동길 4 (아라일동),아라동,126.556849,33.440828,recycle
2373,제주시 인다14길 20 (아라일동),아라동,126.547624,33.4713316,recycle
2374,제주시 아연로 165 (오라이동),오라동,126.508453,33.4716868,recycle
2375,제주시 오라로 115(오라일동),오라동,126.514917,33.4950365,recycle
2376,제주시 은남1길 45 (연동),연동,126.490966,33.4890708,recycle
2377,제주시 귀아랑길 33 (연동),연동,126.499334,33.489673,recycle
2378,제주시 연동14길 32 (연동),연동,126.494035,33.4831509,recycle
2379,제주시 신대로16길 22(연동),연동,126.494345,33.4870651,recycle
2380,제주시 진군3길 10 (노형동),노형동,126.479767,33.4778535,recycle
2381,제주시 우평로 10 (노형동),노형동,126.480872,33.465876,recycle
2382,제주시 원노형9길 3 (노형동),노형동,126.483215,33.4860724,recycle
2383,제주시 월랑로2길 1(노형동),노형동,126.479883,33.4873116,recycle
2384,제주시 신비마을1길 6 (해안동),노형동,126.480271,33.4458672,recycle
2385,제주시 오일장동길 51 (도두일동),도두동,126.47436,33.4966106,recycle
2386,제주시 도공로 3(도두일동),도두동,126.465489,33.5060753,recycle
2387,서귀포시 대정읍 마라로 127,마라도,126.26781,33.1139314,recycle
2388,서귀포시 대정읍 동일하모로 90,동일1리,126.2416,33.22864,recycle
2389,서귀포시 대정읍 신영로36번길 69-11,하모3리,126.247548,33.2205978,recycle
2390,서귀포시 대정읍 영어도시로 35-3,구억리,126.278568,33.2755545,recycle
2391,서귀포시 대정읍 상모대서로 20번길 61,상모2리,126.264418,33.2158392,recycle
2392,서귀포시 대정읍 신평로 10,신평리,126.259499,33.2673999,recycle
2393,서귀포시 남원읍 남태해안로 116,남원리,126.716322,33.2763288,recycle
2394,서귀포시 남원읍 태위로 377,위미3리,126.687644,33.2753941,recycle
2395,서귀포시 남원읍 신흥로 32-5,신흥1리,126.76896,33.3050921,recycle
2396,서귀포시 남원읍 남태해안로 489,태흥2리,126.749431,33.285642,recycle
2397,서귀포시 성산읍 온평포구로62번길 13,온평리,126.902835,33.4013652,recycle
2398,서귀포시 성산읍 성산등용로 65,성산리,126.928987,33.4678047,recycle
2399,서귀포시 성산읍 삼달로 249,삼달리,126.84493,33.3761776,recycle
2400,서귀포시 성산읍 고성오조로 40,고성리,126.915604,33.4470051,recycle
2401,서귀포시 성산읍 신풍상동로 4,신풍리,126.83533,33.3613876,recycle
2402,서귀포시 성산읍 신천동로 26,신천리,126.85577,33.3457522,recycle
2403,서귀포시 안덕면 화순로 154-42,화순리,126.330091,33.2501026,recycle
2404,서귀포시 안덕면 일주서로 1521,감산리,126.353928,33.2582533,recycle
2405,서귀포시 안덕면 사계중앙로3번길 14,사계리,126.299192,33.2307096,recycle
2406,서귀포시 표선면 표선동서로 203-3,표선리,126.830313,33.3223497,recycle
2407,서귀포시 표선면 서성일로27번길 16-7,성읍 新문화마을,126.799269,33.3951086,recycle
2408,서귀포시 표선면 서성일로10번길 9-6,성읍 문화마을,126.801949,33.3931474,recycle
2409,서귀포시 표선면 세화강왓로 104,세화1리,126.798229,33.3152055,recycle
2410,서귀포시 표선면 가마병풍로 29,세화2리,126.803967,33.3087231,recycle
2411,서귀포시 중앙로4번길 3,정방동,126.562532,33.2450994,recycle
2412,서귀포시 중앙로62번길 20(서귀동),중앙동,126.563686,33.2501977,recycle
2413,서귀포시 서문로 14(서귀동),천지동,126.559687,33.2517163,recycle
2414,서귀포시 월라봉로34번길37(신효동),효돈동,126.609477,33.2664264,recycle
2415,서귀포시 동홍중앙로 99(동홍동),동홍동,126.56738,33.2627612,recycle
2416,서귀포시 홍중로 28(서홍동),서홍동,126.558392,33.2552821,recycle
2417,서귀포시 호근로26번길 10(호근동),호근,126.526913,33.2540479,recycle
2418,서귀포시 신서귀로 87(법환동),새서귀포,126.510029,33.256597,recycle
2419,서귀포시 법환로 87,법환마을,126.507588,33.2403492,recycle
2420,서귀포시 신서로 39(강정동),대천동 (신시가지),126.504315,33.2537162,recycle
2421,서귀포시 강정통물로 125-12(강정동),강정마을,126.476434,33.2377511,recycle
2422,서귀포시 용흥로38번길 59-6,용흥마을,126.484356,33.257106,recycle
2423,서귀포시 중문상로17번길 3(중문동),중문동,126.424049,33.2500604,recycle
2424,서귀포시 색달로72번길 8,색달마을,126.410683,33.2605105,recycle
